{
  "type": "FeatureCollection",
  "features": [
    {
      "type": "Feature",
      "geometry": {
        "type": "Polygon",
        "coordinates": [
          [
            [
              51.4468891,
              35.7419511
            ],
            [
              51.446405,
              35.7420428
            ],
            [
              51.4456862,
              35.7421734
            ],
            [
              51.4450102,
              35.742365
            ],
            [
              51.444506,
              35.7425131
            ],
            [
              51.443594,
              35.7426176
            ],
            [
              51.4428859,
              35.7426089
            ],
            [
              51.4421997,
              35.7425775
            ],
            [
              51.4421242,
              35.742574
            ],
            [
              51.4409762,
              35.7425827
            ],
            [
              51.4400052,
              35.7426698
            ],
            [
              51.439222,
              35.7426698
            ],
            [
              51.4383101,
              35.7426959
            ],
            [
              51.4370977,
              35.7426872
            ],
            [
              51.4363253,
              35.7426089
            ],
            [
              51.4357272,
              35.7425043
            ],
            [
              51.4351129,
              35.742365
            ],
            [
              51.4344906,
              35.7420864
            ],
            [
              51.4337611,
              35.7417642
            ],
            [
              51.4331388,
              35.7413984
            ],
            [
              51.432538,
              35.7410936
            ],
            [
              51.4320015,
              35.7408672
            ],
            [
              51.4312505,
              35.7406147
            ],
            [
              51.4303278,
              35.7404754
            ],
            [
              51.4285683,
              35.7404492
            ],
            [
              51.4245772,
              35.7402838
            ],
            [
              51.4227048,
              35.7402429
            ],
            [
              51.4227746,
              35.7415508
            ],
            [
              51.4224475,
              35.7439455
            ],
            [
              51.4223885,
              35.7448991
            ],
            [
              51.4223832,
              35.7450426
            ],
            [
              51.42241,
              35.7469323
            ],
            [
              51.4213049,
              35.7496533
            ],
            [
              51.4204465,
              35.7500473
            ],
            [
              51.4182847,
              35.75136
            ],
            [
              51.4172655,
              35.7517802
            ],
            [
              51.4162302,
              35.7520347
            ],
            [
              51.4152216,
              35.7521697
            ],
            [
              51.4142293,
              35.7521851
            ],
            [
              51.4133012,
              35.7520782
            ],
            [
              51.4113539,
              35.7516627
            ],
            [
              51.4103963,
              35.7514906
            ],
            [
              51.4091116,
              35.7513599
            ],
            [
              51.4052948,
              35.7513295
            ],
            [
              51.4042569,
              35.7512946
            ],
            [
              51.4036158,
              35.751286
            ],
            [
              51.4018267,
              35.7512794
            ],
            [
              51.4001235,
              35.7512446
            ],
            [
              51.3967787,
              35.751077
            ],
            [
              51.3955905,
              35.7509942
            ],
            [
              51.3924121,
              35.7507722
            ],
            [
              51.3917885,
              35.7507047
            ],
            [
              51.3901712,
              35.7506416
            ],
            [
              51.3886142,
              35.7504654
            ],
            [
              51.3860821,
              35.7503086
            ],
            [
              51.3861156,
              35.7512163
            ],
            [
              51.3861044,
              35.7515633
            ],
            [
              51.3861776,
              35.7527314
            ],
            [
              51.3862064,
              35.7532622
            ],
            [
              51.3862173,
              35.7535442
            ],
            [
              51.3862697,
              35.7542636
            ],
            [
              51.3864008,
              35.7549915
            ],
            [
              51.3867299,
              35.7558483
            ],
            [
              51.3868831,
              35.7561215
            ],
            [
              51.3870946,
              35.7566102
            ],
            [
              51.3871332,
              35.7566855
            ],
            [
              51.3872976,
              35.7570062
            ],
            [
              51.3879583,
              35.7582949
            ],
            [
              51.3882492,
              35.7589259
            ],
            [
              51.3884378,
              35.7594034
            ],
            [
              51.388602,
              35.7601014
            ],
            [
              51.3886354,
              35.7608515
            ],
            [
              51.388484,
              35.7620167
            ],
            [
              51.3882373,
              35.763401
            ],
            [
              51.3879771,
              35.7648567
            ],
            [
              51.3878259,
              35.765619
            ],
            [
              51.3875769,
              35.7669191
            ],
            [
              51.3874111,
              35.7683457
            ],
            [
              51.3873414,
              35.7691466
            ],
            [
              51.3873843,
              35.7698778
            ],
            [
              51.3875131,
              35.7706264
            ],
            [
              51.3877276,
              35.7714621
            ],
            [
              51.3880173,
              35.7721933
            ],
            [
              51.3887254,
              35.7733859
            ],
            [
              51.3895945,
              35.7747177
            ],
            [
              51.3901094,
              35.7754924
            ],
            [
              51.3904183,
              35.7759897
            ],
            [
              51.3909002,
              35.7766694
            ],
            [
              51.391751,
              35.777947
            ],
            [
              51.3925127,
              35.779183
            ],
            [
              51.3930062,
              35.7801752
            ],
            [
              51.393135,
              35.7811588
            ],
            [
              51.393135,
              35.7820117
            ],
            [
              51.3929633,
              35.7829082
            ],
            [
              51.3921157,
              35.7866855
            ],
            [
              51.391869,
              35.7881999
            ],
            [
              51.391869,
              35.7886176
            ],
            [
              51.3919441,
              35.789105
            ],
            [
              51.3922542,
              35.7897669
            ],
            [
              51.3925566,
              35.7901135
            ],
            [
              51.3932164,
              35.7906204
            ],
            [
              51.3936738,
              35.7908662
            ],
            [
              51.3942692,
              35.791099
            ],
            [
              51.3948191,
              35.7912687
            ],
            [
              51.3968763,
              35.7918496
            ],
            [
              51.3989738,
              35.7924675
            ],
            [
              51.3993042,
              35.7926066
            ],
            [
              51.3997688,
              35.7928107
            ],
            [
              51.4004704,
              35.7931115
            ],
            [
              51.4016104,
              35.7936315
            ],
            [
              51.4023775,
              35.7938099
            ],
            [
              51.4030374,
              35.7937903
            ],
            [
              51.4037187,
              35.7936337
            ],
            [
              51.4042604,
              35.793366
            ],
            [
              51.4055804,
              35.7925124
            ],
            [
              51.4060334,
              35.7922195
            ],
            [
              51.4068058,
              35.7919388
            ],
            [
              51.407286,
              35.7918822
            ],
            [
              51.4082542,
              35.7918932
            ],
            [
              51.4104992,
              35.7919475
            ],
            [
              51.4128515,
              35.7915538
            ],
            [
              51.4162543,
              35.7909153
            ],
            [
              51.4162755,
              35.7909102
            ],
            [
              51.4169232,
              35.7907531
            ],
            [
              51.4177171,
              35.7904811
            ],
            [
              51.418393,
              35.7901874
            ],
            [
              51.4191225,
              35.7897914
            ],
            [
              51.4200882,
              35.7889755
            ],
            [
              51.4208231,
              35.7880443
            ],
            [
              51.421727,
              35.7860643
            ],
            [
              51.4222366,
              35.7852397
            ],
            [
              51.4230161,
              35.7844137
            ],
            [
              51.4247284,
              35.7827179
            ],
            [
              51.426209,
              35.7810533
            ],
            [
              51.4272282,
              35.779641
            ],
            [
              51.4278159,
              35.7785087
            ],
            [
              51.428414,
              35.7788078
            ],
            [
              51.4303663,
              35.7794561
            ],
            [
              51.4310065,
              35.7796858
            ],
            [
              51.4316432,
              35.7799883
            ],
            [
              51.4325032,
              35.7805757
            ],
            [
              51.4329462,
              35.7809758
            ],
            [
              51.4336038,
              35.7816386
            ],
            [
              51.4344863,
              35.7826395
            ],
            [
              51.4350737,
              35.783203
            ],
            [
              51.4360861,
              35.7838755
            ],
            [
              51.4364175,
              35.7840506
            ],
            [
              51.4369016,
              35.7842246
            ],
            [
              51.43735,
              35.784333
            ],
            [
              51.4390045,
              35.784686
            ],
            [
              51.4405507,
              35.7849862
            ],
            [
              51.4428815,
              35.7854692
            ],
            [
              51.4459407,
              35.7863069
            ],
            [
              51.4481874,
              35.787099
            ],
            [
              51.4493484,
              35.7875613
            ],
            [
              51.451681,
              35.7886351
            ],
            [
              51.4541464,
              35.7900212
            ],
            [
              51.4560538,
              35.7911965
            ],
            [
              51.4574759,
              35.792088
            ],
            [
              51.4584894,
              35.7926024
            ],
            [
              51.4594124,
              35.7929648
            ],
            [
              51.460796,
              35.7932007
            ],
            [
              51.4618371,
              35.7931791
            ],
            [
              51.4630022,
              35.7930016
            ],
            [
              51.4653884,
              35.7922838
            ],
            [
              51.4662155,
              35.7920595
            ],
            [
              51.469823,
              35.791445
            ],
            [
              51.4725763,
              35.7906171
            ],
            [
              51.4733908,
              35.7904073
            ],
            [
              51.4741018,
              35.7902847
            ],
            [
              51.4756153,
              35.7901797
            ],
            [
              51.4764252,
              35.7902115
            ],
            [
              51.4761658,
              35.7899379
            ],
            [
              51.4758754,
              35.7896316
            ],
            [
              51.4753038,
              35.7890288
            ],
            [
              51.4740123,
              35.7877343
            ],
            [
              51.4733806,
              35.7871316
            ],
            [
              51.4731204,
              35.7869183
            ],
            [
              51.4728469,
              35.7867791
            ],
            [
              51.4725223,
              35.7866605
            ],
            [
              51.4717405,
              35.7864766
            ],
            [
              51.4709788,
              35.7862993
            ],
            [
              51.470675,
              35.7861808
            ],
            [
              51.4704798,
              35.7860502
            ],
            [
              51.4703692,
              35.7859426
            ],
            [
              51.4702713,
              35.7858022
            ],
            [
              51.4701177,
              35.785491
            ],
            [
              51.4687251,
              35.7826625
            ],
            [
              51.4681182,
              35.7813905
            ],
            [
              51.4678614,
              35.7808836
            ],
            [
              51.4675798,
              35.7802678
            ],
            [
              51.4665678,
              35.7780569
            ],
            [
              51.4647735,
              35.7760015
            ],
            [
              51.4641036,
              35.7752031
            ],
            [
              51.4622669,
              35.7731204
            ],
            [
              51.4601962,
              35.7707265
            ],
            [
              51.4578681,
              35.7679844
            ],
            [
              51.4565914,
              35.7664958
            ],
            [
              51.4560442,
              35.7658429
            ],
            [
              51.4554541,
              35.7638928
            ],
            [
              51.4554363,
              35.763792
            ],
            [
              51.4553231,
              35.7634377
            ],
            [
              51.4552627,
              35.7632478
            ],
            [
              51.4546602,
              35.7616554
            ],
            [
              51.4543705,
              35.7610547
            ],
            [
              51.4538233,
              35.7604105
            ],
            [
              51.4526364,
              35.755246
            ],
            [
              51.4525897,
              35.7550317
            ],
            [
              51.4525251,
              35.7547426
            ],
            [
              51.4525036,
              35.7546451
            ],
            [
              51.4523132,
              35.7538654
            ],
            [
              51.450712,
              35.7528935
            ],
            [
              51.4499581,
              35.7524453
            ],
            [
              51.4488921,
              35.7519259
            ],
            [
              51.449007,
              35.7513457
            ],
            [
              51.4490633,
              35.7511716
            ],
            [
              51.4491077,
              35.750873
            ],
            [
              51.4492045,
              35.7503434
            ],
            [
              51.4495049,
              35.7483495
            ],
            [
              51.4495156,
              35.7478183
            ],
            [
              51.4494526,
              35.7473382
            ],
            [
              51.4493976,
              35.7471478
            ],
            [
              51.4493627,
              35.7470336
            ],
            [
              51.4489316,
              35.7463386
            ],
            [
              51.4489792,
              35.7462074
            ],
            [
              51.448593,
              35.7456327
            ],
            [
              51.447335,
              35.7436038
            ],
            [
              51.4471815,
              35.7433485
            ],
            [
              51.4471365,
              35.743016
            ],
            [
              51.4470319,
              35.7425175
            ],
            [
              51.4468891,
              35.7419511
            ]
          ]
        ]
      },
      "properties": {
        "id": 6728897,
        "name": "منطقه ۳ شهر تهران"
      }
    }
  ]
}