{
  "type": "FeatureCollection",
  "features": [
    {
      "type": "Feature",
      "geometry": {
        "type": "Polygon",
        "coordinates": [
          [
            [
              51.4260275,
              35.70167
            ],
            [
              51.4259967,
              35.7034053
            ],
            [
              51.4258694,
              35.7052513
            ],
            [
              51.4257671,
              35.7067353
            ],
            [
              51.4257553,
              35.706906
            ],
            [
              51.4256051,
              35.7091193
            ],
            [
              51.4254884,
              35.7111535
            ],
            [
              51.4255903,
              35.7123175
            ],
            [
              51.4256166,
              35.7125104
            ],
            [
              51.4256877,
              35.7132694
            ],
            [
              51.4257266,
              35.7135863
            ],
            [
              51.4257701,
              35.7137419
            ],
            [
              51.4258371,
              35.7142885
            ],
            [
              51.4258868,
              35.7145095
            ],
            [
              51.4259954,
              35.7149451
            ],
            [
              51.4261734,
              35.715412
            ],
            [
              51.4264004,
              35.7160078
            ],
            [
              51.4265586,
              35.716635
            ],
            [
              51.4270424,
              35.7176543
            ],
            [
              51.4274652,
              35.7185449
            ],
            [
              51.4275001,
              35.7189652
            ],
            [
              51.4267142,
              35.7208118
            ],
            [
              51.4263199,
              35.7212451
            ],
            [
              51.4254107,
              35.722298
            ],
            [
              51.4250647,
              35.7234826
            ],
            [
              51.4249011,
              35.7241457
            ],
            [
              51.4247965,
              35.7248087
            ],
            [
              51.4244263,
              35.7258343
            ],
            [
              51.4240951,
              35.7264974
            ],
            [
              51.4233252,
              35.7274597
            ],
            [
              51.4221276,
              35.7286443
            ],
            [
              51.4213767,
              35.7293159
            ],
            [
              51.4205692,
              35.7305712
            ],
            [
              51.4203466,
              35.7316359
            ],
            [
              51.4204889,
              35.7327594
            ],
            [
              51.4207705,
              35.7334452
            ],
            [
              51.4211728,
              35.7341638
            ],
            [
              51.4215483,
              35.7348148
            ],
            [
              51.4219078,
              35.7358664
            ],
            [
              51.422369,
              35.7385747
            ],
            [
              51.4225541,
              35.7396088
            ],
            [
              51.4227048,
              35.7402429
            ],
            [
              51.4245772,
              35.7402838
            ],
            [
              51.4285683,
              35.7404492
            ],
            [
              51.4303278,
              35.7404754
            ],
            [
              51.4312505,
              35.7406147
            ],
            [
              51.4320015,
              35.7408672
            ],
            [
              51.432538,
              35.7410936
            ],
            [
              51.4331388,
              35.7413984
            ],
            [
              51.4337611,
              35.7417642
            ],
            [
              51.4344906,
              35.7420864
            ],
            [
              51.4351129,
              35.742365
            ],
            [
              51.4357272,
              35.7425043
            ],
            [
              51.4363253,
              35.7426089
            ],
            [
              51.4370977,
              35.7426872
            ],
            [
              51.4383101,
              35.7426959
            ],
            [
              51.439222,
              35.7426698
            ],
            [
              51.4400052,
              35.7426698
            ],
            [
              51.4409762,
              35.7425827
            ],
            [
              51.4421242,
              35.742574
            ],
            [
              51.4421997,
              35.7425775
            ],
            [
              51.4428859,
              35.7426089
            ],
            [
              51.443594,
              35.7426176
            ],
            [
              51.444506,
              35.7425131
            ],
            [
              51.4450102,
              35.742365
            ],
            [
              51.4456862,
              35.7421734
            ],
            [
              51.446405,
              35.7420428
            ],
            [
              51.4468891,
              35.7419511
            ],
            [
              51.4473049,
              35.7419178
            ],
            [
              51.4486983,
              35.7419145
            ],
            [
              51.4494239,
              35.7418699
            ],
            [
              51.453649,
              35.7414594
            ],
            [
              51.4569642,
              35.7411546
            ],
            [
              51.4578225,
              35.7411111
            ],
            [
              51.4589437,
              35.7411938
            ],
            [
              51.4595874,
              35.741246
            ],
            [
              51.4602687,
              35.7412809
            ],
            [
              51.4607112,
              35.7412569
            ],
            [
              51.4616634,
              35.7410849
            ],
            [
              51.4626129,
              35.7407976
            ],
            [
              51.4636697,
              35.7405232
            ],
            [
              51.4649893,
              35.7404971
            ],
            [
              51.4658262,
              35.7404623
            ],
            [
              51.4668473,
              35.7403457
            ],
            [
              51.465912,
              35.7389318
            ],
            [
              51.4654062,
              35.7381647
            ],
            [
              51.4638092,
              35.736145
            ],
            [
              51.4613213,
              35.7333031
            ],
            [
              51.4601997,
              35.7319518
            ],
            [
              51.4592266,
              35.730992
            ],
            [
              51.4593065,
              35.7304233
            ],
            [
              51.4589477,
              35.7298372
            ],
            [
              51.4589262,
              35.7294641
            ],
            [
              51.4588739,
              35.7289349
            ],
            [
              51.458898,
              35.7282142
            ],
            [
              51.4589195,
              35.7271799
            ],
            [
              51.4595753,
              35.725929
            ],
            [
              51.4618696,
              35.7223105
            ],
            [
              51.4623389,
              35.7215704
            ],
            [
              51.4624466,
              35.7213997
            ],
            [
              51.4627129,
              35.7209251
            ],
            [
              51.4633606,
              35.7198531
            ],
            [
              51.4639601,
              35.7189174
            ],
            [
              51.4640922,
              35.718588
            ],
            [
              51.4642078,
              35.7183983
            ],
            [
              51.4650269,
              35.7172971
            ],
            [
              51.4665397,
              35.7151542
            ],
            [
              51.4713247,
              35.7101713
            ],
            [
              51.4722045,
              35.7092043
            ],
            [
              51.4722863,
              35.7090256
            ],
            [
              51.4699675,
              35.7083004
            ],
            [
              51.4663245,
              35.7071795
            ],
            [
              51.4616898,
              35.7058476
            ],
            [
              51.4577726,
              35.7047343
            ],
            [
              51.4525385,
              35.7032354
            ],
            [
              51.4501125,
              35.7025123
            ],
            [
              51.449116,
              35.7022248
            ],
            [
              51.4484252,
              35.7020532
            ],
            [
              51.4481593,
              35.7020013
            ],
            [
              51.4480975,
              35.7019892
            ],
            [
              51.4467095,
              35.7019516
            ],
            [
              51.4462897,
              35.7019451
            ],
            [
              51.4438221,
              35.7019151
            ],
            [
              51.4385551,
              35.7018424
            ],
            [
              51.4361389,
              35.7018372
            ],
            [
              51.4300623,
              35.7017367
            ],
            [
              51.428154,
              35.7017051
            ],
            [
              51.4260275,
              35.70167
            ]
          ]
        ]
      },
      "properties": {
        "id": 6729036,
        "name": "منطقه ۷ شهر تهران"
      }
    }
  ]
}