{
  "type": "FeatureCollection",
  "features": [
    {
      "type": "Feature",
      "geometry": {
        "type": "Polygon",
        "coordinates": [
          [
            [
              51.4458795,
              35.6685529
            ],
            [
              51.4456059,
              35.6654069
            ],
            [
              51.4453644,
              35.6628251
            ],
            [
              51.445296,
              35.6610501
            ],
            [
              51.4451484,
              35.6608485
            ],
            [
              51.4449634,
              35.6607613
            ],
            [
              51.4423294,
              35.6605369
            ],
            [
              51.441728,
              35.6605038
            ],
            [
              51.4404076,
              35.6604312
            ],
            [
              51.4387366,
              35.660222
            ],
            [
              51.4374297,
              35.659986
            ],
            [
              51.4370669,
              35.6599079
            ],
            [
              51.4350888,
              35.6595606
            ],
            [
              51.4312908,
              35.6596935
            ],
            [
              51.4311138,
              35.65953
            ],
            [
              51.4309977,
              35.6593414
            ],
            [
              51.4307912,
              35.6593831
            ],
            [
              51.4305284,
              35.6594878
            ],
            [
              51.4304184,
              35.6596229
            ],
            [
              51.4248501,
              35.6592829
            ],
            [
              51.4191639,
              35.6589255
            ],
            [
              51.4144364,
              35.6586607
            ],
            [
              51.4128204,
              35.6585467
            ],
            [
              51.4122096,
              35.6585036
            ],
            [
              51.4119856,
              35.6584662
            ],
            [
              51.4117341,
              35.6584243
            ],
            [
              51.4106693,
              35.6582412
            ],
            [
              51.4094516,
              35.6580886
            ],
            [
              51.4074453,
              35.6581191
            ],
            [
              51.4067211,
              35.6581802
            ],
            [
              51.4048972,
              35.658433
            ],
            [
              51.4055778,
              35.6622454
            ],
            [
              51.4065718,
              35.6673891
            ],
            [
              51.4068498,
              35.6688756
            ],
            [
              51.4079349,
              35.6746145
            ],
            [
              51.4083578,
              35.6768506
            ],
            [
              51.4084055,
              35.6771031
            ],
            [
              51.4088762,
              35.6795248
            ],
            [
              51.4101559,
              35.6861089
            ],
            [
              51.4102348,
              35.686515
            ],
            [
              51.4113109,
              35.6921986
            ],
            [
              51.4114391,
              35.6926626
            ],
            [
              51.4116,
              35.6928543
            ],
            [
              51.4126424,
              35.6984029
            ],
            [
              51.4128392,
              35.6994502
            ],
            [
              51.412807,
              35.6997638
            ],
            [
              51.4127627,
              35.6998891
            ],
            [
              51.4128702,
              35.7013858
            ],
            [
              51.4190037,
              35.7015183
            ],
            [
              51.4260275,
              35.70167
            ],
            [
              51.428154,
              35.7017051
            ],
            [
              51.4300623,
              35.7017367
            ],
            [
              51.4361389,
              35.7018372
            ],
            [
              51.4385551,
              35.7018424
            ],
            [
              51.4438221,
              35.7019151
            ],
            [
              51.4462897,
              35.7019451
            ],
            [
              51.4467095,
              35.7019516
            ],
            [
              51.4480975,
              35.7019892
            ],
            [
              51.4480971,
              35.7017986
            ],
            [
              51.4480938,
              35.7000492
            ],
            [
              51.4480602,
              35.6995158
            ],
            [
              51.4478366,
              35.6955497
            ],
            [
              51.4475143,
              35.6915872
            ],
            [
              51.4473525,
              35.6895984
            ],
            [
              51.4473239,
              35.6892892
            ],
            [
              51.44679,
              35.681748
            ],
            [
              51.4465445,
              35.6788609
            ],
            [
              51.4464218,
              35.6772434
            ],
            [
              51.446259,
              35.6748314
            ],
            [
              51.4461797,
              35.673656
            ],
            [
              51.4460569,
              35.671757
            ],
            [
              51.4458795,
              35.6685529
            ]
          ]
        ]
      },
      "properties": {
        "id": 6729112,
        "name": "منطقه ۱۲ شهر تهران"
      }
    }
  ]
}