{
  "type": "FeatureCollection",
  "features": [
    {
      "type": "Feature",
      "geometry": {
        "type": "Polygon",
        "coordinates": [
          [
            [
              51.3395898,
              35.808116
            ],
            [
              51.3396483,
              35.8080559
            ],
            [
              51.3397395,
              35.8079835
            ],
            [
              51.3397974,
              35.8079154
            ],
            [
              51.3399215,
              35.8078499
            ],
            [
              51.3400354,
              35.8077769
            ],
            [
              51.3401071,
              35.8077191
            ],
            [
              51.3401692,
              35.8076397
            ],
            [
              51.3401863,
              35.8076333
            ],
            [
              51.3401951,
              35.8076054
            ],
            [
              51.3402175,
              35.8075829
            ],
            [
              51.3402173,
              35.8075604
            ],
            [
              51.3402627,
              35.8075061
            ],
            [
              51.3403892,
              35.8073059
            ],
            [
              51.3405185,
              35.8071371
            ],
            [
              51.3405304,
              35.8071075
            ],
            [
              51.3405398,
              35.807095
            ],
            [
              51.3405592,
              35.8070839
            ],
            [
              51.3405709,
              35.8070499
            ],
            [
              51.3405815,
              35.8070398
            ],
            [
              51.3405931,
              35.8070368
            ],
            [
              51.3406112,
              35.8069554
            ],
            [
              51.3406182,
              35.8069373
            ],
            [
              51.340645,
              35.8068999
            ],
            [
              51.3406578,
              35.8068153
            ],
            [
              51.3406812,
              35.8067441
            ],
            [
              51.340708,
              35.8066845
            ],
            [
              51.340702,
              35.8066156
            ],
            [
              51.3406806,
              35.806581
            ],
            [
              51.340682,
              35.8065053
            ],
            [
              51.3406654,
              35.8063182
            ],
            [
              51.340692,
              35.8062198
            ],
            [
              51.340767,
              35.8061003
            ],
            [
              51.3407991,
              35.8060327
            ],
            [
              51.3408064,
              35.8059995
            ],
            [
              51.3408046,
              35.8059614
            ],
            [
              51.3408172,
              35.8059329
            ],
            [
              51.3408033,
              35.8059019
            ],
            [
              51.3407935,
              35.8058052
            ],
            [
              51.3407916,
              35.8057384
            ],
            [
              51.3407961,
              35.8056462
            ],
            [
              51.3408095,
              35.8055544
            ],
            [
              51.3408568,
              35.8053823
            ],
            [
              51.3408909,
              35.8052896
            ],
            [
              51.3408731,
              35.8052316
            ],
            [
              51.3408728,
              35.8051473
            ],
            [
              51.3408641,
              35.8050655
            ],
            [
              51.3408613,
              35.8049885
            ],
            [
              51.340864,
              35.8049187
            ],
            [
              51.3408498,
              35.80481
            ],
            [
              51.3408305,
              35.8047635
            ],
            [
              51.3407752,
              35.8047035
            ],
            [
              51.3406988,
              35.8046067
            ],
            [
              51.3406828,
              35.8045091
            ],
            [
              51.3407533,
              35.8044069
            ],
            [
              51.340769,
              35.8043528
            ],
            [
              51.3408949,
              35.8040233
            ],
            [
              51.341083,
              35.8038583
            ],
            [
              51.3411969,
              35.8036426
            ],
            [
              51.3412932,
              35.8035038
            ],
            [
              51.3413159,
              35.8033435
            ],
            [
              51.3414173,
              35.8031791
            ],
            [
              51.3414489,
              35.8030249
            ],
            [
              51.3416632,
              35.8028749
            ],
            [
              51.341636,
              35.8027802
            ],
            [
              51.3414788,
              35.8026859
            ],
            [
              51.3414277,
              35.8023056
            ],
            [
              51.3413417,
              35.8020872
            ],
            [
              51.3412922,
              35.8020327
            ],
            [
              51.3412998,
              35.801701
            ],
            [
              51.3413166,
              35.8015476
            ],
            [
              51.3415121,
              35.8013072
            ],
            [
              51.341496,
              35.8011261
            ],
            [
              51.3415104,
              35.800895
            ],
            [
              51.3414407,
              35.8007623
            ],
            [
              51.3414249,
              35.8006374
            ],
            [
              51.3414626,
              35.8004812
            ],
            [
              51.3415388,
              35.8003748
            ],
            [
              51.3417607,
              35.800218
            ],
            [
              51.3419126,
              35.7998491
            ],
            [
              51.3419282,
              35.7996498
            ],
            [
              51.3419126,
              35.7995035
            ],
            [
              51.3418861,
              35.7993817
            ],
            [
              51.3418273,
              35.7992419
            ],
            [
              51.3416979,
              35.79913
            ],
            [
              51.3416075,
              35.7990229
            ],
            [
              51.3412439,
              35.7988287
            ],
            [
              51.3412165,
              35.798719
            ],
            [
              51.3412225,
              35.7986419
            ],
            [
              51.3413181,
              35.7985465
            ],
            [
              51.3414534,
              35.7984865
            ],
            [
              51.3417441,
              35.7986813
            ],
            [
              51.3411735,
              35.7977738
            ],
            [
              51.3411289,
              35.7976503
            ],
            [
              51.3410334,
              35.7971981
            ],
            [
              51.3409633,
              35.7968382
            ],
            [
              51.3410521,
              35.7966526
            ],
            [
              51.3415845,
              35.7958989
            ],
            [
              51.3414551,
              35.7952737
            ],
            [
              51.3405666,
              35.794281
            ],
            [
              51.3407769,
              35.7933506
            ],
            [
              51.3405928,
              35.7926566
            ],
            [
              51.3403566,
              35.791748
            ],
            [
              51.3402313,
              35.7912605
            ],
            [
              51.3407466,
              35.7902068
            ],
            [
              51.3405213,
              35.7894449
            ],
            [
              51.3404517,
              35.7888863
            ],
            [
              51.3404971,
              35.7885155
            ],
            [
              51.3405735,
              35.7883117
            ],
            [
              51.3406826,
              35.7882002
            ],
            [
              51.340756,
              35.7881105
            ],
            [
              51.3409248,
              35.7878329
            ],
            [
              51.3412022,
              35.7873336
            ],
            [
              51.3413063,
              35.7869606
            ],
            [
              51.3414022,
              35.7866724
            ],
            [
              51.3415162,
              35.7863944
            ],
            [
              51.3416773,
              35.7856769
            ],
            [
              51.3416452,
              35.7854015
            ],
            [
              51.3416517,
              35.7850292
            ],
            [
              51.3415948,
              35.7845818
            ],
            [
              51.3416477,
              35.7838969
            ],
            [
              51.3416216,
              35.7832984
            ],
            [
              51.3414718,
              35.7826077
            ],
            [
              51.3411679,
              35.7819923
            ],
            [
              51.3408418,
              35.7813911
            ],
            [
              51.3404325,
              35.780417
            ],
            [
              51.3402096,
              35.7801142
            ],
            [
              51.3390256,
              35.7796324
            ],
            [
              51.338562,
              35.7794455
            ],
            [
              51.3382698,
              35.7793517
            ],
            [
              51.3380805,
              35.7791913
            ],
            [
              51.3377665,
              35.7790688
            ],
            [
              51.3374012,
              35.7790008
            ],
            [
              51.3369625,
              35.7789354
            ],
            [
              51.3365717,
              35.7787604
            ],
            [
              51.3361234,
              35.7785036
            ],
            [
              51.3358869,
              35.7783696
            ],
            [
              51.3360473,
              35.7772153
            ],
            [
              51.3362339,
              35.7758504
            ],
            [
              51.3362616,
              35.7757125
            ],
            [
              51.3362834,
              35.7755052
            ],
            [
              51.3363361,
              35.7750715
            ],
            [
              51.3363575,
              35.7749789
            ],
            [
              51.3366329,
              35.773309
            ],
            [
              51.3366915,
              35.7728925
            ],
            [
              51.3367408,
              35.7725423
            ],
            [
              51.3368847,
              35.7715202
            ],
            [
              51.3368877,
              35.7715088
            ],
            [
              51.3371358,
              35.7705773
            ],
            [
              51.3371811,
              35.7704071
            ],
            [
              51.33735,
              35.7697732
            ],
            [
              51.3374717,
              35.7692201
            ],
            [
              51.3375402,
              35.768609
            ],
            [
              51.3374012,
              35.7662959
            ],
            [
              51.3373453,
              35.7658075
            ],
            [
              51.3370688,
              35.7649817
            ],
            [
              51.3364972,
              35.7634583
            ],
            [
              51.3359852,
              35.7620936
            ],
            [
              51.3342386,
              35.7572849
            ],
            [
              51.3328711,
              35.7536394
            ],
            [
              51.3321631,
              35.7518461
            ],
            [
              51.3319917,
              35.7514331
            ],
            [
              51.3319102,
              35.7511188
            ],
            [
              51.3318336,
              35.7508234
            ],
            [
              51.331781,
              35.7503793
            ],
            [
              51.3317903,
              35.7498313
            ],
            [
              51.3319354,
              35.748704
            ],
            [
              51.3322349,
              35.7461914
            ],
            [
              51.3325577,
              35.74339
            ],
            [
              51.3328679,
              35.7409331
            ],
            [
              51.3329304,
              35.7405696
            ],
            [
              51.3329941,
              35.7402366
            ],
            [
              51.3332232,
              35.7382267
            ],
            [
              51.333334,
              35.7372547
            ],
            [
              51.3335693,
              35.7357482
            ],
            [
              51.333949,
              35.732389
            ],
            [
              51.3340701,
              35.7314302
            ],
            [
              51.3343643,
              35.7290123
            ],
            [
              51.3344308,
              35.7283046
            ],
            [
              51.3347321,
              35.7266557
            ],
            [
              51.3349466,
              35.7254819
            ],
            [
              51.3351215,
              35.7240704
            ],
            [
              51.3352168,
              35.7229064
            ],
            [
              51.3352388,
              35.7225364
            ],
            [
              51.3352524,
              35.722334
            ],
            [
              51.3352626,
              35.7221365
            ],
            [
              51.3352696,
              35.7219789
            ],
            [
              51.3353082,
              35.7218734
            ],
            [
              51.3353942,
              35.7217023
            ],
            [
              51.3353824,
              35.7213645
            ],
            [
              51.335459,
              35.7210461
            ],
            [
              51.3355132,
              35.7207675
            ],
            [
              51.3355974,
              35.7204035
            ],
            [
              51.335625,
              35.7201631
            ],
            [
              51.3357547,
              35.7190894
            ],
            [
              51.3358379,
              35.7182194
            ],
            [
              51.3358916,
              35.7178589
            ],
            [
              51.3359004,
              35.717649
            ],
            [
              51.3359004,
              35.7176479
            ],
            [
              51.3359042,
              35.7175571
            ],
            [
              51.3359108,
              35.7171887
            ],
            [
              51.3359506,
              35.7161708
            ],
            [
              51.3358969,
              35.7157914
            ],
            [
              51.3357922,
              35.7151164
            ],
            [
              51.3357335,
              35.7145821
            ],
            [
              51.3357748,
              35.7137442
            ],
            [
              51.3358898,
              35.7132784
            ],
            [
              51.3360311,
              35.7126904
            ],
            [
              51.336124,
              35.7123579
            ],
            [
              51.3363385,
              35.711496
            ],
            [
              51.3364396,
              35.7110294
            ],
            [
              51.3367387,
              35.7097501
            ],
            [
              51.3369039,
              35.7086586
            ],
            [
              51.3370601,
              35.7075518
            ],
            [
              51.3373805,
              35.7053436
            ],
            [
              51.337603,
              35.7034656
            ],
            [
              51.3376747,
              35.7026113
            ],
            [
              51.3377633,
              35.7021195
            ],
            [
              51.337806,
              35.7020419
            ],
            [
              51.3367188,
              35.7018928
            ],
            [
              51.3361421,
              35.7017643
            ],
            [
              51.3360643,
              35.7017332
            ],
            [
              51.3357773,
              35.7016183
            ],
            [
              51.3351524,
              35.7012981
            ],
            [
              51.3348493,
              35.701015
            ],
            [
              51.3344362,
              35.7002439
            ],
            [
              51.334337,
              35.6996558
            ],
            [
              51.3323366,
              35.6996127
            ],
            [
              51.3317608,
              35.6996003
            ],
            [
              51.3254374,
              35.6994641
            ],
            [
              51.3217084,
              35.6993784
            ],
            [
              51.3182389,
              35.6992523
            ],
            [
              51.3159719,
              35.6991659
            ],
            [
              51.3121927,
              35.6990945
            ],
            [
              51.3121329,
              35.6989094
            ],
            [
              51.3119102,
              35.6980408
            ],
            [
              51.3118406,
              35.6977673
            ],
            [
              51.3117821,
              35.6975329
            ],
            [
              51.311633,
              35.6968353
            ],
            [
              51.3116,
              35.6966811
            ],
            [
              51.3115209,
              35.6966877
            ],
            [
              51.3116495,
              35.6971993
            ],
            [
              51.3118042,
              35.6978323
            ],
            [
              51.3118373,
              35.6979621
            ],
            [
              51.3118649,
              35.6980801
            ],
            [
              51.3118684,
              35.6980957
            ],
            [
              51.3118722,
              35.6981123
            ],
            [
              51.3119326,
              35.6983782
            ],
            [
              51.3119962,
              35.6986642
            ],
            [
              51.3120223,
              35.6987684
            ],
            [
              51.3120438,
              35.6990933
            ],
            [
              51.3096902,
              35.6990416
            ],
            [
              51.3070025,
              35.6989396
            ],
            [
              51.3042754,
              35.6989335
            ],
            [
              51.3032923,
              35.698871
            ],
            [
              51.3021159,
              35.6988431
            ],
            [
              51.3005465,
              35.6989719
            ],
            [
              51.2990552,
              35.6992768
            ],
            [
              51.2969511,
              35.6996193
            ],
            [
              51.2948541,
              35.7000081
            ],
            [
              51.2899634,
              35.7009238
            ],
            [
              51.2900785,
              35.7019907
            ],
            [
              51.2901,
              35.7025831
            ],
            [
              51.2901429,
              35.7030536
            ],
            [
              51.2902502,
              35.703315
            ],
            [
              51.2904647,
              35.7041165
            ],
            [
              51.2905291,
              35.7050574
            ],
            [
              51.2904004,
              35.7057369
            ],
            [
              51.2902716,
              35.7069044
            ],
            [
              51.2905291,
              35.7072354
            ],
            [
              51.2912158,
              35.7077233
            ],
            [
              51.2914947,
              35.7079672
            ],
            [
              51.2913231,
              35.709274
            ],
            [
              51.2912587,
              35.7104936
            ],
            [
              51.2914089,
              35.710964
            ],
            [
              51.2913016,
              35.7124624
            ],
            [
              51.2909583,
              35.7130896
            ],
            [
              51.290851,
              35.7139956
            ],
            [
              51.2910012,
              35.7148318
            ],
            [
              51.2910863,
              35.7155088
            ],
            [
              51.2911501,
              35.7163723
            ],
            [
              51.2907603,
              35.7173921
            ],
            [
              51.2898805,
              35.7188555
            ],
            [
              51.2881853,
              35.7209983
            ],
            [
              51.2861469,
              35.723803
            ],
            [
              51.2847736,
              35.7251617
            ],
            [
              51.2838723,
              35.7262418
            ],
            [
              51.2828853,
              35.727496
            ],
            [
              51.2817695,
              35.7293076
            ],
            [
              51.2806108,
              35.7307708
            ],
            [
              51.279495,
              35.7316417
            ],
            [
              51.2776496,
              35.7323384
            ],
            [
              51.2766626,
              35.732861
            ],
            [
              51.2754609,
              35.7335925
            ],
            [
              51.2746455,
              35.7346028
            ],
            [
              51.2734439,
              35.735822
            ],
            [
              51.2715986,
              35.7374593
            ],
            [
              51.2701824,
              35.7385043
            ],
            [
              51.2695172,
              35.7388875
            ],
            [
              51.2691095,
              35.7396015
            ],
            [
              51.2685301,
              35.7394448
            ],
            [
              51.2678435,
              35.7393055
            ],
            [
              51.2673285,
              35.7401589
            ],
            [
              51.2669208,
              35.740873
            ],
            [
              51.2665131,
              35.7419179
            ],
            [
              51.2662985,
              35.7427365
            ],
            [
              51.2659766,
              35.7430326
            ],
            [
              51.265101,
              35.743112
            ],
            [
              51.2658696,
              35.745721
            ],
            [
              51.2659738,
              35.7461875
            ],
            [
              51.2660089,
              35.7465613
            ],
            [
              51.2664447,
              35.7480298
            ],
            [
              51.2667706,
              35.7485881
            ],
            [
              51.2670495,
              35.7493718
            ],
            [
              51.2671407,
              35.7498463
            ],
            [
              51.2670442,
              35.750273
            ],
            [
              51.2672105,
              35.7508302
            ],
            [
              51.2676074,
              35.7521406
            ],
            [
              51.2679293,
              35.7528372
            ],
            [
              51.2682726,
              35.7538646
            ],
            [
              51.2684819,
              35.7546091
            ],
            [
              51.2680366,
              35.7558584
            ],
            [
              51.2682994,
              35.756291
            ],
            [
              51.2684121,
              35.7564766
            ],
            [
              51.2683155,
              35.7566681
            ],
            [
              51.2685569,
              35.7573255
            ],
            [
              51.2681331,
              35.7583703
            ],
            [
              51.2680956,
              35.7587229
            ],
            [
              51.2673553,
              35.7596457
            ],
            [
              51.2669047,
              35.7605337
            ],
            [
              51.2667759,
              35.7607253
            ],
            [
              51.2667867,
              35.7613347
            ],
            [
              51.2670013,
              35.7614827
            ],
            [
              51.2670656,
              35.7616481
            ],
            [
              51.2668618,
              35.7621531
            ],
            [
              51.2666472,
              35.7624055
            ],
            [
              51.2667545,
              35.7629453
            ],
            [
              51.2666365,
              35.7632674
            ],
            [
              51.2666365,
              35.7634676
            ],
            [
              51.2658211,
              35.7643992
            ],
            [
              51.2651666,
              35.7655048
            ],
            [
              51.2650164,
              35.7659226
            ],
            [
              51.2644692,
              35.766445
            ],
            [
              51.2634715,
              35.7674635
            ],
            [
              51.2632247,
              35.7682731
            ],
            [
              51.2626228,
              35.770749
            ],
            [
              51.2631932,
              35.77306
            ],
            [
              51.2633266,
              35.7736519
            ],
            [
              51.263977,
              35.7765307
            ],
            [
              51.263792,
              35.7769494
            ],
            [
              51.2636192,
              35.7775099
            ],
            [
              51.2636065,
              35.7781389
            ],
            [
              51.2635812,
              35.7783957
            ],
            [
              51.2633401,
              35.7787238
            ],
            [
              51.262365,
              35.7800513
            ],
            [
              51.2622846,
              35.7803589
            ],
            [
              51.2622774,
              35.7812565
            ],
            [
              51.2622947,
              35.7814196
            ],
            [
              51.2623963,
              35.7815154
            ],
            [
              51.2620291,
              35.78209
            ],
            [
              51.2621071,
              35.7822947
            ],
            [
              51.2622881,
              35.7823533
            ],
            [
              51.2625327,
              35.7823011
            ],
            [
              51.2626643,
              35.7821934
            ],
            [
              51.2628091,
              35.7819607
            ],
            [
              51.2657413,
              35.7826402
            ],
            [
              51.2665094,
              35.7830408
            ],
            [
              51.266959,
              35.7832261
            ],
            [
              51.267183,
              35.7833769
            ],
            [
              51.2674032,
              35.7837099
            ],
            [
              51.2675917,
              35.7837978
            ],
            [
              51.2679507,
              35.7838748
            ],
            [
              51.2684624,
              35.7836417
            ],
            [
              51.2688034,
              35.783283
            ],
            [
              51.2689762,
              35.7826886
            ],
            [
              51.2691989,
              35.7825165
            ],
            [
              51.2693391,
              35.7824945
            ],
            [
              51.2695245,
              35.7825703
            ],
            [
              51.2698701,
              35.7826014
            ],
            [
              51.2703307,
              35.7829421
            ],
            [
              51.2706466,
              35.7828926
            ],
            [
              51.2708849,
              35.7829673
            ],
            [
              51.2711453,
              35.7828947
            ],
            [
              51.2715115,
              35.7826479
            ],
            [
              51.2717049,
              35.7823616
            ],
            [
              51.2718251,
              35.782355
            ],
            [
              51.2719661,
              35.7824205
            ],
            [
              51.2721544,
              35.7824136
            ],
            [
              51.2725171,
              35.7825886
            ],
            [
              51.2726676,
              35.7825612
            ],
            [
              51.2727659,
              35.78213
            ],
            [
              51.2727659,
              35.7816522
            ],
            [
              51.2728113,
              35.7814969
            ],
            [
              51.2730754,
              35.7812982
            ],
            [
              51.2733469,
              35.7811837
            ],
            [
              51.2737351,
              35.7811259
            ],
            [
              51.2739947,
              35.781028
            ],
            [
              51.2739987,
              35.780712
            ],
            [
              51.2737376,
              35.7806503
            ],
            [
              51.2735263,
              35.7804246
            ],
            [
              51.2730975,
              35.7801897
            ],
            [
              51.2728331,
              35.7798898
            ],
            [
              51.272816,
              35.7797248
            ],
            [
              51.2729761,
              35.7795735
            ],
            [
              51.2733212,
              35.779507
            ],
            [
              51.2738617,
              35.7795632
            ],
            [
              51.2740344,
              35.7796601
            ],
            [
              51.2741846,
              35.7799193
            ],
            [
              51.2742941,
              35.7799579
            ],
            [
              51.2745021,
              35.7799392
            ],
            [
              51.2746798,
              35.7800258
            ],
            [
              51.2752926,
              35.780149
            ],
            [
              51.2757047,
              35.7801163
            ],
            [
              51.2759115,
              35.780157
            ],
            [
              51.2764236,
              35.7806236
            ],
            [
              51.276532,
              35.7806416
            ],
            [
              51.2767617,
              35.7810564
            ],
            [
              51.2770394,
              35.7812243
            ],
            [
              51.2772582,
              35.781514
            ],
            [
              51.2772721,
              35.7817285
            ],
            [
              51.2774289,
              35.7820183
            ],
            [
              51.2773874,
              35.7821559
            ],
            [
              51.2774289,
              35.7823638
            ],
            [
              51.2777032,
              35.7826757
            ],
            [
              51.2775969,
              35.7827786
            ],
            [
              51.2775687,
              35.7829398
            ],
            [
              51.2776815,
              35.7835299
            ],
            [
              51.2777804,
              35.7837574
            ],
            [
              51.2779178,
              35.7839085
            ],
            [
              51.2781422,
              35.7836822
            ],
            [
              51.2782283,
              35.7836631
            ],
            [
              51.2783347,
              35.7838679
            ],
            [
              51.2782265,
              35.7840806
            ],
            [
              51.2784834,
              35.7841386
            ],
            [
              51.2783964,
              35.7845257
            ],
            [
              51.2782816,
              35.7846773
            ],
            [
              51.2785631,
              35.7846162
            ],
            [
              51.2787367,
              35.7845038
            ],
            [
              51.2791298,
              35.784011
            ],
            [
              51.2792315,
              35.7835996
            ],
            [
              51.2792481,
              35.7829295
            ],
            [
              51.2793577,
              35.7829092
            ],
            [
              51.2795715,
              35.7830432
            ],
            [
              51.2798072,
              35.7831127
            ],
            [
              51.2803287,
              35.783186
            ],
            [
              51.2801096,
              35.7826568
            ],
            [
              51.2801392,
              35.7825286
            ],
            [
              51.2803076,
              35.7823315
            ],
            [
              51.2800669,
              35.7821887
            ],
            [
              51.2800506,
              35.7821318
            ],
            [
              51.2802508,
              35.7818207
            ],
            [
              51.2807358,
              35.7816448
            ],
            [
              51.2810832,
              35.7814294
            ],
            [
              51.2809594,
              35.7811899
            ],
            [
              51.28074,
              35.7809922
            ],
            [
              51.2807491,
              35.7808278
            ],
            [
              51.2808431,
              35.7807502
            ],
            [
              51.281294,
              35.7805856
            ],
            [
              51.2816514,
              35.7806393
            ],
            [
              51.2817043,
              35.7804404
            ],
            [
              51.2817521,
              35.7804139
            ],
            [
              51.2819747,
              35.7804405
            ],
            [
              51.2821033,
              35.7805085
            ],
            [
              51.2826117,
              35.7805089
            ],
            [
              51.2829222,
              35.7806716
            ],
            [
              51.2833115,
              35.7811876
            ],
            [
              51.2834857,
              35.7810544
            ],
            [
              51.2835894,
              35.7808484
            ],
            [
              51.2839135,
              35.7807975
            ],
            [
              51.2847137,
              35.7810743
            ],
            [
              51.2847323,
              35.7813155
            ],
            [
              51.2848497,
              35.7812356
            ],
            [
              51.2851713,
              35.7812914
            ],
            [
              51.2852046,
              35.781403
            ],
            [
              51.2851608,
              35.7815695
            ],
            [
              51.285401,
              35.7815702
            ],
            [
              51.2857831,
              35.7818618
            ],
            [
              51.2857135,
              35.7815531
            ],
            [
              51.2857754,
              35.7812985
            ],
            [
              51.2858862,
              35.7810338
            ],
            [
              51.2861443,
              35.7806533
            ],
            [
              51.2857801,
              35.7802932
            ],
            [
              51.2857978,
              35.780104
            ],
            [
              51.2860231,
              35.7799118
            ],
            [
              51.2863289,
              35.7798863
            ],
            [
              51.286512,
              35.7796618
            ],
            [
              51.2867507,
              35.7796111
            ],
            [
              51.287131,
              35.7794379
            ],
            [
              51.2873716,
              35.7795407
            ],
            [
              51.2874832,
              35.7796754
            ],
            [
              51.2875038,
              35.7799644
            ],
            [
              51.2874018,
              35.7801914
            ],
            [
              51.2878141,
              35.7802906
            ],
            [
              51.2880349,
              35.7805756
            ],
            [
              51.2882415,
              35.7804843
            ],
            [
              51.2883715,
              35.7804824
            ],
            [
              51.288327,
              35.7803269
            ],
            [
              51.2883762,
              35.7801394
            ],
            [
              51.2887236,
              35.7798881
            ],
            [
              51.2893367,
              35.7800059
            ],
            [
              51.2893187,
              35.7801276
            ],
            [
              51.2890611,
              35.7804923
            ],
            [
              51.2893403,
              35.7808938
            ],
            [
              51.2893831,
              35.7810687
            ],
            [
              51.2895288,
              35.7811882
            ],
            [
              51.2895336,
              35.7815181
            ],
            [
              51.289607,
              35.7815727
            ],
            [
              51.2896831,
              35.78158
            ],
            [
              51.28985,
              35.7814751
            ],
            [
              51.2899001,
              35.7812882
            ],
            [
              51.2903081,
              35.7809867
            ],
            [
              51.290309,
              35.7808868
            ],
            [
              51.2900944,
              35.7808102
            ],
            [
              51.2901925,
              35.7805831
            ],
            [
              51.2903722,
              35.7804669
            ],
            [
              51.2905281,
              35.7804469
            ],
            [
              51.2907522,
              35.7802806
            ],
            [
              51.2908318,
              35.7801162
            ],
            [
              51.2909808,
              35.780024
            ],
            [
              51.2910819,
              35.7800173
            ],
            [
              51.2911818,
              35.7802213
            ],
            [
              51.2913476,
              35.7802735
            ],
            [
              51.291289,
              35.7803357
            ],
            [
              51.291436,
              35.7807055
            ],
            [
              51.2915531,
              35.7807748
            ],
            [
              51.2914296,
              35.7810981
            ],
            [
              51.2913973,
              35.7813975
            ],
            [
              51.2913498,
              35.7814715
            ],
            [
              51.2911397,
              35.7814604
            ],
            [
              51.2911356,
              35.7816548
            ],
            [
              51.2910528,
              35.7818898
            ],
            [
              51.2907506,
              35.7823409
            ],
            [
              51.2902664,
              35.7828716
            ],
            [
              51.289777,
              35.7832645
            ],
            [
              51.2896132,
              35.7835049
            ],
            [
              51.2894678,
              35.784049
            ],
            [
              51.2896279,
              35.7845631
            ],
            [
              51.2896217,
              35.7847127
            ],
            [
              51.2897475,
              35.7847181
            ],
            [
              51.2899289,
              35.7846437
            ],
            [
              51.2902771,
              35.7842957
            ],
            [
              51.2906957,
              35.7840954
            ],
            [
              51.2909471,
              35.7840436
            ],
            [
              51.2910677,
              35.7840688
            ],
            [
              51.2912968,
              35.7841167
            ],
            [
              51.2915763,
              35.7840876
            ],
            [
              51.2917496,
              35.7837115
            ],
            [
              51.2919867,
              35.7835743
            ],
            [
              51.2926253,
              35.7834803
            ],
            [
              51.2928603,
              35.7835041
            ],
            [
              51.2930406,
              35.7835953
            ],
            [
              51.2933355,
              35.7835426
            ],
            [
              51.2934261,
              35.7834684
            ],
            [
              51.293559,
              35.783071
            ],
            [
              51.2937074,
              35.7830072
            ],
            [
              51.2937071,
              35.782915
            ],
            [
              51.293656,
              35.7825115
            ],
            [
              51.2935335,
              35.7823666
            ],
            [
              51.2933155,
              35.7817873
            ],
            [
              51.2933888,
              35.7815746
            ],
            [
              51.2935334,
              35.7814666
            ],
            [
              51.2939001,
              35.7813188
            ],
            [
              51.2946122,
              35.7813249
            ],
            [
              51.2955299,
              35.7812178
            ],
            [
              51.2953752,
              35.7805344
            ],
            [
              51.2953593,
              35.7796578
            ],
            [
              51.2950171,
              35.779163
            ],
            [
              51.2950788,
              35.7790395
            ],
            [
              51.2950668,
              35.7789318
            ],
            [
              51.2947597,
              35.7787044
            ],
            [
              51.2960525,
              35.7786113
            ],
            [
              51.2970945,
              35.7786826
            ],
            [
              51.2983257,
              35.7788132
            ],
            [
              51.2989211,
              35.7789394
            ],
            [
              51.2991089,
              35.7790068
            ],
            [
              51.2994294,
              35.7792027
            ],
            [
              51.2997432,
              35.779367
            ],
            [
              51.3006691,
              35.7795608
            ],
            [
              51.3007651,
              35.7796074
            ],
            [
              51.3009717,
              35.7797423
            ],
            [
              51.3011912,
              35.7799069
            ],
            [
              51.301849,
              35.7802803
            ],
            [
              51.3019024,
              35.7803418
            ],
            [
              51.3019386,
              35.7805257
            ],
            [
              51.3019386,
              35.780629
            ],
            [
              51.3018702,
              35.7809359
            ],
            [
              51.3018729,
              35.7810153
            ],
            [
              51.3019561,
              35.781247
            ],
            [
              51.302015,
              35.7813438
            ],
            [
              51.3020673,
              35.7814015
            ],
            [
              51.3024748,
              35.7817706
            ],
            [
              51.3026755,
              35.7819667
            ],
            [
              51.3027473,
              35.7820672
            ],
            [
              51.3028259,
              35.7820914
            ],
            [
              51.3030252,
              35.782193
            ],
            [
              51.3032826,
              35.7821167
            ],
            [
              51.3034355,
              35.7821367
            ],
            [
              51.3037262,
              35.7823193
            ],
            [
              51.3037245,
              35.7823766
            ],
            [
              51.3039663,
              35.7824995
            ],
            [
              51.3040145,
              35.7826052
            ],
            [
              51.3039393,
              35.7827943
            ],
            [
              51.3039183,
              35.7829173
            ],
            [
              51.3039121,
              35.7829753
            ],
            [
              51.303938,
              35.7831204
            ],
            [
              51.3039021,
              35.783658
            ],
            [
              51.3039621,
              35.7840639
            ],
            [
              51.3039185,
              35.784291
            ],
            [
              51.3039919,
              35.7843987
            ],
            [
              51.3037957,
              35.7847164
            ],
            [
              51.303835,
              35.7849669
            ],
            [
              51.3037394,
              35.7851621
            ],
            [
              51.3034167,
              35.7851714
            ],
            [
              51.3034989,
              35.7855718
            ],
            [
              51.3032274,
              35.7860112
            ],
            [
              51.3031372,
              35.7862552
            ],
            [
              51.3031311,
              35.7864619
            ],
            [
              51.3032762,
              35.7864787
            ],
            [
              51.3033028,
              35.7865473
            ],
            [
              51.3029379,
              35.786926
            ],
            [
              51.3028055,
              35.787463
            ],
            [
              51.3022808,
              35.7876914
            ],
            [
              51.3022282,
              35.7878829
            ],
            [
              51.3022664,
              35.7881089
            ],
            [
              51.3022092,
              35.7885134
            ],
            [
              51.3020419,
              35.788729
            ],
            [
              51.3020157,
              35.7888813
            ],
            [
              51.3024883,
              35.7895585
            ],
            [
              51.3024719,
              35.7899044
            ],
            [
              51.3026158,
              35.7901027
            ],
            [
              51.3026601,
              35.7901679
            ],
            [
              51.3026802,
              35.7903007
            ],
            [
              51.302754,
              35.7903311
            ],
            [
              51.302903,
              35.7903366
            ],
            [
              51.3028318,
              35.789995
            ],
            [
              51.3027647,
              35.7893009
            ],
            [
              51.3027721,
              35.7887543
            ],
            [
              51.3028103,
              35.7886286
            ],
            [
              51.3028733,
              35.7885084
            ],
            [
              51.3030302,
              35.7882783
            ],
            [
              51.3031228,
              35.7881891
            ],
            [
              51.3032743,
              35.7880966
            ],
            [
              51.303501,
              35.7880031
            ],
            [
              51.3036284,
              35.787928
            ],
            [
              51.3037491,
              35.7878116
            ],
            [
              51.3038939,
              35.7876321
            ],
            [
              51.304193,
              35.7873177
            ],
            [
              51.3044518,
              35.7870142
            ],
            [
              51.3053222,
              35.7861993
            ],
            [
              51.3060826,
              35.7853236
            ],
            [
              51.306225,
              35.7854275
            ],
            [
              51.3064152,
              35.7853236
            ],
            [
              51.3070267,
              35.7859741
            ],
            [
              51.3082552,
              35.7854519
            ],
            [
              51.308679,
              35.7853432
            ],
            [
              51.3089472,
              35.7853823
            ],
            [
              51.3088198,
              35.7854672
            ],
            [
              51.3087729,
              35.7855792
            ],
            [
              51.3087219,
              35.7857217
            ],
            [
              51.3085931,
              35.7860742
            ],
            [
              51.3083464,
              35.7866922
            ],
            [
              51.3082702,
              35.7871493
            ],
            [
              51.3084,
              35.7873362
            ],
            [
              51.3086522,
              35.7874929
            ],
            [
              51.3090143,
              35.7876386
            ],
            [
              51.309194,
              35.7877191
            ],
            [
              51.3093735,
              35.7878479
            ],
            [
              51.3097335,
              35.7879003
            ],
            [
              51.3097519,
              35.7878257
            ],
            [
              51.3099316,
              35.7876212
            ],
            [
              51.3101166,
              35.7874472
            ],
            [
              51.3103205,
              35.7873318
            ],
            [
              51.3108208,
              35.7871715
            ],
            [
              51.3114705,
              35.787046
            ],
            [
              51.3129997,
              35.7868529
            ],
            [
              51.3131046,
              35.7868488
            ],
            [
              51.3131797,
              35.7868684
            ],
            [
              51.3133577,
              35.7869156
            ],
            [
              51.3136855,
              35.7870987
            ],
            [
              51.3139524,
              35.7873356
            ],
            [
              51.3141748,
              35.787693
            ],
            [
              51.3141117,
              35.787761
            ],
            [
              51.314081,
              35.7879432
            ],
            [
              51.314123,
              35.7881268
            ],
            [
              51.3142258,
              35.7882196
            ],
            [
              51.3143519,
              35.7882957
            ],
            [
              51.3144779,
              35.7883436
            ],
            [
              51.3145917,
              35.7883434
            ],
            [
              51.3149212,
              35.788265
            ],
            [
              51.3153326,
              35.7882605
            ],
            [
              51.3157267,
              35.788033
            ],
            [
              51.316327,
              35.787975
            ],
            [
              51.3166393,
              35.7878788
            ],
            [
              51.3167623,
              35.7877701
            ],
            [
              51.3169496,
              35.7873617
            ],
            [
              51.3171247,
              35.7874296
            ],
            [
              51.3171789,
              35.7874999
            ],
            [
              51.3174851,
              35.7881172
            ],
            [
              51.3177968,
              35.788552
            ],
            [
              51.3182136,
              35.7889013
            ],
            [
              51.3185072,
              35.7887123
            ],
            [
              51.3186626,
              35.788675
            ],
            [
              51.3191656,
              35.7881572
            ],
            [
              51.3193662,
              35.7880032
            ],
            [
              51.3195708,
              35.7879284
            ],
            [
              51.3197549,
              35.7879685
            ],
            [
              51.3199681,
              35.788148
            ],
            [
              51.3207396,
              35.7880167
            ],
            [
              51.3211761,
              35.7880325
            ],
            [
              51.3216695,
              35.7881446
            ],
            [
              51.3224666,
              35.7882052
            ],
            [
              51.3225456,
              35.7882496
            ],
            [
              51.322639,
              35.7884278
            ],
            [
              51.3227103,
              35.7888299
            ],
            [
              51.3225586,
              35.7889843
            ],
            [
              51.3221003,
              35.7892094
            ],
            [
              51.3221477,
              35.7892761
            ],
            [
              51.3220022,
              35.7893982
            ],
            [
              51.3223955,
              35.7897938
            ],
            [
              51.3225035,
              35.789995
            ],
            [
              51.3224724,
              35.7901077
            ],
            [
              51.3225273,
              35.7901739
            ],
            [
              51.3227335,
              35.7902426
            ],
            [
              51.3227881,
              35.7903209
            ],
            [
              51.3230785,
              35.7903342
            ],
            [
              51.3231771,
              35.7904078
            ],
            [
              51.3231268,
              35.790843
            ],
            [
              51.3230172,
              35.7909883
            ],
            [
              51.3232915,
              35.7910874
            ],
            [
              51.3239208,
              35.7910133
            ],
            [
              51.3242662,
              35.7908186
            ],
            [
              51.3245312,
              35.7910185
            ],
            [
              51.3245772,
              35.7917691
            ],
            [
              51.3247793,
              35.7918581
            ],
            [
              51.3247445,
              35.7920124
            ],
            [
              51.3248336,
              35.7923696
            ],
            [
              51.3246985,
              35.7927844
            ],
            [
              51.3247675,
              35.7928328
            ],
            [
              51.3250798,
              35.7928193
            ],
            [
              51.3256381,
              35.7926319
            ],
            [
              51.325727,
              35.792669
            ],
            [
              51.3258205,
              35.7928658
            ],
            [
              51.3259207,
              35.7928693
            ],
            [
              51.325926,
              35.7928102
            ],
            [
              51.32607,
              35.7926899
            ],
            [
              51.3262209,
              35.7928983
            ],
            [
              51.326407,
              35.7930159
            ],
            [
              51.3264163,
              35.7935037
            ],
            [
              51.3265142,
              35.7935195
            ],
            [
              51.3266485,
              35.7933513
            ],
            [
              51.3270045,
              35.7930953
            ],
            [
              51.3270996,
              35.792857
            ],
            [
              51.3271732,
              35.7928115
            ],
            [
              51.3272181,
              35.7928292
            ],
            [
              51.3269059,
              35.7940533
            ],
            [
              51.3273502,
              35.79388
            ],
            [
              51.3274583,
              35.7937632
            ],
            [
              51.3277363,
              35.7936337
            ],
            [
              51.3284669,
              35.793485
            ],
            [
              51.3286491,
              35.7941703
            ],
            [
              51.3288992,
              35.7939707
            ],
            [
              51.3291042,
              35.7939459
            ],
            [
              51.3292123,
              35.7936379
            ],
            [
              51.3293257,
              35.7935152
            ],
            [
              51.3296261,
              35.7934422
            ],
            [
              51.3299871,
              35.7931714
            ],
            [
              51.330665,
              35.7931837
            ],
            [
              51.3307549,
              35.7928738
            ],
            [
              51.3308301,
              35.7927804
            ],
            [
              51.330981,
              35.792723
            ],
            [
              51.3313518,
              35.7927613
            ],
            [
              51.331444,
              35.7925933
            ],
            [
              51.3316725,
              35.7924974
            ],
            [
              51.3318478,
              35.7922171
            ],
            [
              51.3322938,
              35.7920999
            ],
            [
              51.3326829,
              35.7918993
            ],
            [
              51.3331385,
              35.7920733
            ],
            [
              51.3332624,
              35.7922079
            ],
            [
              51.3334739,
              35.7923166
            ],
            [
              51.3340194,
              35.7924398
            ],
            [
              51.3340554,
              35.7928896
            ],
            [
              51.334094,
              35.7929584
            ],
            [
              51.3343531,
              35.7930652
            ],
            [
              51.334423,
              35.7934471
            ],
            [
              51.3345463,
              35.79352
            ],
            [
              51.3352211,
              35.7937391
            ],
            [
              51.3357093,
              35.7935051
            ],
            [
              51.3358633,
              35.7935404
            ],
            [
              51.3360084,
              35.7942
            ],
            [
              51.3360087,
              35.7944346
            ],
            [
              51.3361271,
              35.7947658
            ],
            [
              51.335919,
              35.7956627
            ],
            [
              51.3359827,
              35.7958889
            ],
            [
              51.3361829,
              35.7960428
            ],
            [
              51.3362804,
              35.7961887
            ],
            [
              51.3363018,
              35.7964548
            ],
            [
              51.3365972,
              35.7969291
            ],
            [
              51.3367653,
              35.7974635
            ],
            [
              51.3371385,
              35.7980793
            ],
            [
              51.3367844,
              35.7981718
            ],
            [
              51.3360285,
              35.7982237
            ],
            [
              51.3357239,
              35.7980719
            ],
            [
              51.3354787,
              35.7980602
            ],
            [
              51.3356216,
              35.7981929
            ],
            [
              51.3356239,
              35.7985683
            ],
            [
              51.3356916,
              35.7985973
            ],
            [
              51.3360001,
              35.7991279
            ],
            [
              51.3362226,
              35.7992913
            ],
            [
              51.3365022,
              35.7996537
            ],
            [
              51.3365152,
              35.7998884
            ],
            [
              51.3366643,
              35.8001616
            ],
            [
              51.3366649,
              35.8002751
            ],
            [
              51.3372759,
              35.8006218
            ],
            [
              51.3373612,
              35.8007144
            ],
            [
              51.3376848,
              35.801721
            ],
            [
              51.3382975,
              35.8022525
            ],
            [
              51.3384066,
              35.8024308
            ],
            [
              51.3384029,
              35.8025441
            ],
            [
              51.3382434,
              35.8026885
            ],
            [
              51.3378683,
              35.8028808
            ],
            [
              51.3375022,
              35.8029947
            ],
            [
              51.3372597,
              35.803468
            ],
            [
              51.3371256,
              35.803864
            ],
            [
              51.3372174,
              35.8042397
            ],
            [
              51.3372458,
              35.8042831
            ],
            [
              51.3374263,
              35.8045587
            ],
            [
              51.3375218,
              35.8047045
            ],
            [
              51.3377469,
              35.804895
            ],
            [
              51.3379372,
              35.8049108
            ],
            [
              51.3378655,
              35.8068544
            ],
            [
              51.3376686,
              35.807232
            ],
            [
              51.337657,
              35.8076056
            ],
            [
              51.3375911,
              35.8076776
            ],
            [
              51.3374722,
              35.8076995
            ],
            [
              51.3372723,
              35.8080055
            ],
            [
              51.3371841,
              35.8082684
            ],
            [
              51.3371967,
              35.8084962
            ],
            [
              51.3373959,
              35.8087425
            ],
            [
              51.3377946,
              35.8089719
            ],
            [
              51.3379518,
              35.809996
            ],
            [
              51.3382757,
              35.8100343
            ],
            [
              51.3385339,
              35.8092092
            ],
            [
              51.3385325,
              35.8089244
            ],
            [
              51.3388522,
              35.8087154
            ],
            [
              51.3389761,
              35.8085424
            ],
            [
              51.3395338,
              35.8081713
            ],
            [
              51.3395898,
              35.808116
            ]
          ]
        ]
      },
      "properties": {
        "id": 6729507,
        "name": "منطقه ۵ شهر تهران"
      }
    }
  ]
}