{
  "type": "FeatureCollection",
  "features": [
    {
      "type": "Feature",
      "geometry": {
        "type": "Polygon",
        "coordinates": [
          [
            [
              51.3439849,
              35.6320794
            ],
            [
              51.3480745,
              35.6341808
            ],
            [
              51.3505912,
              35.6352426
            ],
            [
              51.3517572,
              35.635794
            ],
            [
              51.352189,
              35.6358834
            ],
            [
              51.3540746,
              35.635975
            ],
            [
              51.3548095,
              35.6360752
            ],
            [
              51.3560675,
              35.6364545
            ],
            [
              51.356563,
              35.6366579
            ],
            [
              51.3577869,
              35.6372753
            ],
            [
              51.3592888,
              35.6382094
            ],
            [
              51.3598789,
              35.6384818
            ],
            [
              51.3617565,
              35.6393516
            ],
            [
              51.3632747,
              35.6400316
            ],
            [
              51.3636754,
              35.6402437
            ],
            [
              51.3641912,
              35.6405718
            ],
            [
              51.3649161,
              35.641078
            ],
            [
              51.3666891,
              35.6425101
            ],
            [
              51.3688388,
              35.6443127
            ],
            [
              51.3695684,
              35.6451236
            ],
            [
              51.3698355,
              35.6455167
            ],
            [
              51.3701016,
              35.6459865
            ],
            [
              51.3707258,
              35.6474754
            ],
            [
              51.3712488,
              35.6489314
            ],
            [
              51.3719676,
              35.6503764
            ],
            [
              51.3725229,
              35.651124
            ],
            [
              51.3736359,
              35.6521855
            ],
            [
              51.3742717,
              35.6526975
            ],
            [
              51.3754867,
              35.653358
            ],
            [
              51.3769592,
              35.6539203
            ],
            [
              51.3790514,
              35.6542864
            ],
            [
              51.3806232,
              35.6545544
            ],
            [
              51.3811272,
              35.6547472
            ],
            [
              51.3816424,
              35.6551146
            ],
            [
              51.3820957,
              35.6553849
            ],
            [
              51.3822566,
              35.6551734
            ],
            [
              51.3822352,
              35.6548683
            ],
            [
              51.382321,
              35.6545153
            ],
            [
              51.3825597,
              35.6540292
            ],
            [
              51.3828386,
              35.6536348
            ],
            [
              51.3836326,
              35.6530114
            ],
            [
              51.3847618,
              35.6524578
            ],
            [
              51.3861055,
              35.6518018
            ],
            [
              51.3879456,
              35.6506292
            ],
            [
              51.3888307,
              35.6499275
            ],
            [
              51.3900162,
              35.6488093
            ],
            [
              51.3907834,
              35.6479789
            ],
            [
              51.3913735,
              35.6472226
            ],
            [
              51.3923283,
              35.6460195
            ],
            [
              51.3935637,
              35.6450188
            ],
            [
              51.3931705,
              35.6439618
            ],
            [
              51.39228,
              35.6420523
            ],
            [
              51.3915719,
              35.6409886
            ],
            [
              51.3911642,
              35.6399597
            ],
            [
              51.3910248,
              35.6394715
            ],
            [
              51.3923551,
              35.6381984
            ],
            [
              51.3932778,
              35.6380589
            ],
            [
              51.3934066,
              35.637902
            ],
            [
              51.3933048,
              35.6375825
            ],
            [
              51.392913,
              35.6375358
            ],
            [
              51.3977839,
              35.6304029
            ],
            [
              51.4047147,
              35.6198855
            ],
            [
              51.4032567,
              35.6144292
            ],
            [
              51.4002501,
              35.6141058
            ],
            [
              51.390327,
              35.6135898
            ],
            [
              51.3874781,
              35.6138072
            ],
            [
              51.3855868,
              35.6139703
            ],
            [
              51.3797629,
              35.6141162
            ],
            [
              51.3789046,
              35.6141467
            ],
            [
              51.3768768,
              35.6140551
            ],
            [
              51.3730252,
              35.613619
            ],
            [
              51.3718216,
              35.6133509
            ],
            [
              51.3707346,
              35.6131087
            ],
            [
              51.3662259,
              35.6118739
            ],
            [
              51.3630838,
              35.6110077
            ],
            [
              51.361486,
              35.6105894
            ],
            [
              51.3600946,
              35.6100359
            ],
            [
              51.3577662,
              35.6092892
            ],
            [
              51.3565656,
              35.6088269
            ],
            [
              51.3552415,
              35.6086153
            ],
            [
              51.3517458,
              35.6078081
            ],
            [
              51.3488193,
              35.6075595
            ],
            [
              51.3478051,
              35.6074271
            ],
            [
              51.3434509,
              35.6078458
            ],
            [
              51.3405812,
              35.6081217
            ],
            [
              51.3376302,
              35.6092481
            ],
            [
              51.3343813,
              35.6104882
            ],
            [
              51.330589,
              35.6138458
            ],
            [
              51.3299043,
              35.6145909
            ],
            [
              51.3248439,
              35.6200969
            ],
            [
              51.326049,
              35.6207795
            ],
            [
              51.3272472,
              35.6215643
            ],
            [
              51.3284469,
              35.6225391
            ],
            [
              51.3313161,
              35.6248827
            ],
            [
              51.3328449,
              35.6261385
            ],
            [
              51.3339849,
              35.6270128
            ],
            [
              51.3345473,
              35.6273646
            ],
            [
              51.3351495,
              35.627689
            ],
            [
              51.3370319,
              35.6285934
            ],
            [
              51.3380653,
              35.62906
            ],
            [
              51.3407146,
              35.6303222
            ],
            [
              51.3439849,
              35.6320794
            ]
          ]
        ]
      },
      "properties": {
        "id": 6729109,
        "name": "منطقه ۱۹ شهر تهران"
      }
    }
  ]
}