{
  "type": "FeatureCollection",
  "features": [
    {
      "type": "Feature",
      "geometry": {
        "type": "Polygon",
        "coordinates": [
          [
            [
              51.4363541,
              35.6274749
            ],
            [
              51.4349507,
              35.6269779
            ],
            [
              51.432888,
              35.6261386
            ],
            [
              51.4299188,
              35.6246777
            ],
            [
              51.4281137,
              35.6236095
            ],
            [
              51.4259491,
              35.622201
            ],
            [
              51.4245035,
              35.6210301
            ],
            [
              51.4210251,
              35.6182618
            ],
            [
              51.4203997,
              35.617764
            ],
            [
              51.4185624,
              35.6167304
            ],
            [
              51.4167142,
              35.6158778
            ],
            [
              51.4144729,
              35.6152331
            ],
            [
              51.4118783,
              35.614877
            ],
            [
              51.4082734,
              35.6144584
            ],
            [
              51.4032567,
              35.6144292
            ],
            [
              51.4047147,
              35.6198855
            ],
            [
              51.3977839,
              35.6304029
            ],
            [
              51.392913,
              35.6375358
            ],
            [
              51.3933048,
              35.6375825
            ],
            [
              51.3934066,
              35.637902
            ],
            [
              51.3932778,
              35.6380589
            ],
            [
              51.3923551,
              35.6381984
            ],
            [
              51.3910248,
              35.6394715
            ],
            [
              51.3911642,
              35.6399597
            ],
            [
              51.3915719,
              35.6409886
            ],
            [
              51.39228,
              35.6420523
            ],
            [
              51.3931705,
              35.6439618
            ],
            [
              51.3935637,
              35.6450188
            ],
            [
              51.3923283,
              35.6460195
            ],
            [
              51.3913735,
              35.6472226
            ],
            [
              51.3907834,
              35.6479789
            ],
            [
              51.3900162,
              35.6488093
            ],
            [
              51.3888307,
              35.6499275
            ],
            [
              51.3879456,
              35.6506292
            ],
            [
              51.3861055,
              35.6518018
            ],
            [
              51.3847618,
              35.6524578
            ],
            [
              51.3836326,
              35.6530114
            ],
            [
              51.3828386,
              35.6536348
            ],
            [
              51.3825597,
              35.6540292
            ],
            [
              51.382321,
              35.6545153
            ],
            [
              51.3822352,
              35.6548683
            ],
            [
              51.3822566,
              35.6551734
            ],
            [
              51.3820957,
              35.6553849
            ],
            [
              51.3822137,
              35.6567905
            ],
            [
              51.3822754,
              35.6572046
            ],
            [
              51.3822352,
              35.6582376
            ],
            [
              51.3821896,
              35.6594864
            ],
            [
              51.3848382,
              35.659227
            ],
            [
              51.3930955,
              35.6584185
            ],
            [
              51.3937262,
              35.6595075
            ],
            [
              51.3968335,
              35.6592568
            ],
            [
              51.3971653,
              35.659223
            ],
            [
              51.397587,
              35.6590998
            ],
            [
              51.3977889,
              35.6589888
            ],
            [
              51.3980954,
              35.6589441
            ],
            [
              51.3982609,
              35.6589986
            ],
            [
              51.3983734,
              35.6590538
            ],
            [
              51.3985518,
              35.6590985
            ],
            [
              51.3997795,
              35.6589764
            ],
            [
              51.4005775,
              35.6588917
            ],
            [
              51.4048972,
              35.658433
            ],
            [
              51.4067211,
              35.6581802
            ],
            [
              51.4074453,
              35.6581191
            ],
            [
              51.4094516,
              35.6580886
            ],
            [
              51.4106693,
              35.6582412
            ],
            [
              51.4117341,
              35.6584243
            ],
            [
              51.4119856,
              35.6584662
            ],
            [
              51.4122096,
              35.6585036
            ],
            [
              51.4128204,
              35.6585467
            ],
            [
              51.4144364,
              35.6586607
            ],
            [
              51.4191639,
              35.6589255
            ],
            [
              51.4248501,
              35.6592829
            ],
            [
              51.4304184,
              35.6596229
            ],
            [
              51.4305284,
              35.6594878
            ],
            [
              51.4307912,
              35.6593831
            ],
            [
              51.4309977,
              35.6593414
            ],
            [
              51.4311198,
              35.6589033
            ],
            [
              51.4334521,
              35.6509138
            ],
            [
              51.4336466,
              35.6495038
            ],
            [
              51.4341589,
              35.6455486
            ],
            [
              51.4341918,
              35.645259
            ],
            [
              51.4344336,
              35.6441776
            ],
            [
              51.434506,
              35.643454
            ],
            [
              51.4345088,
              35.643055
            ],
            [
              51.4357265,
              35.6331748
            ],
            [
              51.4360724,
              35.6299101
            ],
            [
              51.4363541,
              35.6274749
            ]
          ]
        ]
      },
      "properties": {
        "id": 6729110,
        "name": "منطقه ۱۶ شهر تهران"
      }
    }
  ]
}