{
  "type": "FeatureCollection",
  "features": [
    {
      "type": "Feature",
      "geometry": {
        "type": "Polygon",
        "coordinates": [
          [
            [
              51.4844281,
              35.7127376
            ],
            [
              51.4851588,
              35.712963
            ],
            [
              51.4866495,
              35.7134228
            ],
            [
              51.4905939,
              35.7145749
            ],
            [
              51.4944052,
              35.7158327
            ],
            [
              51.4972711,
              35.7167545
            ],
            [
              51.4983158,
              35.7170773
            ],
            [
              51.4989648,
              35.7172555
            ],
            [
              51.5020958,
              35.7182205
            ],
            [
              51.5056825,
              35.7193266
            ],
            [
              51.5083802,
              35.7201652
            ],
            [
              51.5111925,
              35.7210275
            ],
            [
              51.5149106,
              35.722188
            ],
            [
              51.5185758,
              35.7233225
            ],
            [
              51.5196085,
              35.7235359
            ],
            [
              51.5227843,
              35.7238233
            ],
            [
              51.5237682,
              35.7238772
            ],
            [
              51.524694,
              35.7239279
            ],
            [
              51.52652,
              35.7240675
            ],
            [
              51.5276419,
              35.7241449
            ],
            [
              51.5284384,
              35.7241849
            ],
            [
              51.5286135,
              35.7241894
            ],
            [
              51.5292037,
              35.7242206
            ],
            [
              51.5302767,
              35.7242833
            ],
            [
              51.5314375,
              35.7244144
            ],
            [
              51.5326168,
              35.7244758
            ],
            [
              51.5347221,
              35.7246132
            ],
            [
              51.5385939,
              35.7248967
            ],
            [
              51.5431889,
              35.725219
            ],
            [
              51.5457644,
              35.7253663
            ],
            [
              51.5572914,
              35.7261837
            ],
            [
              51.5583101,
              35.7262284
            ],
            [
              51.5588433,
              35.7262007
            ],
            [
              51.5591255,
              35.7261511
            ],
            [
              51.5630429,
              35.7259682
            ],
            [
              51.5639019,
              35.7258203
            ],
            [
              51.5666182,
              35.7250145
            ],
            [
              51.5709661,
              35.7242937
            ],
            [
              51.5767363,
              35.7238017
            ],
            [
              51.580893,
              35.7237232
            ],
            [
              51.5834069,
              35.7237124
            ],
            [
              51.5841445,
              35.7237847
            ],
            [
              51.5847983,
              35.7238626
            ],
            [
              51.5856224,
              35.7240957
            ],
            [
              51.5862286,
              35.7243298
            ],
            [
              51.5879433,
              35.7235642
            ],
            [
              51.5879993,
              35.723535
            ],
            [
              51.5883054,
              35.723426
            ],
            [
              51.5889376,
              35.7233205
            ],
            [
              51.5895786,
              35.7233172
            ],
            [
              51.5919356,
              35.7236744
            ],
            [
              51.593197,
              35.7238562
            ],
            [
              51.5969352,
              35.7241279
            ],
            [
              51.596952,
              35.7238257
            ],
            [
              51.5986022,
              35.7239407
            ],
            [
              51.5986957,
              35.7220399
            ],
            [
              51.598903,
              35.7197524
            ],
            [
              51.5981251,
              35.7193313
            ],
            [
              51.5931245,
              35.7190306
            ],
            [
              51.5897041,
              35.7179239
            ],
            [
              51.5894365,
              35.7176803
            ],
            [
              51.5873641,
              35.7168514
            ],
            [
              51.5829384,
              35.7172415
            ],
            [
              51.5811687,
              35.7158801
            ],
            [
              51.580116,
              35.7168977
            ],
            [
              51.5799001,
              35.7164343
            ],
            [
              51.5790134,
              35.7171944
            ],
            [
              51.5782574,
              35.7172038
            ],
            [
              51.5781918,
              35.7165012
            ],
            [
              51.5769234,
              35.7170995
            ],
            [
              51.5766205,
              35.7170738
            ],
            [
              51.576414,
              35.716508
            ],
            [
              51.5755694,
              35.7170863
            ],
            [
              51.5749624,
              35.7171848
            ],
            [
              51.5748198,
              35.7164939
            ],
            [
              51.5733738,
              35.7172347
            ],
            [
              51.5726487,
              35.717236
            ],
            [
              51.5724302,
              35.7167673
            ],
            [
              51.5727229,
              35.7155162
            ],
            [
              51.5705902,
              35.7152775
            ],
            [
              51.5692342,
              35.7154165
            ],
            [
              51.5683674,
              35.715426
            ],
            [
              51.567869,
              35.7160934
            ],
            [
              51.5662863,
              35.7153284
            ],
            [
              51.565219,
              35.7154229
            ],
            [
              51.5642252,
              35.7151117
            ],
            [
              51.5643459,
              35.7148551
            ],
            [
              51.5694412,
              35.7134183
            ],
            [
              51.5699191,
              35.7118755
            ],
            [
              51.5696746,
              35.7111296
            ],
            [
              51.5678464,
              35.7112118
            ],
            [
              51.5664095,
              35.7126823
            ],
            [
              51.5631656,
              35.7145313
            ],
            [
              51.5590852,
              35.7147916
            ],
            [
              51.5551929,
              35.7170045
            ],
            [
              51.5542328,
              35.7170905
            ],
            [
              51.5504419,
              35.7180984
            ],
            [
              51.5489079,
              35.7181347
            ],
            [
              51.5485755,
              35.7177629
            ],
            [
              51.5489515,
              35.7171138
            ],
            [
              51.5477136,
              35.7174334
            ],
            [
              51.5462103,
              35.7176758
            ],
            [
              51.5456204,
              35.7175521
            ],
            [
              51.5455356,
              35.7162592
            ],
            [
              51.54559,
              35.7155305
            ],
            [
              51.5445829,
              35.7162941
            ],
            [
              51.5433288,
              35.7159988
            ],
            [
              51.5429964,
              35.7156968
            ],
            [
              51.5417214,
              35.7151007
            ],
            [
              51.5411867,
              35.7139036
            ],
            [
              51.539999,
              35.7139306
            ],
            [
              51.5393911,
              35.7137313
            ],
            [
              51.5361022,
              35.7148107
            ],
            [
              51.5317039,
              35.7148115
            ],
            [
              51.5270743,
              35.7146872
            ],
            [
              51.526509,
              35.7148113
            ],
            [
              51.5257551,
              35.7153746
            ],
            [
              51.5255133,
              35.7155827
            ],
            [
              51.5252293,
              35.7163616
            ],
            [
              51.5251138,
              35.7171566
            ],
            [
              51.5204938,
              35.7176579
            ],
            [
              51.520139,
              35.7176035
            ],
            [
              51.5188192,
              35.7180042
            ],
            [
              51.5182414,
              35.718096
            ],
            [
              51.5181158,
              35.7185117
            ],
            [
              51.516738,
              35.7182593
            ],
            [
              51.516003,
              35.7184675
            ],
            [
              51.5151997,
              35.7182815
            ],
            [
              51.5148203,
              35.7184939
            ],
            [
              51.5146277,
              35.7185278
            ],
            [
              51.5140733,
              35.7184277
            ],
            [
              51.5135801,
              35.7183815
            ],
            [
              51.5134581,
              35.7182961
            ],
            [
              51.513419,
              35.7177634
            ],
            [
              51.5134006,
              35.7173943
            ],
            [
              51.5131813,
              35.717257
            ],
            [
              51.5128223,
              35.7172208
            ],
            [
              51.512637,
              35.7172015
            ],
            [
              51.512594,
              35.7171763
            ],
            [
              51.5124074,
              35.7169805
            ],
            [
              51.5121547,
              35.7167263
            ],
            [
              51.5120834,
              35.7164918
            ],
            [
              51.5119178,
              35.7154677
            ],
            [
              51.5118393,
              35.7150841
            ],
            [
              51.5118084,
              35.7149423
            ],
            [
              51.511772,
              35.7148014
            ],
            [
              51.5117301,
              35.7146614
            ],
            [
              51.5116829,
              35.7145228
            ],
            [
              51.5116304,
              35.7143853
            ],
            [
              51.5115724,
              35.714249
            ],
            [
              51.5112403,
              35.7135057
            ],
            [
              51.5112079,
              35.7134141
            ],
            [
              51.5111792,
              35.7133215
            ],
            [
              51.5111544,
              35.7132283
            ],
            [
              51.5111334,
              35.7131344
            ],
            [
              51.5111163,
              35.71304
            ],
            [
              51.511103,
              35.7129452
            ],
            [
              51.5110937,
              35.7128501
            ],
            [
              51.5110883,
              35.7127547
            ],
            [
              51.5110868,
              35.7126593
            ],
            [
              51.5110893,
              35.7125639
            ],
            [
              51.5110956,
              35.7124686
            ],
            [
              51.5110998,
              35.7123961
            ],
            [
              51.5111069,
              35.7123236
            ],
            [
              51.5111171,
              35.7122514
            ],
            [
              51.5111303,
              35.7121796
            ],
            [
              51.5111465,
              35.7121081
            ],
            [
              51.5111657,
              35.7120371
            ],
            [
              51.5111879,
              35.7119667
            ],
            [
              51.5112129,
              35.711897
            ],
            [
              51.5112409,
              35.711828
            ],
            [
              51.5117125,
              35.7107275
            ],
            [
              51.5118495,
              35.7104078
            ],
            [
              51.5122161,
              35.7095523
            ],
            [
              51.5125687,
              35.7087613
            ],
            [
              51.5127639,
              35.7083065
            ],
            [
              51.5128317,
              35.7064692
            ],
            [
              51.5127973,
              35.7064284
            ],
            [
              51.5127597,
              35.7063869
            ],
            [
              51.5127219,
              35.7063482
            ],
            [
              51.5126824,
              35.7063105
            ],
            [
              51.5126414,
              35.706274
            ],
            [
              51.5125988,
              35.7062387
            ],
            [
              51.5125547,
              35.7062046
            ],
            [
              51.5123804,
              35.7060746
            ],
            [
              51.5109267,
              35.7053352
            ],
            [
              51.5104971,
              35.7050975
            ],
            [
              51.5101831,
              35.7049444
            ],
            [
              51.5098631,
              35.7047997
            ],
            [
              51.5096444,
              35.7047665
            ],
            [
              51.5092588,
              35.7046424
            ],
            [
              51.5080217,
              35.7042195
            ],
            [
              51.5078888,
              35.7040965
            ],
            [
              51.5077256,
              35.7040378
            ],
            [
              51.5077613,
              35.7039759
            ],
            [
              51.5076607,
              35.7039234
            ],
            [
              51.5075623,
              35.7038684
            ],
            [
              51.5074661,
              35.7038108
            ],
            [
              51.5073722,
              35.7037507
            ],
            [
              51.5072807,
              35.7036882
            ],
            [
              51.5062804,
              35.7029821
            ],
            [
              51.5062374,
              35.7029507
            ],
            [
              51.5061958,
              35.702918
            ],
            [
              51.5061557,
              35.7028843
            ],
            [
              51.5061169,
              35.7028494
            ],
            [
              51.5060797,
              35.7028134
            ],
            [
              51.5060441,
              35.7027764
            ],
            [
              51.5060101,
              35.7027384
            ],
            [
              51.5059777,
              35.7026995
            ],
            [
              51.5059623,
              35.7026796
            ],
            [
              51.505938,
              35.7026527
            ],
            [
              51.50591,
              35.7026298
            ],
            [
              51.5058823,
              35.702606
            ],
            [
              51.5058537,
              35.7025831
            ],
            [
              51.5058241,
              35.7025609
            ],
            [
              51.5057936,
              35.7025395
            ],
            [
              51.5057623,
              35.702519
            ],
            [
              51.5057301,
              35.7024994
            ],
            [
              51.5056971,
              35.7024807
            ],
            [
              51.5056633,
              35.7024629
            ],
            [
              51.5056288,
              35.7024461
            ],
            [
              51.5055937,
              35.7024302
            ],
            [
              51.5055579,
              35.7024154
            ],
            [
              51.5055215,
              35.7024015
            ],
            [
              51.5054845,
              35.7023886
            ],
            [
              51.5054471,
              35.7023768
            ],
            [
              51.5054091,
              35.702366
            ],
            [
              51.5053707,
              35.7023563
            ],
            [
              51.505332,
              35.7023476
            ],
            [
              51.5052929,
              35.70234
            ],
            [
              51.5052535,
              35.7023335
            ],
            [
              51.5052292,
              35.702329
            ],
            [
              51.5052142,
              35.7023267
            ],
            [
              51.505199,
              35.7023248
            ],
            [
              51.5051838,
              35.7023233
            ],
            [
              51.5051685,
              35.7023223
            ],
            [
              51.5051532,
              35.7023217
            ],
            [
              51.5051378,
              35.7023215
            ],
            [
              51.5051225,
              35.7023218
            ],
            [
              51.5051072,
              35.7023225
            ],
            [
              51.5050919,
              35.7023236
            ],
            [
              51.5050767,
              35.7023252
            ],
            [
              51.5050616,
              35.7023272
            ],
            [
              51.5050465,
              35.7023296
            ],
            [
              51.5050316,
              35.7023324
            ],
            [
              51.5050168,
              35.7023357
            ],
            [
              51.5050021,
              35.7023393
            ],
            [
              51.5049877,
              35.7023434
            ],
            [
              51.5049662,
              35.7023502
            ],
            [
              51.504959,
              35.7023522
            ],
            [
              51.5049516,
              35.7023541
            ],
            [
              51.5049442,
              35.7023557
            ],
            [
              51.5049368,
              35.7023571
            ],
            [
              51.5049293,
              35.7023583
            ],
            [
              51.5049217,
              35.7023593
            ],
            [
              51.5049141,
              35.7023601
            ],
            [
              51.5049065,
              35.7023606
            ],
            [
              51.5048988,
              35.702361
            ],
            [
              51.5048911,
              35.7023611
            ],
            [
              51.5048835,
              35.702361
            ],
            [
              51.5048758,
              35.7023607
            ],
            [
              51.5048682,
              35.7023602
            ],
            [
              51.5048606,
              35.7023595
            ],
            [
              51.504853,
              35.7023585
            ],
            [
              51.5048455,
              35.7023574
            ],
            [
              51.5047091,
              35.7023331
            ],
            [
              51.5046978,
              35.7023312
            ],
            [
              51.5046626,
              35.7023258
            ],
            [
              51.5046273,
              35.7023208
            ],
            [
              51.5045921,
              35.7023162
            ],
            [
              51.5045568,
              35.7023118
            ],
            [
              51.5045216,
              35.7023077
            ],
            [
              51.5044864,
              35.7023038
            ],
            [
              51.5044512,
              35.7023002
            ],
            [
              51.5044161,
              35.7022968
            ],
            [
              51.504381,
              35.7022936
            ],
            [
              51.504346,
              35.7022906
            ],
            [
              51.5042761,
              35.7022851
            ],
            [
              51.5042412,
              35.7022826
            ],
            [
              51.5041716,
              35.7022778
            ],
            [
              51.5040676,
              35.7022711
            ],
            [
              51.503492,
              35.7022353
            ],
            [
              51.5034102,
              35.70223
            ],
            [
              51.5033567,
              35.7022261
            ],
            [
              51.5033096,
              35.7022222
            ],
            [
              51.5032699,
              35.7022185
            ],
            [
              51.5032306,
              35.7022144
            ],
            [
              51.5031916,
              35.7022097
            ],
            [
              51.5031531,
              35.7022044
            ],
            [
              51.5031339,
              35.7022015
            ],
            [
              51.5031146,
              35.7021984
            ],
            [
              51.5030658,
              35.7021896
            ],
            [
              51.5030173,
              35.7021795
            ],
            [
              51.5029693,
              35.7021681
            ],
            [
              51.5029217,
              35.7021555
            ],
            [
              51.5028747,
              35.7021417
            ],
            [
              51.5028282,
              35.7021266
            ],
            [
              51.5027824,
              35.7021102
            ],
            [
              51.5027372,
              35.7020927
            ],
            [
              51.5026928,
              35.702074
            ],
            [
              51.5026491,
              35.7020542
            ],
            [
              51.5026062,
              35.7020332
            ],
            [
              51.5025895,
              35.7020246
            ],
            [
              51.502557,
              35.7020072
            ],
            [
              51.5025325,
              35.7019934
            ],
            [
              51.5025085,
              35.7019797
            ],
            [
              51.5024765,
              35.7019607
            ],
            [
              51.5024605,
              35.701951
            ],
            [
              51.5024286,
              35.7019312
            ],
            [
              51.5023878,
              35.7019051
            ],
            [
              51.5023066,
              35.701852
            ],
            [
              51.5019223,
              35.7015974
            ],
            [
              51.5018685,
              35.7015614
            ],
            [
              51.5018272,
              35.7015332
            ],
            [
              51.5017936,
              35.7015097
            ],
            [
              51.5017658,
              35.7014896
            ],
            [
              51.5017367,
              35.7014678
            ],
            [
              51.5017067,
              35.7014444
            ],
            [
              51.5016699,
              35.701414
            ],
            [
              51.5016343,
              35.7013827
            ],
            [
              51.5016,
              35.7013504
            ],
            [
              51.5015669,
              35.7013174
            ],
            [
              51.5015351,
              35.7012834
            ],
            [
              51.5015085,
              35.701253
            ],
            [
              51.5015047,
              35.7012487
            ],
            [
              51.5014756,
              35.7012132
            ],
            [
              51.5014479,
              35.701177
            ],
            [
              51.501431,
              35.7011534
            ],
            [
              51.5014137,
              35.7011283
            ],
            [
              51.5013991,
              35.7011067
            ],
            [
              51.5013787,
              35.7010747
            ],
            [
              51.5013592,
              35.7010433
            ],
            [
              51.5013426,
              35.7010158
            ],
            [
              51.5013048,
              35.700952
            ],
            [
              51.5011087,
              35.7005635
            ],
            [
              51.5010763,
              35.7003939
            ],
            [
              51.5010282,
              35.7002837
            ],
            [
              51.5008679,
              35.7000404
            ],
            [
              51.5006978,
              35.6998001
            ],
            [
              51.5005187,
              35.6995641
            ],
            [
              51.500331,
              35.6993327
            ],
            [
              51.5001352,
              35.6991066
            ],
            [
              51.4995669,
              35.6984713
            ],
            [
              51.4994225,
              35.698292
            ],
            [
              51.4991833,
              35.6979332
            ],
            [
              51.4985007,
              35.696866
            ],
            [
              51.4980718,
              35.6962034
            ],
            [
              51.4976822,
              35.6955205
            ],
            [
              51.4975181,
              35.6952743
            ],
            [
              51.4972697,
              35.6950123
            ],
            [
              51.4964672,
              35.6942471
            ],
            [
              51.4949379,
              35.6929218
            ],
            [
              51.4933304,
              35.6929613
            ],
            [
              51.4911852,
              35.6928137
            ],
            [
              51.4894733,
              35.6927071
            ],
            [
              51.487745,
              35.6925862
            ],
            [
              51.4829931,
              35.6922278
            ],
            [
              51.4802897,
              35.6920381
            ],
            [
              51.4786358,
              35.6919109
            ],
            [
              51.4763519,
              35.6917442
            ],
            [
              51.4737475,
              35.6915437
            ],
            [
              51.473184,
              35.6915003
            ],
            [
              51.4674533,
              35.6910411
            ],
            [
              51.4668827,
              35.6909954
            ],
            [
              51.4651158,
              35.6908538
            ],
            [
              51.4634761,
              35.6907379
            ],
            [
              51.461168,
              35.6905615
            ],
            [
              51.4578971,
              35.6903763
            ],
            [
              51.4577662,
              35.6903688
            ],
            [
              51.4573826,
              35.6903471
            ],
            [
              51.4573697,
              35.6903464
            ],
            [
              51.4571828,
              35.6903358
            ],
            [
              51.4519544,
              35.6899701
            ],
            [
              51.4473525,
              35.6895984
            ],
            [
              51.4475143,
              35.6915872
            ],
            [
              51.4478366,
              35.6955497
            ],
            [
              51.4480602,
              35.6995158
            ],
            [
              51.4480938,
              35.7000492
            ],
            [
              51.4480971,
              35.7017986
            ],
            [
              51.4480975,
              35.7019892
            ],
            [
              51.4481593,
              35.7020013
            ],
            [
              51.4484252,
              35.7020532
            ],
            [
              51.449116,
              35.7022248
            ],
            [
              51.4501125,
              35.7025123
            ],
            [
              51.4525385,
              35.7032354
            ],
            [
              51.4577726,
              35.7047343
            ],
            [
              51.4616898,
              35.7058476
            ],
            [
              51.4663245,
              35.7071795
            ],
            [
              51.4699675,
              35.7083004
            ],
            [
              51.4722863,
              35.7090256
            ],
            [
              51.4746494,
              35.7097422
            ],
            [
              51.4771196,
              35.7105088
            ],
            [
              51.4786357,
              35.7109712
            ],
            [
              51.4844281,
              35.7127376
            ]
          ]
        ]
      },
      "properties": {
        "id": 6729034,
        "name": "منطقه ۱۳ شهر تهران"
      }
    }
  ]
}