{
  "type": "FeatureCollection",
  "features": [
    {
      "type": "Feature",
      "geometry": {
        "type": "Polygon",
        "coordinates": [
          [
            [
              51.3786611,
              35.695236
            ],
            [
              51.3785471,
              35.696153
            ],
            [
              51.3785042,
              35.6964472
            ],
            [
              51.3784774,
              35.6967281
            ],
            [
              51.3784452,
              35.6969917
            ],
            [
              51.3784935,
              35.6972009
            ],
            [
              51.3784157,
              35.6979023
            ],
            [
              51.378278,
              35.6988198
            ],
            [
              51.3781086,
              35.7006576
            ],
            [
              51.3831264,
              35.7007616
            ],
            [
              51.3842635,
              35.7007854
            ],
            [
              51.3883063,
              35.7008842
            ],
            [
              51.3898244,
              35.7009191
            ],
            [
              51.3911254,
              35.7009038
            ],
            [
              51.392783,
              35.7009692
            ],
            [
              51.4020747,
              35.7011617
            ],
            [
              51.4051852,
              35.7012254
            ],
            [
              51.4053709,
              35.7012294
            ],
            [
              51.4099437,
              35.7013253
            ],
            [
              51.4116832,
              35.7013536
            ],
            [
              51.4128702,
              35.7013858
            ],
            [
              51.4127627,
              35.6998891
            ],
            [
              51.412807,
              35.6997638
            ],
            [
              51.4128392,
              35.6994502
            ],
            [
              51.4126424,
              35.6984029
            ],
            [
              51.4116,
              35.6928543
            ],
            [
              51.4114391,
              35.6926626
            ],
            [
              51.4113109,
              35.6921986
            ],
            [
              51.4102348,
              35.686515
            ],
            [
              51.4101559,
              35.6861089
            ],
            [
              51.4088762,
              35.6795248
            ],
            [
              51.4084055,
              35.6771031
            ],
            [
              51.4083578,
              35.6768506
            ],
            [
              51.4079349,
              35.6746145
            ],
            [
              51.4068498,
              35.6688756
            ],
            [
              51.4065718,
              35.6673891
            ],
            [
              51.4055778,
              35.6622454
            ],
            [
              51.4048972,
              35.658433
            ],
            [
              51.4005775,
              35.6588917
            ],
            [
              51.3997795,
              35.6589764
            ],
            [
              51.3985518,
              35.6590985
            ],
            [
              51.3983734,
              35.6590538
            ],
            [
              51.3982609,
              35.6589986
            ],
            [
              51.3980954,
              35.6589441
            ],
            [
              51.3977889,
              35.6589888
            ],
            [
              51.397587,
              35.6590998
            ],
            [
              51.3971653,
              35.659223
            ],
            [
              51.3968335,
              35.6592568
            ],
            [
              51.3937262,
              35.6595075
            ],
            [
              51.3930955,
              35.6584185
            ],
            [
              51.3848382,
              35.659227
            ],
            [
              51.3821896,
              35.6594864
            ],
            [
              51.3821091,
              35.6614302
            ],
            [
              51.3820367,
              35.6628772
            ],
            [
              51.3819804,
              35.6635353
            ],
            [
              51.3819723,
              35.6637336
            ],
            [
              51.3819079,
              35.6643787
            ],
            [
              51.3816667,
              35.6681106
            ],
            [
              51.381586,
              35.6697907
            ],
            [
              51.381578,
              35.6703733
            ],
            [
              51.3815441,
              35.6708457
            ],
            [
              51.3813822,
              35.6725719
            ],
            [
              51.3812722,
              35.6737354
            ],
            [
              51.3810523,
              35.6750318
            ],
            [
              51.3808913,
              35.6758272
            ],
            [
              51.3807653,
              35.6770429
            ],
            [
              51.3807463,
              35.677348
            ],
            [
              51.3806821,
              35.6782064
            ],
            [
              51.3806232,
              35.6790909
            ],
            [
              51.380312,
              35.6804831
            ],
            [
              51.380194,
              35.6810779
            ],
            [
              51.3801424,
              35.6818237
            ],
            [
              51.3800867,
              35.6826291
            ],
            [
              51.3798345,
              35.6850844
            ],
            [
              51.3796817,
              35.6866857
            ],
            [
              51.379621,
              35.687854
            ],
            [
              51.379435,
              35.6892781
            ],
            [
              51.3792928,
              35.6907099
            ],
            [
              51.3792264,
              35.6913935
            ],
            [
              51.3790191,
              35.693001
            ],
            [
              51.3786611,
              35.695236
            ]
          ]
        ]
      },
      "properties": {
        "id": 6729111,
        "name": "منطقه ۱۱ شهر تهران"
      }
    }
  ]
}