{
  "type": "FeatureCollection",
  "features": [
    {
      "type": "Feature",
      "geometry": {
        "type": "Polygon",
        "coordinates": [
          [
            [
              51.2804473,
              35.6467733
            ],
            [
              51.2793907,
              35.6472297
            ],
            [
              51.2746857,
              35.6490051
            ],
            [
              51.2709796,
              35.6505013
            ],
            [
              51.258661,
              35.6552857
            ],
            [
              51.2516963,
              35.6578264
            ],
            [
              51.2508769,
              35.6581253
            ],
            [
              51.2447822,
              35.6603235
            ],
            [
              51.242308,
              35.6612621
            ],
            [
              51.2412419,
              35.6616891
            ],
            [
              51.2402994,
              35.6621211
            ],
            [
              51.2395868,
              35.6624667
            ],
            [
              51.2392877,
              35.6626345
            ],
            [
              51.2383636,
              35.6631916
            ],
            [
              51.2372897,
              35.6638721
            ],
            [
              51.236646,
              35.6643844
            ],
            [
              51.2358832,
              35.6649989
            ],
            [
              51.2350687,
              35.6657662
            ],
            [
              51.2341972,
              35.6666741
            ],
            [
              51.2335058,
              35.6675157
            ],
            [
              51.2334019,
              35.6676585
            ],
            [
              51.2331313,
              35.6680032
            ],
            [
              51.2326998,
              35.6686264
            ],
            [
              51.2320761,
              35.6696861
            ],
            [
              51.2317087,
              35.670428
            ],
            [
              51.23142,
              35.6711332
            ],
            [
              51.2309855,
              35.6723432
            ],
            [
              51.2308018,
              35.6731431
            ],
            [
              51.2305865,
              35.6743931
            ],
            [
              51.2305214,
              35.675191
            ],
            [
              51.2304534,
              35.6768611
            ],
            [
              51.2304643,
              35.6775739
            ],
            [
              51.2308185,
              35.6793187
            ],
            [
              51.2316008,
              35.6807271
            ],
            [
              51.2325182,
              35.6820743
            ],
            [
              51.2333501,
              35.683573
            ],
            [
              51.2336667,
              35.6834715
            ],
            [
              51.2381357,
              35.6820444
            ],
            [
              51.2413888,
              35.6814955
            ],
            [
              51.2483728,
              35.68049
            ],
            [
              51.2528177,
              35.6797765
            ],
            [
              51.2564815,
              35.6792218
            ],
            [
              51.258387,
              35.6789333
            ],
            [
              51.2608761,
              35.6785803
            ],
            [
              51.261852,
              35.6784359
            ],
            [
              51.2637021,
              35.6781679
            ],
            [
              51.2654442,
              35.6779029
            ],
            [
              51.2668564,
              35.6777065
            ],
            [
              51.2697317,
              35.6772295
            ],
            [
              51.2709317,
              35.6771094
            ],
            [
              51.2721667,
              35.677013
            ],
            [
              51.2744989,
              35.676894
            ],
            [
              51.2776249,
              35.6766873
            ],
            [
              51.27871,
              35.6766374
            ],
            [
              51.2845191,
              35.6765273
            ],
            [
              51.2858876,
              35.6764748
            ],
            [
              51.2872972,
              35.6764238
            ],
            [
              51.2890542,
              35.6763764
            ],
            [
              51.2934586,
              35.676164
            ],
            [
              51.2969166,
              35.6761252
            ],
            [
              51.3048246,
              35.6758642
            ],
            [
              51.306443,
              35.6757367
            ],
            [
              51.3084789,
              35.6756302
            ],
            [
              51.3090207,
              35.6755997
            ],
            [
              51.309289,
              35.6754025
            ],
            [
              51.3094472,
              35.674897
            ],
            [
              51.3093801,
              35.6743785
            ],
            [
              51.3092983,
              35.6736692
            ],
            [
              51.30925,
              35.6732204
            ],
            [
              51.3091952,
              35.6730396
            ],
            [
              51.309053,
              35.6726452
            ],
            [
              51.3089912,
              35.6724468
            ],
            [
              51.3089248,
              35.6722358
            ],
            [
              51.3097584,
              35.6719893
            ],
            [
              51.3126176,
              35.6713138
            ],
            [
              51.3171505,
              35.6705316
            ],
            [
              51.3210721,
              35.6698445
            ],
            [
              51.323966,
              35.6693375
            ],
            [
              51.3334173,
              35.6677226
            ],
            [
              51.3355951,
              35.6673501
            ],
            [
              51.335639,
              35.6673426
            ],
            [
              51.3396287,
              35.6666572
            ],
            [
              51.3412274,
              35.6664251
            ],
            [
              51.3421943,
              35.6664088
            ],
            [
              51.3438171,
              35.6666768
            ],
            [
              51.3446673,
              35.666995
            ],
            [
              51.3445278,
              35.6666899
            ],
            [
              51.3443803,
              35.6662825
            ],
            [
              51.3442489,
              35.6658575
            ],
            [
              51.3441791,
              35.6655132
            ],
            [
              51.3439485,
              35.6647614
            ],
            [
              51.343868,
              35.6643626
            ],
            [
              51.3439726,
              35.6637394
            ],
            [
              51.3440263,
              35.663491
            ],
            [
              51.3441068,
              35.6633232
            ],
            [
              51.344206,
              35.6630682
            ],
            [
              51.3442622,
              35.6629113
            ],
            [
              51.3444447,
              35.6625692
            ],
            [
              51.3448336,
              35.6616212
            ],
            [
              51.3449167,
              35.6613924
            ],
            [
              51.3450208,
              35.6610672
            ],
            [
              51.3452923,
              35.6602483
            ],
            [
              51.3458264,
              35.6590526
            ],
            [
              51.3459923,
              35.6586813
            ],
            [
              51.346636,
              35.657097
            ],
            [
              51.3473363,
              35.6553642
            ],
            [
              51.3484706,
              35.652627
            ],
            [
              51.3495463,
              35.6501271
            ],
            [
              51.3505923,
              35.6474529
            ],
            [
              51.3511743,
              35.6460862
            ],
            [
              51.3520725,
              35.6438359
            ],
            [
              51.3526174,
              35.6424745
            ],
            [
              51.3531591,
              35.6412232
            ],
            [
              51.3539772,
              35.6393072
            ],
            [
              51.3544413,
              35.6383175
            ],
            [
              51.3548462,
              35.637668
            ],
            [
              51.3554846,
              35.6371274
            ],
            [
              51.356563,
              35.6366579
            ],
            [
              51.3560675,
              35.6364545
            ],
            [
              51.3548095,
              35.6360752
            ],
            [
              51.3540746,
              35.635975
            ],
            [
              51.352189,
              35.6358834
            ],
            [
              51.3517572,
              35.635794
            ],
            [
              51.3505912,
              35.6352426
            ],
            [
              51.3480745,
              35.6341808
            ],
            [
              51.3439849,
              35.6320794
            ],
            [
              51.3407146,
              35.6303222
            ],
            [
              51.3380653,
              35.62906
            ],
            [
              51.3370319,
              35.6285934
            ],
            [
              51.3351495,
              35.627689
            ],
            [
              51.3345473,
              35.6273646
            ],
            [
              51.3339849,
              35.6270128
            ],
            [
              51.3328449,
              35.6261385
            ],
            [
              51.3313161,
              35.6248827
            ],
            [
              51.3284469,
              35.6225391
            ],
            [
              51.3272472,
              35.6215643
            ],
            [
              51.326049,
              35.6207795
            ],
            [
              51.3248439,
              35.6200969
            ],
            [
              51.3246313,
              35.6203321
            ],
            [
              51.3240165,
              35.6210814
            ],
            [
              51.3231014,
              35.6221968
            ],
            [
              51.3230067,
              35.6222917
            ],
            [
              51.3213909,
              35.6242637
            ],
            [
              51.3209276,
              35.6247797
            ],
            [
              51.319542,
              35.6262263
            ],
            [
              51.3188817,
              35.6268575
            ],
            [
              51.3172576,
              35.6282217
            ],
            [
              51.3164181,
              35.6288655
            ],
            [
              51.3155899,
              35.6294183
            ],
            [
              51.3138066,
              35.630538
            ],
            [
              51.3114948,
              35.6317621
            ],
            [
              51.3106771,
              35.6321951
            ],
            [
              51.3056536,
              35.6347184
            ],
            [
              51.3038112,
              35.6356438
            ],
            [
              51.301173,
              35.6369689
            ],
            [
              51.2990177,
              35.6380512
            ],
            [
              51.2915857,
              35.6417245
            ],
            [
              51.2873203,
              35.6437041
            ],
            [
              51.2857974,
              35.6443967
            ],
            [
              51.2850981,
              35.6447149
            ],
            [
              51.2825714,
              35.6458492
            ],
            [
              51.2821948,
              35.6460183
            ],
            [
              51.2804473,
              35.6467733
            ]
          ]
        ]
      },
      "properties": {
        "id": 6729503,
        "name": "منطقه ۱۸ شهر تهران"
      }
    }
  ]
}