{
  "type": "FeatureCollection",
  "features": [
    {
      "type": "Feature",
      "geometry": {
        "type": "Polygon",
        "coordinates": [
          [
            [
              51.0933664,
              35.7420688
            ],
            [
              51.0892219,
              35.7429265
            ],
            [
              51.0901497,
              35.7456386
            ],
            [
              51.0908601,
              35.7453889
            ],
            [
              51.0917614,
              35.7451407
            ],
            [
              51.0929684,
              35.744788
            ],
            [
              51.0948727,
              35.7443831
            ],
            [
              51.0968951,
              35.7440522
            ],
            [
              51.1002479,
              35.7436429
            ],
            [
              51.102002,
              35.7434339
            ],
            [
              51.104416,
              35.7431727
            ],
            [
              51.1071787,
              35.7428723
            ],
            [
              51.1105368,
              35.7425022
            ],
            [
              51.1140022,
              35.7421147
            ],
            [
              51.1151716,
              35.7419884
            ],
            [
              51.1164377,
              35.7419013
            ],
            [
              51.1184386,
              35.7418709
            ],
            [
              51.1205039,
              35.7420058
            ],
            [
              51.1217806,
              35.7421451
            ],
            [
              51.1235777,
              35.7424935
            ],
            [
              51.1286101,
              35.7436903
            ],
            [
              51.1304967,
              35.7441373
            ],
            [
              51.131974,
              35.7443949
            ],
            [
              51.1334712,
              35.7446088
            ],
            [
              51.1344451,
              35.7447187
            ],
            [
              51.1361978,
              35.7448421
            ],
            [
              51.1383045,
              35.7448972
            ],
            [
              51.1401081,
              35.7449191
            ],
            [
              51.1417192,
              35.7447652
            ],
            [
              51.1454286,
              35.7443296
            ],
            [
              51.1480464,
              35.7437198
            ],
            [
              51.1504838,
              35.743031
            ],
            [
              51.1524196,
              35.7423448
            ],
            [
              51.1536221,
              35.74192
            ],
            [
              51.1585742,
              35.7399279
            ],
            [
              51.1639343,
              35.7377213
            ],
            [
              51.1662198,
              35.7368516
            ],
            [
              51.1675498,
              35.7362801
            ],
            [
              51.171738,
              35.7346305
            ],
            [
              51.1737189,
              35.7338502
            ],
            [
              51.1773936,
              35.7324046
            ],
            [
              51.1811424,
              35.7309172
            ],
            [
              51.1826399,
              35.730323
            ],
            [
              51.1846483,
              35.7295132
            ],
            [
              51.1871192,
              35.7285028
            ],
            [
              51.189788,
              35.727493
            ],
            [
              51.1907997,
              35.7270186
            ],
            [
              51.192886,
              35.7262638
            ],
            [
              51.1944255,
              35.7255719
            ],
            [
              51.1946922,
              35.7254673
            ],
            [
              51.198245,
              35.7240738
            ],
            [
              51.2010936,
              35.7229676
            ],
            [
              51.2033144,
              35.7221663
            ],
            [
              51.2062863,
              35.7212037
            ],
            [
              51.2100979,
              35.7201832
            ],
            [
              51.2147832,
              35.7192076
            ],
            [
              51.2184924,
              35.7185951
            ],
            [
              51.2216339,
              35.7182335
            ],
            [
              51.2229911,
              35.7181202
            ],
            [
              51.2264565,
              35.7178981
            ],
            [
              51.2302893,
              35.71775
            ],
            [
              51.2336073,
              35.7174103
            ],
            [
              51.2348143,
              35.7172056
            ],
            [
              51.2359355,
              35.7170009
            ],
            [
              51.2394062,
              35.7163301
            ],
            [
              51.2411523,
              35.7159773
            ],
            [
              51.2434539,
              35.7155551
            ],
            [
              51.2455431,
              35.715128
            ],
            [
              51.2459991,
              35.7150539
            ],
            [
              51.2470559,
              35.7148841
            ],
            [
              51.2478391,
              35.7147665
            ],
            [
              51.2491909,
              35.7146445
            ],
            [
              51.250929,
              35.71454
            ],
            [
              51.2524471,
              35.7145052
            ],
            [
              51.254389,
              35.7145226
            ],
            [
              51.2549845,
              35.7145444
            ],
            [
              51.2558374,
              35.7145793
            ],
            [
              51.2571088,
              35.7146402
            ],
            [
              51.2578705,
              35.7146881
            ],
            [
              51.2589254,
              35.7147852
            ],
            [
              51.2607942,
              35.7148449
            ],
            [
              51.2626109,
              35.7149593
            ],
            [
              51.2637564,
              35.715022
            ],
            [
              51.2663413,
              35.715149
            ],
            [
              51.2685994,
              35.7152195
            ],
            [
              51.2696798,
              35.7152857
            ],
            [
              51.2708229,
              35.715361
            ],
            [
              51.2715015,
              35.7153501
            ],
            [
              51.2730304,
              35.7154416
            ],
            [
              51.2756994,
              35.715592
            ],
            [
              51.277856,
              35.7157171
            ],
            [
              51.2802086,
              35.7158217
            ],
            [
              51.2817742,
              35.7158967
            ],
            [
              51.2834519,
              35.7159802
            ],
            [
              51.2859057,
              35.7160915
            ],
            [
              51.2897184,
              35.7162964
            ],
            [
              51.2911501,
              35.7163723
            ],
            [
              51.2910863,
              35.7155088
            ],
            [
              51.2910012,
              35.7148318
            ],
            [
              51.290851,
              35.7139956
            ],
            [
              51.2909583,
              35.7130896
            ],
            [
              51.2913016,
              35.7124624
            ],
            [
              51.2914089,
              35.710964
            ],
            [
              51.2912587,
              35.7104936
            ],
            [
              51.2913231,
              35.709274
            ],
            [
              51.2914947,
              35.7079672
            ],
            [
              51.2912158,
              35.7077233
            ],
            [
              51.2905291,
              35.7072354
            ],
            [
              51.2902716,
              35.7069044
            ],
            [
              51.2904004,
              35.7057369
            ],
            [
              51.2905291,
              35.7050574
            ],
            [
              51.2904647,
              35.7041165
            ],
            [
              51.2902502,
              35.703315
            ],
            [
              51.2901429,
              35.7030536
            ],
            [
              51.2901,
              35.7025831
            ],
            [
              51.2900785,
              35.7019907
            ],
            [
              51.2899634,
              35.7009238
            ],
            [
              51.289821,
              35.6996034
            ],
            [
              51.2899927,
              35.6978608
            ],
            [
              51.2893919,
              35.6969895
            ],
            [
              51.2893919,
              35.6963273
            ],
            [
              51.2897781,
              35.6955606
            ],
            [
              51.2895206,
              35.6941665
            ],
            [
              51.288834,
              35.6926329
            ],
            [
              51.2882761,
              35.6916221
            ],
            [
              51.2881473,
              35.6910644
            ],
            [
              51.2881902,
              35.6900014
            ],
            [
              51.2875465,
              35.6891823
            ],
            [
              51.2875036,
              35.6888686
            ],
            [
              51.2876538,
              35.6884503
            ],
            [
              51.2875036,
              35.6879449
            ],
            [
              51.2871603,
              35.6873175
            ],
            [
              51.2866667,
              35.6867423
            ],
            [
              51.2862805,
              35.6863066
            ],
            [
              51.2857655,
              35.6861846
            ],
            [
              51.2851003,
              35.6858361
            ],
            [
              51.2847999,
              35.6855398
            ],
            [
              51.2842206,
              35.6850692
            ],
            [
              51.2837485,
              35.6846161
            ],
            [
              51.2837914,
              35.6842326
            ],
            [
              51.2838129,
              35.6839886
            ],
            [
              51.2833623,
              35.6835355
            ],
            [
              51.2828258,
              35.6828906
            ],
            [
              51.2823537,
              35.6823329
            ],
            [
              51.2817958,
              35.6816008
            ],
            [
              51.28171,
              35.681322
            ],
            [
              51.2811736,
              35.6809908
            ],
            [
              51.2805298,
              35.6806422
            ],
            [
              51.2801651,
              35.6804505
            ],
            [
              51.2798861,
              35.679579
            ],
            [
              51.279178,
              35.6784635
            ],
            [
              51.2787489,
              35.6779057
            ],
            [
              51.27871,
              35.6766374
            ],
            [
              51.2776249,
              35.6766873
            ],
            [
              51.2744989,
              35.676894
            ],
            [
              51.2721667,
              35.677013
            ],
            [
              51.2709317,
              35.6771094
            ],
            [
              51.2697317,
              35.6772295
            ],
            [
              51.2668564,
              35.6777065
            ],
            [
              51.2654442,
              35.6779029
            ],
            [
              51.2637021,
              35.6781679
            ],
            [
              51.261852,
              35.6784359
            ],
            [
              51.2608761,
              35.6785803
            ],
            [
              51.258387,
              35.6789333
            ],
            [
              51.2564815,
              35.6792218
            ],
            [
              51.2528177,
              35.6797765
            ],
            [
              51.2483728,
              35.68049
            ],
            [
              51.2413888,
              35.6814955
            ],
            [
              51.2381357,
              35.6820444
            ],
            [
              51.2336667,
              35.6834715
            ],
            [
              51.2333501,
              35.683573
            ],
            [
              51.2306453,
              35.6840225
            ],
            [
              51.2277997,
              35.6845832
            ],
            [
              51.2276818,
              35.6854557
            ],
            [
              51.2265524,
              35.6859154
            ],
            [
              51.2256017,
              35.686236
            ],
            [
              51.224486,
              35.686665
            ],
            [
              51.2234713,
              35.6870956
            ],
            [
              51.2219405,
              35.687725
            ],
            [
              51.2207573,
              35.6881922
            ],
            [
              51.220004,
              35.6885288
            ],
            [
              51.2175424,
              35.6895174
            ],
            [
              51.2163412,
              35.6899759
            ],
            [
              51.2145463,
              35.6905924
            ],
            [
              51.2127514,
              35.6913353
            ],
            [
              51.2102014,
              35.6923785
            ],
            [
              51.206433,
              35.6939424
            ],
            [
              51.2020826,
              35.6956827
            ],
            [
              51.1966753,
              35.6978452
            ],
            [
              51.1901569,
              35.7004326
            ],
            [
              51.1857416,
              35.7021978
            ],
            [
              51.183454,
              35.7031179
            ],
            [
              51.1824842,
              35.703401
            ],
            [
              51.1807935,
              35.7039797
            ],
            [
              51.1794338,
              35.7043488
            ],
            [
              51.1764115,
              35.7051047
            ],
            [
              51.1722416,
              35.7061907
            ],
            [
              51.1658542,
              35.7077935
            ],
            [
              51.1642041,
              35.7082067
            ],
            [
              51.1625517,
              35.7083811
            ],
            [
              51.1621145,
              35.7085122
            ],
            [
              51.1548342,
              35.7111019
            ],
            [
              51.1537326,
              35.711429
            ],
            [
              51.1520161,
              35.7121874
            ],
            [
              51.1495543,
              35.7130295
            ],
            [
              51.1475162,
              35.713681
            ],
            [
              51.1434179,
              35.7153904
            ],
            [
              51.1424828,
              35.715751
            ],
            [
              51.1412675,
              35.7163557
            ],
            [
              51.1401321,
              35.7169731
            ],
            [
              51.1389015,
              35.7177687
            ],
            [
              51.1360725,
              35.7199167
            ],
            [
              51.1355347,
              35.7203379
            ],
            [
              51.1349456,
              35.7207975
            ],
            [
              51.1339672,
              35.7215959
            ],
            [
              51.1325589,
              35.7227039
            ],
            [
              51.1321352,
              35.723096
            ],
            [
              51.1316791,
              35.7235613
            ],
            [
              51.1311139,
              35.7240546
            ],
            [
              51.1283693,
              35.726792
            ],
            [
              51.1273957,
              35.7280037
            ],
            [
              51.1257776,
              35.730269
            ],
            [
              51.1251738,
              35.7311695
            ],
            [
              51.1248973,
              35.7316167
            ],
            [
              51.1244698,
              35.7322079
            ],
            [
              51.1236697,
              35.7329578
            ],
            [
              51.1226014,
              35.7335831
            ],
            [
              51.1212955,
              35.7341252
            ],
            [
              51.1164378,
              35.7364194
            ],
            [
              51.1137546,
              35.7374884
            ],
            [
              51.1136635,
              35.7375146
            ],
            [
              51.104756,
              35.7399383
            ],
            [
              51.1026979,
              35.7402594
            ],
            [
              51.0989731,
              35.7409334
            ],
            [
              51.0933664,
              35.7420688
            ]
          ]
        ]
      },
      "properties": {
        "id": 6729505,
        "name": "منطقه ۲۱ شهر تهران"
      }
    }
  ]
}