{
  "type": "FeatureCollection",
  "features": [
    {
      "type": "Feature",
      "geometry": {
        "type": "Polygon",
        "coordinates": [
          [
            [
              51.4786357,
              35.7109712
            ],
            [
              51.4771196,
              35.7105088
            ],
            [
              51.4746494,
              35.7097422
            ],
            [
              51.4722863,
              35.7090256
            ],
            [
              51.4722045,
              35.7092043
            ],
            [
              51.4713247,
              35.7101713
            ],
            [
              51.4665397,
              35.7151542
            ],
            [
              51.4650269,
              35.7172971
            ],
            [
              51.4642078,
              35.7183983
            ],
            [
              51.4640922,
              35.718588
            ],
            [
              51.4639601,
              35.7189174
            ],
            [
              51.4633606,
              35.7198531
            ],
            [
              51.4627129,
              35.7209251
            ],
            [
              51.4624466,
              35.7213997
            ],
            [
              51.4623389,
              35.7215704
            ],
            [
              51.4618696,
              35.7223105
            ],
            [
              51.4595753,
              35.725929
            ],
            [
              51.4589195,
              35.7271799
            ],
            [
              51.458898,
              35.7282142
            ],
            [
              51.4588739,
              35.7289349
            ],
            [
              51.4589262,
              35.7294641
            ],
            [
              51.4589477,
              35.7298372
            ],
            [
              51.4593065,
              35.7304233
            ],
            [
              51.4592266,
              35.730992
            ],
            [
              51.4601997,
              35.7319518
            ],
            [
              51.4613213,
              35.7333031
            ],
            [
              51.4638092,
              35.736145
            ],
            [
              51.4654062,
              35.7381647
            ],
            [
              51.465912,
              35.7389318
            ],
            [
              51.4668473,
              35.7403457
            ],
            [
              51.4671995,
              35.7403055
            ],
            [
              51.4690663,
              35.7400269
            ],
            [
              51.4714643,
              35.7396938
            ],
            [
              51.4737012,
              35.7393128
            ],
            [
              51.474265,
              35.7391951
            ],
            [
              51.475171,
              35.739008
            ],
            [
              51.4763297,
              35.7388077
            ],
            [
              51.481029,
              35.7378323
            ],
            [
              51.4819087,
              35.7377104
            ],
            [
              51.4832252,
              35.7375307
            ],
            [
              51.4844193,
              35.7373621
            ],
            [
              51.488397,
              35.7367078
            ],
            [
              51.4900626,
              35.7364477
            ],
            [
              51.4907707,
              35.7363519
            ],
            [
              51.4912991,
              35.7361864
            ],
            [
              51.4914039,
              35.7361697
            ],
            [
              51.491916,
              35.7360884
            ],
            [
              51.4948222,
              35.7357183
            ],
            [
              51.5021514,
              35.7347821
            ],
            [
              51.5160714,
              35.7329544
            ],
            [
              51.5176713,
              35.7327443
            ],
            [
              51.5181944,
              35.7326333
            ],
            [
              51.5341608,
              35.7305691
            ],
            [
              51.535559,
              35.7303427
            ],
            [
              51.536133,
              35.7301773
            ],
            [
              51.5367553,
              35.7298724
            ],
            [
              51.537401,
              35.7293389
            ],
            [
              51.5378858,
              35.7287065
            ],
            [
              51.5380555,
              35.7283503
            ],
            [
              51.5382439,
              35.7275187
            ],
            [
              51.5385939,
              35.7248967
            ],
            [
              51.5347221,
              35.7246132
            ],
            [
              51.5326168,
              35.7244758
            ],
            [
              51.5314375,
              35.7244144
            ],
            [
              51.5302767,
              35.7242833
            ],
            [
              51.5292037,
              35.7242206
            ],
            [
              51.5286135,
              35.7241894
            ],
            [
              51.5284384,
              35.7241849
            ],
            [
              51.5276419,
              35.7241449
            ],
            [
              51.52652,
              35.7240675
            ],
            [
              51.524694,
              35.7239279
            ],
            [
              51.5237682,
              35.7238772
            ],
            [
              51.5227843,
              35.7238233
            ],
            [
              51.5196085,
              35.7235359
            ],
            [
              51.5185758,
              35.7233225
            ],
            [
              51.5149106,
              35.722188
            ],
            [
              51.5111925,
              35.7210275
            ],
            [
              51.5083802,
              35.7201652
            ],
            [
              51.5056825,
              35.7193266
            ],
            [
              51.5020958,
              35.7182205
            ],
            [
              51.4989648,
              35.7172555
            ],
            [
              51.4983158,
              35.7170773
            ],
            [
              51.4972711,
              35.7167545
            ],
            [
              51.4944052,
              35.7158327
            ],
            [
              51.4905939,
              35.7145749
            ],
            [
              51.4866495,
              35.7134228
            ],
            [
              51.4851588,
              35.712963
            ],
            [
              51.4844281,
              35.7127376
            ],
            [
              51.4786357,
              35.7109712
            ]
          ]
        ]
      },
      "properties": {
        "id": 6729035,
        "name": "منطقه ۸ شهر تهران"
      }
    }
  ]
}