{
  "type": "FeatureCollection",
  "features": [
    {
      "type": "Feature",
      "geometry": {
        "type": "Polygon",
        "coordinates": [
          [
            [
              51.3522072,
              35.6710424
            ],
            [
              51.3522993,
              35.6708929
            ],
            [
              51.3524897,
              35.670822
            ],
            [
              51.3524592,
              35.670658
            ],
            [
              51.3496079,
              35.6691741
            ],
            [
              51.3474085,
              35.6681368
            ],
            [
              51.3465395,
              35.667701
            ],
            [
              51.3460515,
              35.6674771
            ],
            [
              51.3453272,
              35.6673937
            ],
            [
              51.3450347,
              35.6672304
            ],
            [
              51.3449338,
              35.6671658
            ],
            [
              51.3446673,
              35.666995
            ],
            [
              51.3438171,
              35.6666768
            ],
            [
              51.3421943,
              35.6664088
            ],
            [
              51.3412274,
              35.6664251
            ],
            [
              51.3396287,
              35.6666572
            ],
            [
              51.335639,
              35.6673426
            ],
            [
              51.3355951,
              35.6673501
            ],
            [
              51.3334173,
              35.6677226
            ],
            [
              51.323966,
              35.6693375
            ],
            [
              51.3210721,
              35.6698445
            ],
            [
              51.3171505,
              35.6705316
            ],
            [
              51.3126176,
              35.6713138
            ],
            [
              51.3097584,
              35.6719893
            ],
            [
              51.3089248,
              35.6722358
            ],
            [
              51.3089912,
              35.6724468
            ],
            [
              51.309053,
              35.6726452
            ],
            [
              51.3091952,
              35.6730396
            ],
            [
              51.30925,
              35.6732204
            ],
            [
              51.3092983,
              35.6736692
            ],
            [
              51.3093801,
              35.6743785
            ],
            [
              51.3094472,
              35.674897
            ],
            [
              51.309289,
              35.6754025
            ],
            [
              51.3090207,
              35.6755997
            ],
            [
              51.3084789,
              35.6756302
            ],
            [
              51.306443,
              35.6757367
            ],
            [
              51.3048246,
              35.6758642
            ],
            [
              51.2969166,
              35.6761252
            ],
            [
              51.2934586,
              35.676164
            ],
            [
              51.2890542,
              35.6763764
            ],
            [
              51.2872972,
              35.6764238
            ],
            [
              51.2858876,
              35.6764748
            ],
            [
              51.2845191,
              35.6765273
            ],
            [
              51.27871,
              35.6766374
            ],
            [
              51.2787489,
              35.6779057
            ],
            [
              51.279178,
              35.6784635
            ],
            [
              51.2798861,
              35.679579
            ],
            [
              51.2801651,
              35.6804505
            ],
            [
              51.2805298,
              35.6806422
            ],
            [
              51.2811736,
              35.6809908
            ],
            [
              51.28171,
              35.681322
            ],
            [
              51.2817958,
              35.6816008
            ],
            [
              51.2823537,
              35.6823329
            ],
            [
              51.2828258,
              35.6828906
            ],
            [
              51.2833623,
              35.6835355
            ],
            [
              51.2838129,
              35.6839886
            ],
            [
              51.2837914,
              35.6842326
            ],
            [
              51.2837485,
              35.6846161
            ],
            [
              51.2842206,
              35.6850692
            ],
            [
              51.2847999,
              35.6855398
            ],
            [
              51.2851003,
              35.6858361
            ],
            [
              51.2857655,
              35.6861846
            ],
            [
              51.2862805,
              35.6863066
            ],
            [
              51.2866667,
              35.6867423
            ],
            [
              51.2871603,
              35.6873175
            ],
            [
              51.2875036,
              35.6879449
            ],
            [
              51.2876538,
              35.6884503
            ],
            [
              51.2875036,
              35.6888686
            ],
            [
              51.2875465,
              35.6891823
            ],
            [
              51.2881902,
              35.6900014
            ],
            [
              51.2881473,
              35.6910644
            ],
            [
              51.2882761,
              35.6916221
            ],
            [
              51.288834,
              35.6926329
            ],
            [
              51.2895206,
              35.6941665
            ],
            [
              51.2897781,
              35.6955606
            ],
            [
              51.2893919,
              35.6963273
            ],
            [
              51.2893919,
              35.6969895
            ],
            [
              51.2899927,
              35.6978608
            ],
            [
              51.289821,
              35.6996034
            ],
            [
              51.2899634,
              35.7009238
            ],
            [
              51.2948541,
              35.7000081
            ],
            [
              51.2969511,
              35.6996193
            ],
            [
              51.2990552,
              35.6992768
            ],
            [
              51.3005465,
              35.6989719
            ],
            [
              51.3021159,
              35.6988431
            ],
            [
              51.3032923,
              35.698871
            ],
            [
              51.3042754,
              35.6989335
            ],
            [
              51.3070025,
              35.6989396
            ],
            [
              51.3096902,
              35.6990416
            ],
            [
              51.3120438,
              35.6990933
            ],
            [
              51.3120223,
              35.6987684
            ],
            [
              51.3119962,
              35.6986642
            ],
            [
              51.3119326,
              35.6983782
            ],
            [
              51.3118722,
              35.6981123
            ],
            [
              51.3118684,
              35.6980957
            ],
            [
              51.3118649,
              35.6980801
            ],
            [
              51.3118373,
              35.6979621
            ],
            [
              51.3118042,
              35.6978323
            ],
            [
              51.3116495,
              35.6971993
            ],
            [
              51.3115209,
              35.6966877
            ],
            [
              51.3116,
              35.6966811
            ],
            [
              51.311633,
              35.6968353
            ],
            [
              51.3117821,
              35.6975329
            ],
            [
              51.3118406,
              35.6977673
            ],
            [
              51.3119102,
              35.6980408
            ],
            [
              51.3121329,
              35.6989094
            ],
            [
              51.3121927,
              35.6990945
            ],
            [
              51.3159719,
              35.6991659
            ],
            [
              51.3182389,
              35.6992523
            ],
            [
              51.3217084,
              35.6993784
            ],
            [
              51.3254374,
              35.6994641
            ],
            [
              51.3317608,
              35.6996003
            ],
            [
              51.3323366,
              35.6996127
            ],
            [
              51.334337,
              35.6996558
            ],
            [
              51.3344362,
              35.7002439
            ],
            [
              51.3348493,
              35.701015
            ],
            [
              51.3351524,
              35.7012981
            ],
            [
              51.3357773,
              35.7016183
            ],
            [
              51.3360643,
              35.7017332
            ],
            [
              51.3361421,
              35.7017643
            ],
            [
              51.3367188,
              35.7018928
            ],
            [
              51.337806,
              35.7020419
            ],
            [
              51.3390199,
              35.7018362
            ],
            [
              51.3400413,
              35.7015158
            ],
            [
              51.3404785,
              35.7010432
            ],
            [
              51.3407709,
              35.7006577
            ],
            [
              51.3409264,
              35.7003026
            ],
            [
              51.3415233,
              35.6998016
            ],
            [
              51.3473548,
              35.6999622
            ],
            [
              51.3550545,
              35.7001287
            ],
            [
              51.3552188,
              35.6989596
            ],
            [
              51.3552725,
              35.696093
            ],
            [
              51.3554864,
              35.6957483
            ],
            [
              51.3556118,
              35.6953012
            ],
            [
              51.3556702,
              35.6950991
            ],
            [
              51.3557741,
              35.6948275
            ],
            [
              51.3558767,
              35.6946754
            ],
            [
              51.3560972,
              35.6944016
            ],
            [
              51.3562495,
              35.6943296
            ],
            [
              51.3564956,
              35.6943166
            ],
            [
              51.3564097,
              35.6939038
            ],
            [
              51.3563119,
              35.6934757
            ],
            [
              51.3561348,
              35.6926207
            ],
            [
              51.3559632,
              35.6917581
            ],
            [
              51.3556158,
              35.6901199
            ],
            [
              51.3553986,
              35.6890634
            ],
            [
              51.3548756,
              35.6868958
            ],
            [
              51.3546368,
              35.6859764
            ],
            [
              51.3544692,
              35.6852052
            ],
            [
              51.3543981,
              35.6847934
            ],
            [
              51.3543659,
              35.6844601
            ],
            [
              51.3543856,
              35.6839908
            ],
            [
              51.3543842,
              35.6837167
            ],
            [
              51.3543542,
              35.6835849
            ],
            [
              51.3543068,
              35.6833728
            ],
            [
              51.3542568,
              35.6831958
            ],
            [
              51.3542398,
              35.6829733
            ],
            [
              51.354272,
              35.6826159
            ],
            [
              51.354268,
              35.682287
            ],
            [
              51.3543807,
              35.6812978
            ],
            [
              51.3545383,
              35.6799639
            ],
            [
              51.3546592,
              35.6789384
            ],
            [
              51.3546959,
              35.6786267
            ],
            [
              51.3547279,
              35.6782969
            ],
            [
              51.3549386,
              35.6761255
            ],
            [
              51.3542497,
              35.674886
            ],
            [
              51.3530937,
              35.672731
            ],
            [
              51.3522805,
              35.6712207
            ],
            [
              51.3522072,
              35.6710424
            ]
          ]
        ]
      },
      "properties": {
        "id": 6729508,
        "name": "منطقه ۹ شهر تهران"
      }
    }
  ]
}