{
  "type": "FeatureCollection",
  "features": [
    {
      "type": "Feature",
      "geometry": {
        "type": "Polygon",
        "coordinates": [
          [
            [
              51.4632725,
              35.6128743
            ],
            [
              51.4618618,
              35.612417
            ],
            [
              51.4604206,
              35.6119115
            ],
            [
              51.4592037,
              35.6114788
            ],
            [
              51.4580291,
              35.611038
            ],
            [
              51.4573587,
              35.6107472
            ],
            [
              51.4566159,
              35.6102122
            ],
            [
              51.4560426,
              35.6093245
            ],
            [
              51.4559811,
              35.6086498
            ],
            [
              51.4560493,
              35.6083786
            ],
            [
              51.4563202,
              35.6071278
            ],
            [
              51.4560729,
              35.6057014
            ],
            [
              51.4557998,
              35.6040849
            ],
            [
              51.4554265,
              35.6020872
            ],
            [
              51.454877,
              35.5995304
            ],
            [
              51.4549979,
              35.5976677
            ],
            [
              51.4552539,
              35.5968773
            ],
            [
              51.4560186,
              35.5955424
            ],
            [
              51.4564727,
              35.5946908
            ],
            [
              51.457035,
              35.5937439
            ],
            [
              51.457431,
              35.5931164
            ],
            [
              51.4576098,
              35.5929892
            ],
            [
              51.457654,
              35.5929093
            ],
            [
              51.4585531,
              35.5912338
            ],
            [
              51.4596515,
              35.5896914
            ],
            [
              51.4599802,
              35.5891882
            ],
            [
              51.4603246,
              35.5886625
            ],
            [
              51.4608643,
              35.5877973
            ],
            [
              51.4614299,
              35.5869113
            ],
            [
              51.4612567,
              35.58687
            ],
            [
              51.4613101,
              35.5867322
            ],
            [
              51.4614028,
              35.5865296
            ],
            [
              51.4615122,
              35.5863279
            ],
            [
              51.4619445,
              35.5856711
            ],
            [
              51.4620931,
              35.585448
            ],
            [
              51.4622761,
              35.5852328
            ],
            [
              51.4624522,
              35.5850248
            ],
            [
              51.4626131,
              35.5848345
            ],
            [
              51.4627077,
              35.5847054
            ],
            [
              51.4628206,
              35.5845041
            ],
            [
              51.4630828,
              35.5840192
            ],
            [
              51.4634077,
              35.5833756
            ],
            [
              51.4635118,
              35.5831212
            ],
            [
              51.4635362,
              35.5828456
            ],
            [
              51.4636076,
              35.5823521
            ],
            [
              51.4636429,
              35.5822231
            ],
            [
              51.4637096,
              35.5821094
            ],
            [
              51.4638778,
              35.5819628
            ],
            [
              51.4640224,
              35.5817967
            ],
            [
              51.4641755,
              35.5816117
            ],
            [
              51.4642206,
              35.5814134
            ],
            [
              51.4642252,
              35.5810625
            ],
            [
              51.464267,
              35.5807926
            ],
            [
              51.4643157,
              35.5806585
            ],
            [
              51.4643767,
              35.58054
            ],
            [
              51.4644854,
              35.5803556
            ],
            [
              51.4648565,
              35.579685
            ],
            [
              51.4650192,
              35.5793748
            ],
            [
              51.465346,
              35.5788234
            ],
            [
              51.4661554,
              35.5773051
            ],
            [
              51.466296,
              35.5770151
            ],
            [
              51.4665184,
              35.5766678
            ],
            [
              51.4670065,
              35.5759665
            ],
            [
              51.4671736,
              35.5757281
            ],
            [
              51.4674476,
              35.5754017
            ],
            [
              51.4676347,
              35.5751952
            ],
            [
              51.4678887,
              35.5749477
            ],
            [
              51.4680764,
              35.5747498
            ],
            [
              51.4683556,
              35.5743482
            ],
            [
              51.4686916,
              35.5738172
            ],
            [
              51.4688203,
              35.57354
            ],
            [
              51.4689435,
              35.5731362
            ],
            [
              51.4692484,
              35.5724947
            ],
            [
              51.4695392,
              35.5719225
            ],
            [
              51.4700329,
              35.5711753
            ],
            [
              51.4701542,
              35.571034
            ],
            [
              51.4702613,
              35.5709295
            ],
            [
              51.4703542,
              35.5709291
            ],
            [
              51.4705038,
              35.5706789
            ],
            [
              51.4707152,
              35.5707657
            ],
            [
              51.4708873,
              35.5705105
            ],
            [
              51.4710765,
              35.5706329
            ],
            [
              51.4714959,
              35.5702387
            ],
            [
              51.4721365,
              35.5696236
            ],
            [
              51.471861,
              35.5695106
            ],
            [
              51.4719469,
              35.5691254
            ],
            [
              51.470456,
              35.5686146
            ],
            [
              51.4699985,
              35.5685074
            ],
            [
              51.4693234,
              35.5684069
            ],
            [
              51.4685906,
              35.5683444
            ],
            [
              51.4675186,
              35.5682418
            ],
            [
              51.466626,
              35.5682071
            ],
            [
              51.465385,
              35.570549
            ],
            [
              51.4652753,
              35.570765
            ],
            [
              51.4652323,
              35.5708496
            ],
            [
              51.4645873,
              35.5721203
            ],
            [
              51.4644671,
              35.5723875
            ],
            [
              51.4634042,
              35.5730479
            ],
            [
              51.4631078,
              35.5731803
            ],
            [
              51.462753,
              35.5733335
            ],
            [
              51.4621686,
              35.5735388
            ],
            [
              51.4617984,
              35.5736602
            ],
            [
              51.4614082,
              35.573681
            ],
            [
              51.4609975,
              35.5737474
            ],
            [
              51.4607936,
              35.5740229
            ],
            [
              51.4605854,
              35.5745061
            ],
            [
              51.4603676,
              35.575052
            ],
            [
              51.4601848,
              35.5755182
            ],
            [
              51.4599318,
              35.5759136
            ],
            [
              51.458991,
              35.5755852
            ],
            [
              51.4586506,
              35.5760017
            ],
            [
              51.4580752,
              35.5767829
            ],
            [
              51.4579685,
              35.576733
            ],
            [
              51.4564888,
              35.5790689
            ],
            [
              51.451507,
              35.5773747
            ],
            [
              51.4510402,
              35.5772137
            ],
            [
              51.4506614,
              35.5772571
            ],
            [
              51.44858,
              35.5774091
            ],
            [
              51.4487555,
              35.5782193
            ],
            [
              51.4489606,
              35.5790122
            ],
            [
              51.448993,
              35.5792822
            ],
            [
              51.4495936,
              35.5789012
            ],
            [
              51.4506241,
              35.5783913
            ],
            [
              51.4506518,
              35.5784834
            ],
            [
              51.4507933,
              35.5789545
            ],
            [
              51.4509438,
              35.5793052
            ],
            [
              51.4509656,
              35.5794513
            ],
            [
              51.4509811,
              35.5797874
            ],
            [
              51.4511353,
              35.579881
            ],
            [
              51.4512661,
              35.5799623
            ],
            [
              51.4512954,
              35.5800192
            ],
            [
              51.4513047,
              35.5802825
            ],
            [
              51.4512799,
              35.5804461
            ],
            [
              51.45122,
              35.5805799
            ],
            [
              51.4511521,
              35.5807297
            ],
            [
              51.4511003,
              35.5808587
            ],
            [
              51.4510667,
              35.5809603
            ],
            [
              51.4510539,
              35.5810527
            ],
            [
              51.4510605,
              35.5811856
            ],
            [
              51.4510558,
              35.5812803
            ],
            [
              51.4510281,
              35.5814137
            ],
            [
              51.4509615,
              35.5817011
            ],
            [
              51.450819,
              35.5822807
            ],
            [
              51.4505603,
              35.5823539
            ],
            [
              51.4494592,
              35.5820076
            ],
            [
              51.4489394,
              35.5818244
            ],
            [
              51.4488049,
              35.5817506
            ],
            [
              51.4475099,
              35.5810399
            ],
            [
              51.447173,
              35.5809792
            ],
            [
              51.4469567,
              35.5809689
            ],
            [
              51.4467132,
              35.5809572
            ],
            [
              51.4460738,
              35.580966
            ],
            [
              51.4458385,
              35.5809711
            ],
            [
              51.4453394,
              35.5810096
            ],
            [
              51.4435962,
              35.581081
            ],
            [
              51.4426768,
              35.5809932
            ],
            [
              51.4424361,
              35.5809862
            ],
            [
              51.4420315,
              35.5810027
            ],
            [
              51.4419081,
              35.581037
            ],
            [
              51.4405634,
              35.5807267
            ],
            [
              51.4395221,
              35.5804624
            ],
            [
              51.4391614,
              35.5803615
            ],
            [
              51.438603,
              35.5802765
            ],
            [
              51.438412,
              35.5802643
            ],
            [
              51.4375185,
              35.5802845
            ],
            [
              51.4373553,
              35.5802471
            ],
            [
              51.4372109,
              35.5802044
            ],
            [
              51.437022,
              35.5802079
            ],
            [
              51.4368718,
              35.5802169
            ],
            [
              51.4365707,
              35.5803143
            ],
            [
              51.4363346,
              35.5803987
            ],
            [
              51.4361061,
              35.5804904
            ],
            [
              51.4357586,
              35.5806272
            ],
            [
              51.4350823,
              35.580913
            ],
            [
              51.4345102,
              35.5811346
            ],
            [
              51.4338614,
              35.5813948
            ],
            [
              51.4323389,
              35.5819942
            ],
            [
              51.4318254,
              35.5821231
            ],
            [
              51.4313995,
              35.5822288
            ],
            [
              51.4310436,
              35.5823171
            ],
            [
              51.430565,
              35.582431
            ],
            [
              51.4301451,
              35.5824869
            ],
            [
              51.4297615,
              35.5825192
            ],
            [
              51.4294583,
              35.5825249
            ],
            [
              51.4290478,
              35.5824918
            ],
            [
              51.428677,
              35.5824779
            ],
            [
              51.428285,
              35.5824562
            ],
            [
              51.4279627,
              35.5824123
            ],
            [
              51.4275693,
              35.5823042
            ],
            [
              51.427178,
              35.5821481
            ],
            [
              51.4269537,
              35.5820273
            ],
            [
              51.4271889,
              35.5814473
            ],
            [
              51.4284372,
              35.5802601
            ],
            [
              51.42806,
              35.5798504
            ],
            [
              51.4274114,
              35.580019
            ],
            [
              51.4270337,
              35.5802266
            ],
            [
              51.4265492,
              35.5796572
            ],
            [
              51.4260996,
              35.5789929
            ],
            [
              51.4258984,
              35.5787853
            ],
            [
              51.4258115,
              35.5784341
            ],
            [
              51.4256264,
              35.578401
            ],
            [
              51.4256433,
              35.5782991
            ],
            [
              51.425767,
              35.5776839
            ],
            [
              51.4259661,
              35.5766888
            ],
            [
              51.4260413,
              35.5763251
            ],
            [
              51.4260874,
              35.5761002
            ],
            [
              51.426115,
              35.5757491
            ],
            [
              51.4261945,
              35.5753801
            ],
            [
              51.4266666,
              35.5727598
            ],
            [
              51.4262433,
              35.5726637
            ],
            [
              51.4203002,
              35.5713138
            ],
            [
              51.4196764,
              35.573218
            ],
            [
              51.4195982,
              35.573276
            ],
            [
              51.4193617,
              35.5734522
            ],
            [
              51.419535,
              35.5738503
            ],
            [
              51.4186368,
              35.574553
            ],
            [
              51.4181854,
              35.5749062
            ],
            [
              51.4174459,
              35.5754848
            ],
            [
              51.4174552,
              35.5756323
            ],
            [
              51.4175974,
              35.5779007
            ],
            [
              51.4178378,
              35.5783215
            ],
            [
              51.4174892,
              35.5787228
            ],
            [
              51.4174241,
              35.5789284
            ],
            [
              51.4177031,
              35.5791437
            ],
            [
              51.4170637,
              35.5796216
            ],
            [
              51.4170249,
              35.5798002
            ],
            [
              51.4173902,
              35.5800476
            ],
            [
              51.4167774,
              35.5805579
            ],
            [
              51.4165557,
              35.5812019
            ],
            [
              51.4168539,
              35.5812766
            ],
            [
              51.4166317,
              35.5818233
            ],
            [
              51.4162273,
              35.5829492
            ],
            [
              51.4173933,
              35.58321
            ],
            [
              51.4169356,
              35.5846726
            ],
            [
              51.4170067,
              35.5856184
            ],
            [
              51.4170121,
              35.5867797
            ],
            [
              51.4168289,
              35.5871858
            ],
            [
              51.4168228,
              35.5872777
            ],
            [
              51.4169688,
              35.5873637
            ],
            [
              51.4168827,
              35.5886182
            ],
            [
              51.4168972,
              35.5888668
            ],
            [
              51.4169954,
              35.5899423
            ],
            [
              51.4171653,
              35.590135
            ],
            [
              51.4171735,
              35.5903404
            ],
            [
              51.4170235,
              35.5911032
            ],
            [
              51.416503,
              35.5921956
            ],
            [
              51.4155101,
              35.5921626
            ],
            [
              51.4146855,
              35.5939575
            ],
            [
              51.4145358,
              35.5942827
            ],
            [
              51.413792,
              35.5958986
            ],
            [
              51.4138721,
              35.5960281
            ],
            [
              51.4137494,
              35.5962961
            ],
            [
              51.4135732,
              35.5967751
            ],
            [
              51.4133179,
              35.5973395
            ],
            [
              51.4132366,
              35.5975241
            ],
            [
              51.4131462,
              35.5977294
            ],
            [
              51.4130367,
              35.597673
            ],
            [
              51.4129849,
              35.5977356
            ],
            [
              51.4120746,
              35.5988352
            ],
            [
              51.4118161,
              35.5994189
            ],
            [
              51.4114727,
              35.6001941
            ],
            [
              51.4111711,
              35.6007574
            ],
            [
              51.4103917,
              35.6019592
            ],
            [
              51.4101935,
              35.6028897
            ],
            [
              51.4093796,
              35.6032194
            ],
            [
              51.4092423,
              35.603275
            ],
            [
              51.4077011,
              35.6031627
            ],
            [
              51.4076354,
              35.6031579
            ],
            [
              51.4075563,
              35.6035984
            ],
            [
              51.4080176,
              35.6042658
            ],
            [
              51.4075347,
              35.6044834
            ],
            [
              51.4075616,
              35.6046445
            ],
            [
              51.407372,
              35.6047029
            ],
            [
              51.4074101,
              35.604873
            ],
            [
              51.406774,
              35.6050059
            ],
            [
              51.4066257,
              35.6048686
            ],
            [
              51.4061628,
              35.6051288
            ],
            [
              51.40575,
              35.6051811
            ],
            [
              51.4062304,
              35.6071015
            ],
            [
              51.4070218,
              35.6090364
            ],
            [
              51.4073637,
              35.6104534
            ],
            [
              51.4074178,
              35.610738
            ],
            [
              51.4071961,
              35.6107685
            ],
            [
              51.406708,
              35.610655
            ],
            [
              51.4059894,
              35.6107728
            ],
            [
              51.4045735,
              35.6109354
            ],
            [
              51.4033181,
              35.6117057
            ],
            [
              51.4021747,
              35.6123943
            ],
            [
              51.4022015,
              35.612492
            ],
            [
              51.4002501,
              35.6141058
            ],
            [
              51.4032567,
              35.6144292
            ],
            [
              51.4082734,
              35.6144584
            ],
            [
              51.4118783,
              35.614877
            ],
            [
              51.4144729,
              35.6152331
            ],
            [
              51.4167142,
              35.6158778
            ],
            [
              51.4185624,
              35.6167304
            ],
            [
              51.4203997,
              35.617764
            ],
            [
              51.4210251,
              35.6182618
            ],
            [
              51.4245035,
              35.6210301
            ],
            [
              51.4259491,
              35.622201
            ],
            [
              51.4281137,
              35.6236095
            ],
            [
              51.4299188,
              35.6246777
            ],
            [
              51.432888,
              35.6261386
            ],
            [
              51.4349507,
              35.6269779
            ],
            [
              51.4363541,
              35.6274749
            ],
            [
              51.4398678,
              35.6284778
            ],
            [
              51.4423461,
              35.6289618
            ],
            [
              51.4443041,
              35.6292932
            ],
            [
              51.4462465,
              35.6294438
            ],
            [
              51.447957,
              35.6295124
            ],
            [
              51.4502891,
              35.6295415
            ],
            [
              51.4524662,
              35.6295107
            ],
            [
              51.4527825,
              35.6289613
            ],
            [
              51.4531065,
              35.6286098
            ],
            [
              51.4537723,
              35.6283273
            ],
            [
              51.4544701,
              35.6280392
            ],
            [
              51.4553253,
              35.627703
            ],
            [
              51.4563255,
              35.6272794
            ],
            [
              51.457329,
              35.6268689
            ],
            [
              51.4602717,
              35.6251127
            ],
            [
              51.4712177,
              35.6173572
            ],
            [
              51.4699389,
              35.615726
            ],
            [
              51.4688637,
              35.6145651
            ],
            [
              51.4679375,
              35.6142294
            ],
            [
              51.4663778,
              35.6139471
            ],
            [
              51.4644116,
              35.6132537
            ],
            [
              51.4632725,
              35.6128743
            ]
          ]
        ]
      },
      "properties": {
        "id": 6729031,
        "name": "منطقه ۲۰ شهر تهران"
      }
    }
  ]
}