{
  "type": "FeatureCollection",
  "features": [
    {
      "type": "Feature",
      "geometry": {
        "type": "Polygon",
        "coordinates": [
          [
            [
              51.3716691,
              35.794629
            ],
            [
              51.3721097,
              35.7954448
            ],
            [
              51.37268,
              35.7952514
            ],
            [
              51.3727827,
              35.795272
            ],
            [
              51.3729581,
              35.7952279
            ],
            [
              51.3731835,
              35.7950027
            ],
            [
              51.3735097,
              35.794739
            ],
            [
              51.3736107,
              35.7945591
            ],
            [
              51.3737278,
              35.7945134
            ],
            [
              51.3741887,
              35.7942481
            ],
            [
              51.3742022,
              35.7939962
            ],
            [
              51.3742945,
              35.7939654
            ],
            [
              51.3743528,
              35.7939175
            ],
            [
              51.3745937,
              35.7934707
            ],
            [
              51.3747306,
              35.793486
            ],
            [
              51.3750596,
              35.7932977
            ],
            [
              51.3751813,
              35.7932522
            ],
            [
              51.3752073,
              35.7931897
            ],
            [
              51.3754274,
              35.7931296
            ],
            [
              51.3755656,
              35.7930434
            ],
            [
              51.3756036,
              35.7928628
            ],
            [
              51.3760952,
              35.7931498
            ],
            [
              51.3766088,
              35.7935323
            ],
            [
              51.3773369,
              35.7936879
            ],
            [
              51.377481,
              35.7934012
            ],
            [
              51.3778338,
              35.7932466
            ],
            [
              51.3779656,
              35.7933339
            ],
            [
              51.3780512,
              35.7933692
            ],
            [
              51.3781187,
              35.7933881
            ],
            [
              51.378201,
              35.7934522
            ],
            [
              51.3782219,
              35.7935428
            ],
            [
              51.3781342,
              35.7935668
            ],
            [
              51.3781314,
              35.7936004
            ],
            [
              51.3782112,
              35.7937623
            ],
            [
              51.3782508,
              35.7940914
            ],
            [
              51.3784359,
              35.7942101
            ],
            [
              51.378629,
              35.7941928
            ],
            [
              51.3788302,
              35.7942614
            ],
            [
              51.3789298,
              35.7941844
            ],
            [
              51.3790394,
              35.7937483
            ],
            [
              51.3791558,
              35.7935208
            ],
            [
              51.3792952,
              35.7929948
            ],
            [
              51.379577,
              35.7928028
            ],
            [
              51.3799755,
              35.7928693
            ],
            [
              51.3802083,
              35.7931787
            ],
            [
              51.3803107,
              35.7933203
            ],
            [
              51.3805135,
              35.7933343
            ],
            [
              51.380582,
              35.7932279
            ],
            [
              51.3806645,
              35.793058
            ],
            [
              51.3807313,
              35.7929821
            ],
            [
              51.3808715,
              35.792876
            ],
            [
              51.3809824,
              35.7928328
            ],
            [
              51.3810939,
              35.7928491
            ],
            [
              51.3812347,
              35.7928964
            ],
            [
              51.3814536,
              35.7929898
            ],
            [
              51.3823713,
              35.7930168
            ],
            [
              51.3826295,
              35.7931305
            ],
            [
              51.3832717,
              35.7933217
            ],
            [
              51.3834405,
              35.7933821
            ],
            [
              51.3839002,
              35.7937347
            ],
            [
              51.3841733,
              35.7941974
            ],
            [
              51.3841708,
              35.7942738
            ],
            [
              51.3842295,
              35.7943094
            ],
            [
              51.3843383,
              35.7944116
            ],
            [
              51.3845441,
              35.7945708
            ],
            [
              51.3846089,
              35.794666
            ],
            [
              51.3845975,
              35.7947161
            ],
            [
              51.3845566,
              35.7947688
            ],
            [
              51.3844442,
              35.7948065
            ],
            [
              51.3843887,
              35.7948496
            ],
            [
              51.3843687,
              35.7949403
            ],
            [
              51.3843807,
              35.7949975
            ],
            [
              51.3843702,
              35.7950339
            ],
            [
              51.3839966,
              35.7955769
            ],
            [
              51.3842812,
              35.79563
            ],
            [
              51.3844352,
              35.795638
            ],
            [
              51.3846943,
              35.795674
            ],
            [
              51.3847707,
              35.7957215
            ],
            [
              51.3851084,
              35.796241
            ],
            [
              51.3853628,
              35.7964663
            ],
            [
              51.3853089,
              35.7968195
            ],
            [
              51.3852746,
              35.7969962
            ],
            [
              51.3852811,
              35.7971321
            ],
            [
              51.3853054,
              35.7973014
            ],
            [
              51.3855157,
              35.7979086
            ],
            [
              51.3856055,
              35.7982141
            ],
            [
              51.385656,
              35.798369
            ],
            [
              51.3857504,
              35.7985118
            ],
            [
              51.3859417,
              35.7987068
            ],
            [
              51.3861737,
              35.7988444
            ],
            [
              51.3864888,
              35.7983823
            ],
            [
              51.3868971,
              35.797524
            ],
            [
              51.3871969,
              35.7966419
            ],
            [
              51.3870467,
              35.7962068
            ],
            [
              51.3867289,
              35.7958108
            ],
            [
              51.3863561,
              35.7954018
            ],
            [
              51.3860744,
              35.7949928
            ],
            [
              51.3860771,
              35.7947405
            ],
            [
              51.3859993,
              35.7945403
            ],
            [
              51.3858545,
              35.7939703
            ],
            [
              51.3854414,
              35.7933263
            ],
            [
              51.3854549,
              35.7931827
            ],
            [
              51.3853583,
              35.7930348
            ],
            [
              51.3851357,
              35.7927781
            ],
            [
              51.3851115,
              35.7926388
            ],
            [
              51.3856946,
              35.7927564
            ],
            [
              51.3863261,
              35.7928332
            ],
            [
              51.3870562,
              35.7928903
            ],
            [
              51.3874719,
              35.7928847
            ],
            [
              51.387787,
              35.7928651
            ],
            [
              51.3883449,
              35.7927889
            ],
            [
              51.3888841,
              35.7926976
            ],
            [
              51.3893846,
              35.7925525
            ],
            [
              51.3899105,
              35.7923524
            ],
            [
              51.3906235,
              35.7919383
            ],
            [
              51.3910835,
              35.791588
            ],
            [
              51.3915596,
              35.7911071
            ],
            [
              51.3920061,
              35.7904261
            ],
            [
              51.3922542,
              35.7897669
            ],
            [
              51.3919441,
              35.789105
            ],
            [
              51.391869,
              35.7886176
            ],
            [
              51.391869,
              35.7881999
            ],
            [
              51.3921157,
              35.7866855
            ],
            [
              51.3929633,
              35.7829082
            ],
            [
              51.393135,
              35.7820117
            ],
            [
              51.393135,
              35.7811588
            ],
            [
              51.3930062,
              35.7801752
            ],
            [
              51.3925127,
              35.779183
            ],
            [
              51.391751,
              35.777947
            ],
            [
              51.3909002,
              35.7766694
            ],
            [
              51.3904183,
              35.7759897
            ],
            [
              51.3901094,
              35.7754924
            ],
            [
              51.3895945,
              35.7747177
            ],
            [
              51.3887254,
              35.7733859
            ],
            [
              51.3880173,
              35.7721933
            ],
            [
              51.3877276,
              35.7714621
            ],
            [
              51.3875131,
              35.7706264
            ],
            [
              51.3873843,
              35.7698778
            ],
            [
              51.3873414,
              35.7691466
            ],
            [
              51.3874111,
              35.7683457
            ],
            [
              51.3875769,
              35.7669191
            ],
            [
              51.3878259,
              35.765619
            ],
            [
              51.3879771,
              35.7648567
            ],
            [
              51.3882373,
              35.763401
            ],
            [
              51.388484,
              35.7620167
            ],
            [
              51.3886354,
              35.7608515
            ],
            [
              51.388602,
              35.7601014
            ],
            [
              51.3884378,
              35.7594034
            ],
            [
              51.3882492,
              35.7589259
            ],
            [
              51.3879583,
              35.7582949
            ],
            [
              51.3872976,
              35.7570062
            ],
            [
              51.3871332,
              35.7566855
            ],
            [
              51.3870946,
              35.7566102
            ],
            [
              51.3868831,
              35.7561215
            ],
            [
              51.3867299,
              35.7558483
            ],
            [
              51.3864008,
              35.7549915
            ],
            [
              51.3862697,
              35.7542636
            ],
            [
              51.3862173,
              35.7535442
            ],
            [
              51.3862064,
              35.7532622
            ],
            [
              51.3861776,
              35.7527314
            ],
            [
              51.3861044,
              35.7515633
            ],
            [
              51.3861156,
              35.7512163
            ],
            [
              51.3860821,
              35.7503086
            ],
            [
              51.3860112,
              35.7491489
            ],
            [
              51.385932,
              35.7478532
            ],
            [
              51.3856101,
              35.7463904
            ],
            [
              51.3853002,
              35.7458356
            ],
            [
              51.3846482,
              35.7445115
            ],
            [
              51.3845104,
              35.7442209
            ],
            [
              51.3841653,
              35.7434695
            ],
            [
              51.3840677,
              35.7432611
            ],
            [
              51.3839342,
              35.7429496
            ],
            [
              51.3838476,
              35.742695
            ],
            [
              51.3837555,
              35.7423783
            ],
            [
              51.3837555,
              35.7418451
            ],
            [
              51.3836326,
              35.7411829
            ],
            [
              51.3835199,
              35.740532
            ],
            [
              51.3834627,
              35.7395005
            ],
            [
              51.383454,
              35.7387172
            ],
            [
              51.3834476,
              35.7378781
            ],
            [
              51.3834077,
              35.7359601
            ],
            [
              51.3833644,
              35.7350054
            ],
            [
              51.3833324,
              35.7342505
            ],
            [
              51.3833765,
              35.7328357
            ],
            [
              51.3833635,
              35.7315203
            ],
            [
              51.3833644,
              35.7306714
            ],
            [
              51.383361,
              35.7305619
            ],
            [
              51.3833322,
              35.729635
            ],
            [
              51.3832976,
              35.7291508
            ],
            [
              51.3832893,
              35.729034
            ],
            [
              51.3832142,
              35.7285985
            ],
            [
              51.3829781,
              35.7277189
            ],
            [
              51.3824631,
              35.7265518
            ],
            [
              51.3819001,
              35.7257794
            ],
            [
              51.3816613,
              35.7254058
            ],
            [
              51.381401,
              35.7249666
            ],
            [
              51.3806392,
              35.7238168
            ],
            [
              51.3800062,
              35.7228587
            ],
            [
              51.3795985,
              35.7221706
            ],
            [
              51.3792552,
              35.7214302
            ],
            [
              51.3786973,
              35.7201846
            ],
            [
              51.3784548,
              35.7195016
            ],
            [
              51.3783663,
              35.7192178
            ],
            [
              51.3782038,
              35.718216
            ],
            [
              51.3780321,
              35.7166568
            ],
            [
              51.3779999,
              35.7143048
            ],
            [
              51.3779904,
              35.7140336
            ],
            [
              51.3779248,
              35.7121619
            ],
            [
              51.3779215,
              35.7119833
            ],
            [
              51.3778337,
              35.7104768
            ],
            [
              51.3778261,
              35.7103469
            ],
            [
              51.3778283,
              35.7068913
            ],
            [
              51.3778068,
              35.7065341
            ],
            [
              51.377614,
              35.7055993
            ],
            [
              51.3776381,
              35.7052632
            ],
            [
              51.3778927,
              35.7027443
            ],
            [
              51.3779284,
              35.7023994
            ],
            [
              51.3781086,
              35.7006576
            ],
            [
              51.3654359,
              35.7003686
            ],
            [
              51.3629971,
              35.7003084
            ],
            [
              51.3598985,
              35.700234
            ],
            [
              51.3550545,
              35.7001287
            ],
            [
              51.3473548,
              35.6999622
            ],
            [
              51.3415233,
              35.6998016
            ],
            [
              51.3409264,
              35.7003026
            ],
            [
              51.3407709,
              35.7006577
            ],
            [
              51.3404785,
              35.7010432
            ],
            [
              51.3400413,
              35.7015158
            ],
            [
              51.3390199,
              35.7018362
            ],
            [
              51.337806,
              35.7020419
            ],
            [
              51.3377633,
              35.7021195
            ],
            [
              51.3376747,
              35.7026113
            ],
            [
              51.337603,
              35.7034656
            ],
            [
              51.3373805,
              35.7053436
            ],
            [
              51.3370601,
              35.7075518
            ],
            [
              51.3369039,
              35.7086586
            ],
            [
              51.3367387,
              35.7097501
            ],
            [
              51.3364396,
              35.7110294
            ],
            [
              51.3363385,
              35.711496
            ],
            [
              51.336124,
              35.7123579
            ],
            [
              51.3360311,
              35.7126904
            ],
            [
              51.3358898,
              35.7132784
            ],
            [
              51.3357748,
              35.7137442
            ],
            [
              51.3357335,
              35.7145821
            ],
            [
              51.3357922,
              35.7151164
            ],
            [
              51.3358969,
              35.7157914
            ],
            [
              51.3359506,
              35.7161708
            ],
            [
              51.3359108,
              35.7171887
            ],
            [
              51.3359042,
              35.7175571
            ],
            [
              51.3359004,
              35.7176479
            ],
            [
              51.3359004,
              35.717649
            ],
            [
              51.3358916,
              35.7178589
            ],
            [
              51.3358379,
              35.7182194
            ],
            [
              51.3357547,
              35.7190894
            ],
            [
              51.335625,
              35.7201631
            ],
            [
              51.3355974,
              35.7204035
            ],
            [
              51.3355132,
              35.7207675
            ],
            [
              51.335459,
              35.7210461
            ],
            [
              51.3353824,
              35.7213645
            ],
            [
              51.3353942,
              35.7217023
            ],
            [
              51.3353082,
              35.7218734
            ],
            [
              51.3352696,
              35.7219789
            ],
            [
              51.3352626,
              35.7221365
            ],
            [
              51.3352524,
              35.722334
            ],
            [
              51.3352388,
              35.7225364
            ],
            [
              51.3352168,
              35.7229064
            ],
            [
              51.3351215,
              35.7240704
            ],
            [
              51.3349466,
              35.7254819
            ],
            [
              51.3347321,
              35.7266557
            ],
            [
              51.3344308,
              35.7283046
            ],
            [
              51.3343643,
              35.7290123
            ],
            [
              51.3340701,
              35.7314302
            ],
            [
              51.333949,
              35.732389
            ],
            [
              51.3335693,
              35.7357482
            ],
            [
              51.333334,
              35.7372547
            ],
            [
              51.3332232,
              35.7382267
            ],
            [
              51.3329941,
              35.7402366
            ],
            [
              51.3329304,
              35.7405696
            ],
            [
              51.3328679,
              35.7409331
            ],
            [
              51.3325577,
              35.74339
            ],
            [
              51.3322349,
              35.7461914
            ],
            [
              51.3319354,
              35.748704
            ],
            [
              51.3317903,
              35.7498313
            ],
            [
              51.331781,
              35.7503793
            ],
            [
              51.3318336,
              35.7508234
            ],
            [
              51.3319102,
              35.7511188
            ],
            [
              51.3319917,
              35.7514331
            ],
            [
              51.3321631,
              35.7518461
            ],
            [
              51.3328711,
              35.7536394
            ],
            [
              51.3342386,
              35.7572849
            ],
            [
              51.3359852,
              35.7620936
            ],
            [
              51.3364972,
              35.7634583
            ],
            [
              51.3370688,
              35.7649817
            ],
            [
              51.3373453,
              35.7658075
            ],
            [
              51.3374012,
              35.7662959
            ],
            [
              51.3375402,
              35.768609
            ],
            [
              51.3374717,
              35.7692201
            ],
            [
              51.33735,
              35.7697732
            ],
            [
              51.3371811,
              35.7704071
            ],
            [
              51.3371358,
              35.7705773
            ],
            [
              51.3368877,
              35.7715088
            ],
            [
              51.3368847,
              35.7715202
            ],
            [
              51.3367408,
              35.7725423
            ],
            [
              51.3366915,
              35.7728925
            ],
            [
              51.3366329,
              35.773309
            ],
            [
              51.3363575,
              35.7749789
            ],
            [
              51.3363361,
              35.7750715
            ],
            [
              51.3362834,
              35.7755052
            ],
            [
              51.3362616,
              35.7757125
            ],
            [
              51.3362339,
              35.7758504
            ],
            [
              51.3360473,
              35.7772153
            ],
            [
              51.3358869,
              35.7783696
            ],
            [
              51.3361234,
              35.7785036
            ],
            [
              51.3365717,
              35.7787604
            ],
            [
              51.3369625,
              35.7789354
            ],
            [
              51.3374012,
              35.7790008
            ],
            [
              51.3377665,
              35.7790688
            ],
            [
              51.3380805,
              35.7791913
            ],
            [
              51.3382698,
              35.7793517
            ],
            [
              51.338562,
              35.7794455
            ],
            [
              51.3390256,
              35.7796324
            ],
            [
              51.3402096,
              35.7801142
            ],
            [
              51.3404325,
              35.780417
            ],
            [
              51.3408418,
              35.7813911
            ],
            [
              51.3411679,
              35.7819923
            ],
            [
              51.3414718,
              35.7826077
            ],
            [
              51.3416216,
              35.7832984
            ],
            [
              51.3416477,
              35.7838969
            ],
            [
              51.3415948,
              35.7845818
            ],
            [
              51.3416517,
              35.7850292
            ],
            [
              51.3416452,
              35.7854015
            ],
            [
              51.3416773,
              35.7856769
            ],
            [
              51.3415162,
              35.7863944
            ],
            [
              51.3414022,
              35.7866724
            ],
            [
              51.3413063,
              35.7869606
            ],
            [
              51.3412022,
              35.7873336
            ],
            [
              51.3409248,
              35.7878329
            ],
            [
              51.340756,
              35.7881105
            ],
            [
              51.3406826,
              35.7882002
            ],
            [
              51.3405735,
              35.7883117
            ],
            [
              51.3404971,
              35.7885155
            ],
            [
              51.3404517,
              35.7888863
            ],
            [
              51.3405213,
              35.7894449
            ],
            [
              51.3407466,
              35.7902068
            ],
            [
              51.3402313,
              35.7912605
            ],
            [
              51.3403566,
              35.791748
            ],
            [
              51.3405928,
              35.7926566
            ],
            [
              51.3407769,
              35.7933506
            ],
            [
              51.3405666,
              35.794281
            ],
            [
              51.3414551,
              35.7952737
            ],
            [
              51.3415845,
              35.7958989
            ],
            [
              51.3410521,
              35.7966526
            ],
            [
              51.3409633,
              35.7968382
            ],
            [
              51.3410334,
              35.7971981
            ],
            [
              51.3411289,
              35.7976503
            ],
            [
              51.3411735,
              35.7977738
            ],
            [
              51.3417441,
              35.7986813
            ],
            [
              51.3418167,
              35.7985332
            ],
            [
              51.3419139,
              35.7983633
            ],
            [
              51.3428473,
              35.7985988
            ],
            [
              51.3428986,
              35.7985813
            ],
            [
              51.3429588,
              35.798244
            ],
            [
              51.3429949,
              35.7978437
            ],
            [
              51.3429841,
              35.7973379
            ],
            [
              51.3429203,
              35.7968323
            ],
            [
              51.3422353,
              35.7967424
            ],
            [
              51.3422767,
              35.7964877
            ],
            [
              51.3423596,
              35.7961746
            ],
            [
              51.3424092,
              35.796105
            ],
            [
              51.3425573,
              35.7960941
            ],
            [
              51.3427765,
              35.7961434
            ],
            [
              51.3430473,
              35.7962839
            ],
            [
              51.3431375,
              35.7963614
            ],
            [
              51.3433628,
              35.7966041
            ],
            [
              51.3435104,
              35.7965153
            ],
            [
              51.3436549,
              35.7964885
            ],
            [
              51.3440076,
              35.7963925
            ],
            [
              51.3443292,
              35.7962515
            ],
            [
              51.3443956,
              35.7961401
            ],
            [
              51.3444175,
              35.7959589
            ],
            [
              51.3443861,
              35.7958625
            ],
            [
              51.3443275,
              35.7957719
            ],
            [
              51.3442187,
              35.7956558
            ],
            [
              51.3442108,
              35.7955871
            ],
            [
              51.3442411,
              35.7954113
            ],
            [
              51.3442104,
              35.7952821
            ],
            [
              51.3442755,
              35.7951743
            ],
            [
              51.3443698,
              35.7950006
            ],
            [
              51.3447014,
              35.7949283
            ],
            [
              51.345566,
              35.7951212
            ],
            [
              51.3461839,
              35.7954209
            ],
            [
              51.3462532,
              35.7953953
            ],
            [
              51.3464289,
              35.7952375
            ],
            [
              51.3462103,
              35.7951866
            ],
            [
              51.3457354,
              35.7948336
            ],
            [
              51.3457207,
              35.794714
            ],
            [
              51.3456634,
              35.7946062
            ],
            [
              51.3456983,
              35.7944595
            ],
            [
              51.345178,
              35.793731
            ],
            [
              51.344949,
              35.7935957
            ],
            [
              51.3447811,
              35.7934468
            ],
            [
              51.344684,
              35.7932458
            ],
            [
              51.3446215,
              35.7930217
            ],
            [
              51.3452071,
              35.7931493
            ],
            [
              51.3471224,
              35.793168
            ],
            [
              51.3474992,
              35.7931564
            ],
            [
              51.3480386,
              35.7931235
            ],
            [
              51.3485098,
              35.7931674
            ],
            [
              51.3486613,
              35.7932308
            ],
            [
              51.3489344,
              35.7934113
            ],
            [
              51.3490725,
              35.7935135
            ],
            [
              51.3489444,
              35.7936302
            ],
            [
              51.3490336,
              35.7937103
            ],
            [
              51.3491404,
              35.7936342
            ],
            [
              51.3492271,
              35.7936454
            ],
            [
              51.3493123,
              35.7937262
            ],
            [
              51.3493763,
              35.7937748
            ],
            [
              51.3494826,
              35.7938236
            ],
            [
              51.3495424,
              35.794112
            ],
            [
              51.3496836,
              35.7942595
            ],
            [
              51.3500157,
              35.7942694
            ],
            [
              51.35002,
              35.7943996
            ],
            [
              51.3500695,
              35.7945173
            ],
            [
              51.3501487,
              35.7945433
            ],
            [
              51.3503215,
              35.7945524
            ],
            [
              51.3504003,
              35.7945044
            ],
            [
              51.3504387,
              35.7945854
            ],
            [
              51.3505477,
              35.7947235
            ],
            [
              51.3506006,
              35.794771
            ],
            [
              51.3506582,
              35.7948101
            ],
            [
              51.3507608,
              35.7948279
            ],
            [
              51.3509334,
              35.7948165
            ],
            [
              51.3510093,
              35.7947638
            ],
            [
              51.3510617,
              35.7946801
            ],
            [
              51.3511021,
              35.7945655
            ],
            [
              51.3511424,
              35.7944008
            ],
            [
              51.3513797,
              35.7944359
            ],
            [
              51.3515351,
              35.7944831
            ],
            [
              51.3516467,
              35.7945448
            ],
            [
              51.3517408,
              35.7946471
            ],
            [
              51.3518586,
              35.7947852
            ],
            [
              51.3520058,
              35.794978
            ],
            [
              51.352147,
              35.7951326
            ],
            [
              51.3523468,
              35.7952871
            ],
            [
              51.3524141,
              35.7952678
            ],
            [
              51.3525636,
              35.7953127
            ],
            [
              51.3527627,
              35.7952954
            ],
            [
              51.3531486,
              35.7951631
            ],
            [
              51.3531131,
              35.795094
            ],
            [
              51.353321,
              35.7950862
            ],
            [
              51.3535758,
              35.795095
            ],
            [
              51.3539323,
              35.7950722
            ],
            [
              51.3541766,
              35.7950484
            ],
            [
              51.3543894,
              35.7948966
            ],
            [
              51.3544986,
              35.7948793
            ],
            [
              51.3551004,
              35.7952337
            ],
            [
              51.3555113,
              35.7958538
            ],
            [
              51.3561929,
              35.7962883
            ],
            [
              51.3573648,
              35.7967857
            ],
            [
              51.3584045,
              35.7981479
            ],
            [
              51.3590112,
              35.7990603
            ],
            [
              51.359321,
              35.7997357
            ],
            [
              51.3594738,
              35.8003693
            ],
            [
              51.3593444,
              35.8008601
            ],
            [
              51.3592797,
              35.8012011
            ],
            [
              51.3593585,
              35.8013663
            ],
            [
              51.3594113,
              35.8015358
            ],
            [
              51.3595345,
              35.8016575
            ],
            [
              51.3591541,
              35.8023127
            ],
            [
              51.3591696,
              35.8026387
            ],
            [
              51.3592302,
              35.8029392
            ],
            [
              51.3594703,
              35.8033562
            ],
            [
              51.3596585,
              35.8036421
            ],
            [
              51.360325,
              35.8035785
            ],
            [
              51.3613404,
              35.8037497
            ],
            [
              51.3616058,
              35.8037039
            ],
            [
              51.3617372,
              35.803397
            ],
            [
              51.3616629,
              35.8032741
            ],
            [
              51.3617529,
              35.8027781
            ],
            [
              51.3620599,
              35.8018142
            ],
            [
              51.3624664,
              35.80095
            ],
            [
              51.3629445,
              35.8003743
            ],
            [
              51.3634318,
              35.799819
            ],
            [
              51.3636973,
              35.7996207
            ],
            [
              51.363868,
              35.7995234
            ],
            [
              51.3644501,
              35.799536
            ],
            [
              51.3646312,
              35.7994304
            ],
            [
              51.364704,
              35.799342
            ],
            [
              51.364808,
              35.7991643
            ],
            [
              51.3651319,
              35.7987824
            ],
            [
              51.3656041,
              35.7980192
            ],
            [
              51.3659648,
              35.7982646
            ],
            [
              51.3665071,
              35.7979147
            ],
            [
              51.36673,
              35.7973439
            ],
            [
              51.3668348,
              35.7972243
            ],
            [
              51.3673097,
              35.7968133
            ],
            [
              51.3681511,
              35.7961695
            ],
            [
              51.3685563,
              35.7959022
            ],
            [
              51.3690498,
              35.7956025
            ],
            [
              51.3695362,
              35.7954404
            ],
            [
              51.3699007,
              35.7952825
            ],
            [
              51.3701723,
              35.795203
            ],
            [
              51.3701516,
              35.7951458
            ],
            [
              51.3704265,
              35.7950877
            ],
            [
              51.3707881,
              35.7950196
            ],
            [
              51.3710232,
              35.7949499
            ],
            [
              51.371225,
              35.7948825
            ],
            [
              51.3714061,
              35.7947985
            ],
            [
              51.371645,
              35.7946771
            ],
            [
              51.3716691,
              35.794629
            ]
          ]
        ]
      },
      "properties": {
        "id": 6728896,
        "name": "منطقه ۲ شهر تهران"
      }
    }
  ]
}