{
  "type": "FeatureCollection",
  "features": [
    {
      "type": "Feature",
      "geometry": {
        "type": "Polygon",
        "coordinates": [
          [
            [
              51.3781086,
              35.7006576
            ],
            [
              51.378278,
              35.6988198
            ],
            [
              51.3784157,
              35.6979023
            ],
            [
              51.3784935,
              35.6972009
            ],
            [
              51.3784452,
              35.6969917
            ],
            [
              51.3784774,
              35.6967281
            ],
            [
              51.3785042,
              35.6964472
            ],
            [
              51.3785471,
              35.696153
            ],
            [
              51.3786611,
              35.695236
            ],
            [
              51.3790191,
              35.693001
            ],
            [
              51.3792264,
              35.6913935
            ],
            [
              51.3792928,
              35.6907099
            ],
            [
              51.379435,
              35.6892781
            ],
            [
              51.379621,
              35.687854
            ],
            [
              51.3796817,
              35.6866857
            ],
            [
              51.3798345,
              35.6850844
            ],
            [
              51.3800867,
              35.6826291
            ],
            [
              51.3801424,
              35.6818237
            ],
            [
              51.380194,
              35.6810779
            ],
            [
              51.380312,
              35.6804831
            ],
            [
              51.3806232,
              35.6790909
            ],
            [
              51.3806821,
              35.6782064
            ],
            [
              51.3807463,
              35.677348
            ],
            [
              51.3807653,
              35.6770429
            ],
            [
              51.3808913,
              35.6758272
            ],
            [
              51.3810523,
              35.6750318
            ],
            [
              51.3812722,
              35.6737354
            ],
            [
              51.3813822,
              35.6725719
            ],
            [
              51.3815441,
              35.6708457
            ],
            [
              51.380346,
              35.6703159
            ],
            [
              51.3762262,
              35.6686598
            ],
            [
              51.3757541,
              35.6684855
            ],
            [
              51.3742566,
              35.6681343
            ],
            [
              51.3735428,
              35.6679674
            ],
            [
              51.3724314,
              35.6676632
            ],
            [
              51.3714779,
              35.6674281
            ],
            [
              51.3699311,
              35.6671148
            ],
            [
              51.368893,
              35.6670146
            ],
            [
              51.3683029,
              35.6670364
            ],
            [
              51.3670262,
              35.667202
            ],
            [
              51.365559,
              35.6674221
            ],
            [
              51.3631183,
              35.6677621
            ],
            [
              51.3589125,
              35.66871
            ],
            [
              51.357499,
              35.6690411
            ],
            [
              51.3569685,
              35.6692227
            ],
            [
              51.3557166,
              35.6696513
            ],
            [
              51.3529767,
              35.670621
            ],
            [
              51.3527381,
              35.6706536
            ],
            [
              51.3524592,
              35.670658
            ],
            [
              51.3524897,
              35.670822
            ],
            [
              51.3522993,
              35.6708929
            ],
            [
              51.3522072,
              35.6710424
            ],
            [
              51.3522805,
              35.6712207
            ],
            [
              51.3530937,
              35.672731
            ],
            [
              51.3542497,
              35.674886
            ],
            [
              51.3549386,
              35.6761255
            ],
            [
              51.3547279,
              35.6782969
            ],
            [
              51.3546959,
              35.6786267
            ],
            [
              51.3546592,
              35.6789384
            ],
            [
              51.3545383,
              35.6799639
            ],
            [
              51.3543807,
              35.6812978
            ],
            [
              51.354268,
              35.682287
            ],
            [
              51.354272,
              35.6826159
            ],
            [
              51.3542398,
              35.6829733
            ],
            [
              51.3542568,
              35.6831958
            ],
            [
              51.3543068,
              35.6833728
            ],
            [
              51.3543542,
              35.6835849
            ],
            [
              51.3543842,
              35.6837167
            ],
            [
              51.3543856,
              35.6839908
            ],
            [
              51.3543659,
              35.6844601
            ],
            [
              51.3543981,
              35.6847934
            ],
            [
              51.3544692,
              35.6852052
            ],
            [
              51.3546368,
              35.6859764
            ],
            [
              51.3548756,
              35.6868958
            ],
            [
              51.3553986,
              35.6890634
            ],
            [
              51.3556158,
              35.6901199
            ],
            [
              51.3559632,
              35.6917581
            ],
            [
              51.3561348,
              35.6926207
            ],
            [
              51.3563119,
              35.6934757
            ],
            [
              51.3564097,
              35.6939038
            ],
            [
              51.3564956,
              35.6943166
            ],
            [
              51.3562495,
              35.6943296
            ],
            [
              51.3560972,
              35.6944016
            ],
            [
              51.3558767,
              35.6946754
            ],
            [
              51.3557741,
              35.6948275
            ],
            [
              51.3556702,
              35.6950991
            ],
            [
              51.3556118,
              35.6953012
            ],
            [
              51.3554864,
              35.6957483
            ],
            [
              51.3552725,
              35.696093
            ],
            [
              51.3552188,
              35.6989596
            ],
            [
              51.3550545,
              35.7001287
            ],
            [
              51.3598985,
              35.700234
            ],
            [
              51.3629971,
              35.7003084
            ],
            [
              51.3654359,
              35.7003686
            ],
            [
              51.3781086,
              35.7006576
            ]
          ]
        ]
      },
      "properties": {
        "id": 6729501,
        "name": "منطقه ۱۰ شهر تهران"
      }
    }
  ]
}