{
  "type": "FeatureCollection",
  "features": [
    {
      "type": "Feature",
      "geometry": {
        "type": "Polygon",
        "coordinates": [
          [
            [
              51.3821896,
              35.6594864
            ],
            [
              51.3822352,
              35.6582376
            ],
            [
              51.3822754,
              35.6572046
            ],
            [
              51.3822137,
              35.6567905
            ],
            [
              51.3820957,
              35.6553849
            ],
            [
              51.3816424,
              35.6551146
            ],
            [
              51.3811272,
              35.6547472
            ],
            [
              51.3806232,
              35.6545544
            ],
            [
              51.3790514,
              35.6542864
            ],
            [
              51.3769592,
              35.6539203
            ],
            [
              51.3754867,
              35.653358
            ],
            [
              51.3742717,
              35.6526975
            ],
            [
              51.3736359,
              35.6521855
            ],
            [
              51.3725229,
              35.651124
            ],
            [
              51.3719676,
              35.6503764
            ],
            [
              51.3712488,
              35.6489314
            ],
            [
              51.3707258,
              35.6474754
            ],
            [
              51.3701016,
              35.6459865
            ],
            [
              51.3698355,
              35.6455167
            ],
            [
              51.3695684,
              35.6451236
            ],
            [
              51.3688388,
              35.6443127
            ],
            [
              51.3666891,
              35.6425101
            ],
            [
              51.3649161,
              35.641078
            ],
            [
              51.3641912,
              35.6405718
            ],
            [
              51.3636754,
              35.6402437
            ],
            [
              51.3632747,
              35.6400316
            ],
            [
              51.3617565,
              35.6393516
            ],
            [
              51.3598789,
              35.6384818
            ],
            [
              51.3592888,
              35.6382094
            ],
            [
              51.3577869,
              35.6372753
            ],
            [
              51.356563,
              35.6366579
            ],
            [
              51.3554846,
              35.6371274
            ],
            [
              51.3548462,
              35.637668
            ],
            [
              51.3544413,
              35.6383175
            ],
            [
              51.3539772,
              35.6393072
            ],
            [
              51.3531591,
              35.6412232
            ],
            [
              51.3526174,
              35.6424745
            ],
            [
              51.3520725,
              35.6438359
            ],
            [
              51.3511743,
              35.6460862
            ],
            [
              51.3505923,
              35.6474529
            ],
            [
              51.3495463,
              35.6501271
            ],
            [
              51.3484706,
              35.652627
            ],
            [
              51.3473363,
              35.6553642
            ],
            [
              51.346636,
              35.657097
            ],
            [
              51.3459923,
              35.6586813
            ],
            [
              51.3458264,
              35.6590526
            ],
            [
              51.3452923,
              35.6602483
            ],
            [
              51.3450208,
              35.6610672
            ],
            [
              51.3449167,
              35.6613924
            ],
            [
              51.3448336,
              35.6616212
            ],
            [
              51.3444447,
              35.6625692
            ],
            [
              51.3442622,
              35.6629113
            ],
            [
              51.344206,
              35.6630682
            ],
            [
              51.3441068,
              35.6633232
            ],
            [
              51.3440263,
              35.663491
            ],
            [
              51.3439726,
              35.6637394
            ],
            [
              51.343868,
              35.6643626
            ],
            [
              51.3439485,
              35.6647614
            ],
            [
              51.3441791,
              35.6655132
            ],
            [
              51.3442489,
              35.6658575
            ],
            [
              51.3443803,
              35.6662825
            ],
            [
              51.3445278,
              35.6666899
            ],
            [
              51.3446673,
              35.666995
            ],
            [
              51.3449338,
              35.6671658
            ],
            [
              51.3450347,
              35.6672304
            ],
            [
              51.3453272,
              35.6673937
            ],
            [
              51.3460515,
              35.6674771
            ],
            [
              51.3465395,
              35.667701
            ],
            [
              51.3474085,
              35.6681368
            ],
            [
              51.3496079,
              35.6691741
            ],
            [
              51.3524592,
              35.670658
            ],
            [
              51.3527381,
              35.6706536
            ],
            [
              51.3529767,
              35.670621
            ],
            [
              51.3557166,
              35.6696513
            ],
            [
              51.3569685,
              35.6692227
            ],
            [
              51.357499,
              35.6690411
            ],
            [
              51.3589125,
              35.66871
            ],
            [
              51.3631183,
              35.6677621
            ],
            [
              51.365559,
              35.6674221
            ],
            [
              51.3670262,
              35.667202
            ],
            [
              51.3683029,
              35.6670364
            ],
            [
              51.368893,
              35.6670146
            ],
            [
              51.3699311,
              35.6671148
            ],
            [
              51.3714779,
              35.6674281
            ],
            [
              51.3724314,
              35.6676632
            ],
            [
              51.3735428,
              35.6679674
            ],
            [
              51.3742566,
              35.6681343
            ],
            [
              51.3757541,
              35.6684855
            ],
            [
              51.3762262,
              35.6686598
            ],
            [
              51.380346,
              35.6703159
            ],
            [
              51.3815441,
              35.6708457
            ],
            [
              51.381578,
              35.6703733
            ],
            [
              51.381586,
              35.6697907
            ],
            [
              51.3816667,
              35.6681106
            ],
            [
              51.3819079,
              35.6643787
            ],
            [
              51.3819723,
              35.6637336
            ],
            [
              51.3819804,
              35.6635353
            ],
            [
              51.3820367,
              35.6628772
            ],
            [
              51.3821091,
              35.6614302
            ],
            [
              51.3821896,
              35.6594864
            ]
          ]
        ]
      },
      "properties": {
        "id": 6729502,
        "name": "منطقه ۱۷ شهر تهران"
      }
    }
  ]
}