{
  "type": "FeatureCollection",
  "features": [
    {
      "type": "Feature",
      "geometry": {
        "type": "Polygon",
        "coordinates": [
          [
            [
              51.4456059,
              35.6654069
            ],
            [
              51.4471936,
              35.6652755
            ],
            [
              51.4497732,
              35.6649562
            ],
            [
              51.4502023,
              35.6648254
            ],
            [
              51.450592,
              35.664588
            ],
            [
              51.4515227,
              35.66398
            ],
            [
              51.4531669,
              35.6627815
            ],
            [
              51.4543853,
              35.6619456
            ],
            [
              51.4550592,
              35.6615055
            ],
            [
              51.4557552,
              35.6611046
            ],
            [
              51.4568435,
              35.6603482
            ],
            [
              51.4574657,
              35.6601663
            ],
            [
              51.4588699,
              35.6597707
            ],
            [
              51.460278,
              35.6593534
            ],
            [
              51.4609633,
              35.6589372
            ],
            [
              51.4614408,
              35.6585907
            ],
            [
              51.4623725,
              35.65881
            ],
            [
              51.4634885,
              35.6590932
            ],
            [
              51.4654748,
              35.6596956
            ],
            [
              51.4658289,
              35.6597501
            ],
            [
              51.466203,
              35.6597326
            ],
            [
              51.4680221,
              35.659254
            ],
            [
              51.4686681,
              35.6590351
            ],
            [
              51.4692773,
              35.6589384
            ],
            [
              51.4699881,
              35.6588369
            ],
            [
              51.47948,
              35.6574814
            ],
            [
              51.4870158,
              35.656432
            ],
            [
              51.4871639,
              35.6564114
            ],
            [
              51.4882087,
              35.6562937
            ],
            [
              51.488835,
              35.6577336
            ],
            [
              51.4891937,
              35.6585027
            ],
            [
              51.4896683,
              35.659905
            ],
            [
              51.489716,
              35.6600458
            ],
            [
              51.4900623,
              35.6610576
            ],
            [
              51.4901548,
              35.6613279
            ],
            [
              51.4902682,
              35.661622
            ],
            [
              51.4905531,
              35.6623607
            ],
            [
              51.4907242,
              35.6628641
            ],
            [
              51.5018805,
              35.6603188
            ],
            [
              51.5014909,
              35.6596521
            ],
            [
              51.4976828,
              35.6485586
            ],
            [
              51.497553,
              35.6481655
            ],
            [
              51.4973576,
              35.6475736
            ],
            [
              51.4971203,
              35.6465252
            ],
            [
              51.4981039,
              35.6458472
            ],
            [
              51.498448,
              35.6455779
            ],
            [
              51.4992626,
              35.6449405
            ],
            [
              51.4999593,
              35.6448287
            ],
            [
              51.5016296,
              35.6445607
            ],
            [
              51.5015298,
              35.6438448
            ],
            [
              51.5013438,
              35.6427574
            ],
            [
              51.5011208,
              35.6412901
            ],
            [
              51.5010882,
              35.6408551
            ],
            [
              51.5014026,
              35.6392403
            ],
            [
              51.5019864,
              35.637114
            ],
            [
              51.5040164,
              35.637417
            ],
            [
              51.5043201,
              35.6374464
            ],
            [
              51.5045775,
              35.6374611
            ],
            [
              51.5061827,
              35.6377127
            ],
            [
              51.506424,
              35.6377258
            ],
            [
              51.5078818,
              35.6379139
            ],
            [
              51.5112172,
              35.6371804
            ],
            [
              51.5112681,
              35.6360321
            ],
            [
              51.5120614,
              35.6359813
            ],
            [
              51.5122269,
              35.6343629
            ],
            [
              51.5080522,
              35.6339249
            ],
            [
              51.507962,
              35.6309401
            ],
            [
              51.5078543,
              35.6301354
            ],
            [
              51.5077999,
              35.6296083
            ],
            [
              51.5073056,
              35.62792
            ],
            [
              51.5059667,
              35.6253666
            ],
            [
              51.5050408,
              35.6237615
            ],
            [
              51.504185,
              35.6221757
            ],
            [
              51.5032302,
              35.6196689
            ],
            [
              51.5037755,
              35.6175797
            ],
            [
              51.504024,
              35.6169178
            ],
            [
              51.5042725,
              35.6164074
            ],
            [
              51.5045839,
              35.6153834
            ],
            [
              51.5043676,
              35.6142601
            ],
            [
              51.5035607,
              35.6131553
            ],
            [
              51.5026671,
              35.6145065
            ],
            [
              51.5013509,
              35.6157401
            ],
            [
              51.5003813,
              35.614934
            ],
            [
              51.4992214,
              35.6144668
            ],
            [
              51.4984954,
              35.6140213
            ],
            [
              51.4996168,
              35.612931
            ],
            [
              51.4987465,
              35.6125334
            ],
            [
              51.49886,
              35.6121789
            ],
            [
              51.5000972,
              35.6111117
            ],
            [
              51.5028428,
              35.6086617
            ],
            [
              51.502225,
              35.6075565
            ],
            [
              51.5005204,
              35.606345
            ],
            [
              51.4984125,
              35.6057444
            ],
            [
              51.4954732,
              35.6075155
            ],
            [
              51.4939157,
              35.6086254
            ],
            [
              51.4929794,
              35.6079794
            ],
            [
              51.4903261,
              35.6092745
            ],
            [
              51.4893248,
              35.6097897
            ],
            [
              51.4872025,
              35.6107823
            ],
            [
              51.4858752,
              35.6114429
            ],
            [
              51.4838155,
              35.6124535
            ],
            [
              51.4807736,
              35.6136848
            ],
            [
              51.480648,
              35.6137424
            ],
            [
              51.4802611,
              35.6139427
            ],
            [
              51.480217,
              35.6139649
            ],
            [
              51.4800416,
              35.6139826
            ],
            [
              51.4777203,
              35.6125442
            ],
            [
              51.4728655,
              35.6179938
            ],
            [
              51.4723006,
              35.6178946
            ],
            [
              51.4721709,
              35.6179709
            ],
            [
              51.4715273,
              35.6179472
            ],
            [
              51.4712177,
              35.6173572
            ],
            [
              51.4602717,
              35.6251127
            ],
            [
              51.457329,
              35.6268689
            ],
            [
              51.4563255,
              35.6272794
            ],
            [
              51.4553253,
              35.627703
            ],
            [
              51.4544701,
              35.6280392
            ],
            [
              51.4537723,
              35.6283273
            ],
            [
              51.4531065,
              35.6286098
            ],
            [
              51.4527825,
              35.6289613
            ],
            [
              51.4524662,
              35.6295107
            ],
            [
              51.4502891,
              35.6295415
            ],
            [
              51.447957,
              35.6295124
            ],
            [
              51.4462465,
              35.6294438
            ],
            [
              51.4443041,
              35.6292932
            ],
            [
              51.4423461,
              35.6289618
            ],
            [
              51.4398678,
              35.6284778
            ],
            [
              51.4363541,
              35.6274749
            ],
            [
              51.4360724,
              35.6299101
            ],
            [
              51.4357265,
              35.6331748
            ],
            [
              51.4345088,
              35.643055
            ],
            [
              51.434506,
              35.643454
            ],
            [
              51.4344336,
              35.6441776
            ],
            [
              51.4341918,
              35.645259
            ],
            [
              51.4341589,
              35.6455486
            ],
            [
              51.4336466,
              35.6495038
            ],
            [
              51.4334521,
              35.6509138
            ],
            [
              51.4311198,
              35.6589033
            ],
            [
              51.4309977,
              35.6593414
            ],
            [
              51.4311138,
              35.65953
            ],
            [
              51.4312908,
              35.6596935
            ],
            [
              51.4350888,
              35.6595606
            ],
            [
              51.4370669,
              35.6599079
            ],
            [
              51.4374297,
              35.659986
            ],
            [
              51.4387366,
              35.660222
            ],
            [
              51.4404076,
              35.6604312
            ],
            [
              51.441728,
              35.6605038
            ],
            [
              51.4423294,
              35.6605369
            ],
            [
              51.4449634,
              35.6607613
            ],
            [
              51.4451484,
              35.6608485
            ],
            [
              51.445296,
              35.6610501
            ],
            [
              51.4453644,
              35.6628251
            ],
            [
              51.4456059,
              35.6654069
            ]
          ]
        ]
      },
      "properties": {
        "id": 6729032,
        "name": "منطقه ۱۵ شهر تهران"
      }
    }
  ]
}