{
  "type": "FeatureCollection",
  "features": [
    {
      "type": "Feature",
      "geometry": {
        "type": "Polygon",
        "coordinates": [
          [
            [
              51.4681182,
              35.7813905
            ],
            [
              51.4687251,
              35.7826625
            ],
            [
              51.4701177,
              35.785491
            ],
            [
              51.4702713,
              35.7858022
            ],
            [
              51.4703692,
              35.7859426
            ],
            [
              51.4704798,
              35.7860502
            ],
            [
              51.470675,
              35.7861808
            ],
            [
              51.4709788,
              35.7862993
            ],
            [
              51.4717405,
              35.7864766
            ],
            [
              51.4725223,
              35.7866605
            ],
            [
              51.4728469,
              35.7867791
            ],
            [
              51.4731204,
              35.7869183
            ],
            [
              51.4733806,
              35.7871316
            ],
            [
              51.4740123,
              35.7877343
            ],
            [
              51.4753038,
              35.7890288
            ],
            [
              51.4758754,
              35.7896316
            ],
            [
              51.4761658,
              35.7899379
            ],
            [
              51.4764252,
              35.7902115
            ],
            [
              51.4767304,
              35.7902548
            ],
            [
              51.478909,
              35.790468
            ],
            [
              51.4794749,
              35.7904484
            ],
            [
              51.4806069,
              35.7902026
            ],
            [
              51.4837638,
              35.7888472
            ],
            [
              51.4844386,
              35.7885291
            ],
            [
              51.4847481,
              35.7883969
            ],
            [
              51.487472,
              35.7872523
            ],
            [
              51.4906155,
              35.7859349
            ],
            [
              51.4917461,
              35.7856792
            ],
            [
              51.4926463,
              35.7855955
            ],
            [
              51.4937407,
              35.7856652
            ],
            [
              51.4950184,
              35.7858359
            ],
            [
              51.4966921,
              35.7860708
            ],
            [
              51.4991329,
              35.7862797
            ],
            [
              51.5002486,
              35.7861578
            ],
            [
              51.5028128,
              35.7855181
            ],
            [
              51.5095828,
              35.7836643
            ],
            [
              51.5134827,
              35.7824284
            ],
            [
              51.5148881,
              35.7816755
            ],
            [
              51.5161917,
              35.780766
            ],
            [
              51.5189437,
              35.7787815
            ],
            [
              51.5193996,
              35.7785204
            ],
            [
              51.5205047,
              35.7780678
            ],
            [
              51.5217224,
              35.7775934
            ],
            [
              51.5226612,
              35.7775977
            ],
            [
              51.5265064,
              35.7773496
            ],
            [
              51.5272703,
              35.7773022
            ],
            [
              51.533931,
              35.7771111
            ],
            [
              51.5348971,
              35.7769599
            ],
            [
              51.5375469,
              35.7765465
            ],
            [
              51.5402378,
              35.7759741
            ],
            [
              51.5420491,
              35.7754283
            ],
            [
              51.5423923,
              35.7753249
            ],
            [
              51.5440098,
              35.774759
            ],
            [
              51.5442078,
              35.7746896
            ],
            [
              51.5476847,
              35.7734719
            ],
            [
              51.5510466,
              35.7723006
            ],
            [
              51.5541673,
              35.7712032
            ],
            [
              51.5562193,
              35.7704852
            ],
            [
              51.5572543,
              35.7701237
            ],
            [
              51.5588991,
              35.7693614
            ],
            [
              51.5598054,
              35.7688055
            ],
            [
              51.559974,
              35.7687032
            ],
            [
              51.5603914,
              35.7684559
            ],
            [
              51.560547,
              35.7683514
            ],
            [
              51.5609316,
              35.7680951
            ],
            [
              51.562368,
              35.7671337
            ],
            [
              51.5642183,
              35.7659187
            ],
            [
              51.5647882,
              35.7655487
            ],
            [
              51.5649583,
              35.7654427
            ],
            [
              51.5673096,
              35.7640263
            ],
            [
              51.5675872,
              35.7638603
            ],
            [
              51.5675954,
              35.7638542
            ],
            [
              51.5676185,
              35.7638403
            ],
            [
              51.5688478,
              35.762914
            ],
            [
              51.5692748,
              35.7625968
            ],
            [
              51.5696933,
              35.7622769
            ],
            [
              51.5699917,
              35.7620521
            ],
            [
              51.5701393,
              35.7619359
            ],
            [
              51.5702529,
              35.7618491
            ],
            [
              51.5724562,
              35.7601153
            ],
            [
              51.572756,
              35.7598779
            ],
            [
              51.5744332,
              35.7585586
            ],
            [
              51.5744942,
              35.7584867
            ],
            [
              51.5746128,
              35.7583541
            ],
            [
              51.5748879,
              35.7580226
            ],
            [
              51.5758457,
              35.7568937
            ],
            [
              51.5767878,
              35.7552067
            ],
            [
              51.5768055,
              35.7551755
            ],
            [
              51.5768149,
              35.7551583
            ],
            [
              51.5773012,
              35.7542876
            ],
            [
              51.5781675,
              35.753064
            ],
            [
              51.5795532,
              35.75212
            ],
            [
              51.5830923,
              35.7504337
            ],
            [
              51.5851406,
              35.7495497
            ],
            [
              51.5866222,
              35.748916
            ],
            [
              51.587124,
              35.7487858
            ],
            [
              51.5881214,
              35.7485433
            ],
            [
              51.5885143,
              35.7484548
            ],
            [
              51.5904595,
              35.7484189
            ],
            [
              51.5911263,
              35.7484265
            ],
            [
              51.5924587,
              35.7484375
            ],
            [
              51.5925628,
              35.7484377
            ],
            [
              51.592867,
              35.7484381
            ],
            [
              51.5938562,
              35.7482604
            ],
            [
              51.5940965,
              35.7482205
            ],
            [
              51.5947498,
              35.7479851
            ],
            [
              51.5951665,
              35.7478334
            ],
            [
              51.5957837,
              35.7476075
            ],
            [
              51.5958654,
              35.7475779
            ],
            [
              51.5977165,
              35.7467732
            ],
            [
              51.5978008,
              35.7467367
            ],
            [
              51.5990948,
              35.7462582
            ],
            [
              51.5994775,
              35.7461146
            ],
            [
              51.6008495,
              35.7456096
            ],
            [
              51.6009411,
              35.7455885
            ],
            [
              51.6027889,
              35.7451149
            ],
            [
              51.6038627,
              35.7448283
            ],
            [
              51.6044786,
              35.7446627
            ],
            [
              51.6050184,
              35.7444845
            ],
            [
              51.6053025,
              35.7443902
            ],
            [
              51.6053454,
              35.7443746
            ],
            [
              51.6053692,
              35.7443668
            ],
            [
              51.6055954,
              35.7442858
            ],
            [
              51.6060063,
              35.7441442
            ],
            [
              51.6062651,
              35.74405
            ],
            [
              51.6062636,
              35.7440466
            ],
            [
              51.6063007,
              35.7440333
            ],
            [
              51.6058896,
              35.7431005
            ],
            [
              51.6054784,
              35.7421676
            ],
            [
              51.6053486,
              35.7417602
            ],
            [
              51.6051991,
              35.7412501
            ],
            [
              51.6051004,
              35.7409264
            ],
            [
              51.6049485,
              35.7405572
            ],
            [
              51.6047902,
              35.7402823
            ],
            [
              51.6045947,
              35.7399893
            ],
            [
              51.6025486,
              35.7373187
            ],
            [
              51.6021794,
              35.7368173
            ],
            [
              51.6019495,
              35.7364941
            ],
            [
              51.6018094,
              35.7363048
            ],
            [
              51.6016694,
              35.7361036
            ],
            [
              51.6015566,
              35.7359562
            ],
            [
              51.6014057,
              35.7358568
            ],
            [
              51.6009527,
              35.7355175
            ],
            [
              51.6005497,
              35.7352134
            ],
            [
              51.6002007,
              35.7349222
            ],
            [
              51.5989578,
              35.7340133
            ],
            [
              51.5984382,
              35.7336131
            ],
            [
              51.5982367,
              35.7334886
            ],
            [
              51.5979907,
              35.7333529
            ],
            [
              51.597641,
              35.7331664
            ],
            [
              51.5963641,
              35.7324444
            ],
            [
              51.596065,
              35.7322581
            ],
            [
              51.5959225,
              35.7321507
            ],
            [
              51.5957043,
              35.7319244
            ],
            [
              51.5954351,
              35.7316676
            ],
            [
              51.5941561,
              35.7305296
            ],
            [
              51.5939005,
              35.7303018
            ],
            [
              51.5935754,
              35.7300373
            ],
            [
              51.5932373,
              35.7297606
            ],
            [
              51.5928719,
              35.7294379
            ],
            [
              51.592553,
              35.7291528
            ],
            [
              51.5922594,
              35.7288966
            ],
            [
              51.5920202,
              35.7286946
            ],
            [
              51.5919176,
              35.7286183
            ],
            [
              51.5917448,
              35.7285043
            ],
            [
              51.5916667,
              35.7284458
            ],
            [
              51.5915706,
              35.728379
            ],
            [
              51.5912874,
              35.728189
            ],
            [
              51.59082,
              35.7278679
            ],
            [
              51.5900852,
              35.7273772
            ],
            [
              51.5895122,
              35.7269807
            ],
            [
              51.5891098,
              35.7268048
            ],
            [
              51.5883031,
              35.7262638
            ],
            [
              51.5883475,
              35.7260293
            ],
            [
              51.5885577,
              35.7258832
            ],
            [
              51.5876716,
              35.724762
            ],
            [
              51.5875751,
              35.7244659
            ],
            [
              51.5875912,
              35.7241392
            ],
            [
              51.5877736,
              35.7238126
            ],
            [
              51.5879993,
              35.723535
            ],
            [
              51.5879433,
              35.7235642
            ],
            [
              51.5862286,
              35.7243298
            ],
            [
              51.5856224,
              35.7240957
            ],
            [
              51.5847983,
              35.7238626
            ],
            [
              51.5841445,
              35.7237847
            ],
            [
              51.5834069,
              35.7237124
            ],
            [
              51.580893,
              35.7237232
            ],
            [
              51.5767363,
              35.7238017
            ],
            [
              51.5709661,
              35.7242937
            ],
            [
              51.5666182,
              35.7250145
            ],
            [
              51.5639019,
              35.7258203
            ],
            [
              51.5630429,
              35.7259682
            ],
            [
              51.5591255,
              35.7261511
            ],
            [
              51.5588433,
              35.7262007
            ],
            [
              51.5583101,
              35.7262284
            ],
            [
              51.5572914,
              35.7261837
            ],
            [
              51.5457644,
              35.7253663
            ],
            [
              51.5431889,
              35.725219
            ],
            [
              51.5385939,
              35.7248967
            ],
            [
              51.5382439,
              35.7275187
            ],
            [
              51.5380555,
              35.7283503
            ],
            [
              51.5378858,
              35.7287065
            ],
            [
              51.537401,
              35.7293389
            ],
            [
              51.5367553,
              35.7298724
            ],
            [
              51.536133,
              35.7301773
            ],
            [
              51.535559,
              35.7303427
            ],
            [
              51.5341608,
              35.7305691
            ],
            [
              51.5181944,
              35.7326333
            ],
            [
              51.5176713,
              35.7327443
            ],
            [
              51.5160714,
              35.7329544
            ],
            [
              51.5021514,
              35.7347821
            ],
            [
              51.4948222,
              35.7357183
            ],
            [
              51.491916,
              35.7360884
            ],
            [
              51.4914039,
              35.7361697
            ],
            [
              51.4912991,
              35.7361864
            ],
            [
              51.4907707,
              35.7363519
            ],
            [
              51.4900626,
              35.7364477
            ],
            [
              51.488397,
              35.7367078
            ],
            [
              51.4844193,
              35.7373621
            ],
            [
              51.4832252,
              35.7375307
            ],
            [
              51.4819087,
              35.7377104
            ],
            [
              51.481029,
              35.7378323
            ],
            [
              51.4763297,
              35.7388077
            ],
            [
              51.475171,
              35.739008
            ],
            [
              51.474265,
              35.7391951
            ],
            [
              51.4737012,
              35.7393128
            ],
            [
              51.4714643,
              35.7396938
            ],
            [
              51.4690663,
              35.7400269
            ],
            [
              51.4671995,
              35.7403055
            ],
            [
              51.4668473,
              35.7403457
            ],
            [
              51.4658262,
              35.7404623
            ],
            [
              51.4649893,
              35.7404971
            ],
            [
              51.4636697,
              35.7405232
            ],
            [
              51.4626129,
              35.7407976
            ],
            [
              51.4616634,
              35.7410849
            ],
            [
              51.4607112,
              35.7412569
            ],
            [
              51.4602687,
              35.7412809
            ],
            [
              51.4595874,
              35.741246
            ],
            [
              51.4589437,
              35.7411938
            ],
            [
              51.4578225,
              35.7411111
            ],
            [
              51.4569642,
              35.7411546
            ],
            [
              51.453649,
              35.7414594
            ],
            [
              51.4494239,
              35.7418699
            ],
            [
              51.4486983,
              35.7419145
            ],
            [
              51.4473049,
              35.7419178
            ],
            [
              51.4468891,
              35.7419511
            ],
            [
              51.4470319,
              35.7425175
            ],
            [
              51.4471365,
              35.743016
            ],
            [
              51.4471815,
              35.7433485
            ],
            [
              51.447335,
              35.7436038
            ],
            [
              51.448593,
              35.7456327
            ],
            [
              51.4489792,
              35.7462074
            ],
            [
              51.4489316,
              35.7463386
            ],
            [
              51.4493627,
              35.7470336
            ],
            [
              51.4493976,
              35.7471478
            ],
            [
              51.4494526,
              35.7473382
            ],
            [
              51.4495156,
              35.7478183
            ],
            [
              51.4495049,
              35.7483495
            ],
            [
              51.4492045,
              35.7503434
            ],
            [
              51.4491077,
              35.750873
            ],
            [
              51.4490633,
              35.7511716
            ],
            [
              51.449007,
              35.7513457
            ],
            [
              51.4488921,
              35.7519259
            ],
            [
              51.4499581,
              35.7524453
            ],
            [
              51.450712,
              35.7528935
            ],
            [
              51.4523132,
              35.7538654
            ],
            [
              51.4525036,
              35.7546451
            ],
            [
              51.4525251,
              35.7547426
            ],
            [
              51.4525897,
              35.7550317
            ],
            [
              51.4526364,
              35.755246
            ],
            [
              51.4538233,
              35.7604105
            ],
            [
              51.4543705,
              35.7610547
            ],
            [
              51.4546602,
              35.7616554
            ],
            [
              51.4552627,
              35.7632478
            ],
            [
              51.4553231,
              35.7634377
            ],
            [
              51.4554363,
              35.763792
            ],
            [
              51.4554541,
              35.7638928
            ],
            [
              51.4560442,
              35.7658429
            ],
            [
              51.4565914,
              35.7664958
            ],
            [
              51.4578681,
              35.7679844
            ],
            [
              51.4601962,
              35.7707265
            ],
            [
              51.4622669,
              35.7731204
            ],
            [
              51.4641036,
              35.7752031
            ],
            [
              51.4647735,
              35.7760015
            ],
            [
              51.4665678,
              35.7780569
            ],
            [
              51.4675798,
              35.7802678
            ],
            [
              51.4678614,
              35.7808836
            ],
            [
              51.4681182,
              35.7813905
            ]
          ]
        ]
      },
      "properties": {
        "id": 6728863,
        "name": "منطقه ۴ شهر تهران"
      }
    }
  ]
}