{
  "type": "FeatureCollection",
  "features": [
    {
      "type": "Feature",
      "geometry": {
        "type": "Polygon",
        "coordinates": [
          [
            [
              51.3839342,
              35.7429496
            ],
            [
              51.3840677,
              35.7432611
            ],
            [
              51.3841653,
              35.7434695
            ],
            [
              51.3845104,
              35.7442209
            ],
            [
              51.3846482,
              35.7445115
            ],
            [
              51.3853002,
              35.7458356
            ],
            [
              51.3856101,
              35.7463904
            ],
            [
              51.385932,
              35.7478532
            ],
            [
              51.3860112,
              35.7491489
            ],
            [
              51.3860821,
              35.7503086
            ],
            [
              51.3886142,
              35.7504654
            ],
            [
              51.3901712,
              35.7506416
            ],
            [
              51.3917885,
              35.7507047
            ],
            [
              51.3924121,
              35.7507722
            ],
            [
              51.3955905,
              35.7509942
            ],
            [
              51.3967787,
              35.751077
            ],
            [
              51.4001235,
              35.7512446
            ],
            [
              51.4018267,
              35.7512794
            ],
            [
              51.4036158,
              35.751286
            ],
            [
              51.4042569,
              35.7512946
            ],
            [
              51.4052948,
              35.7513295
            ],
            [
              51.4091116,
              35.7513599
            ],
            [
              51.4103963,
              35.7514906
            ],
            [
              51.4113539,
              35.7516627
            ],
            [
              51.4133012,
              35.7520782
            ],
            [
              51.4142293,
              35.7521851
            ],
            [
              51.4152216,
              35.7521697
            ],
            [
              51.4162302,
              35.7520347
            ],
            [
              51.4172655,
              35.7517802
            ],
            [
              51.4182847,
              35.75136
            ],
            [
              51.4204465,
              35.7500473
            ],
            [
              51.4213049,
              35.7496533
            ],
            [
              51.42241,
              35.7469323
            ],
            [
              51.4223832,
              35.7450426
            ],
            [
              51.4223885,
              35.7448991
            ],
            [
              51.4224475,
              35.7439455
            ],
            [
              51.4227746,
              35.7415508
            ],
            [
              51.4227048,
              35.7402429
            ],
            [
              51.4225541,
              35.7396088
            ],
            [
              51.422369,
              35.7385747
            ],
            [
              51.4219078,
              35.7358664
            ],
            [
              51.4215483,
              35.7348148
            ],
            [
              51.4211728,
              35.7341638
            ],
            [
              51.4207705,
              35.7334452
            ],
            [
              51.4204889,
              35.7327594
            ],
            [
              51.4203466,
              35.7316359
            ],
            [
              51.4205692,
              35.7305712
            ],
            [
              51.4213767,
              35.7293159
            ],
            [
              51.4221276,
              35.7286443
            ],
            [
              51.4233252,
              35.7274597
            ],
            [
              51.4240951,
              35.7264974
            ],
            [
              51.4244263,
              35.7258343
            ],
            [
              51.4247965,
              35.7248087
            ],
            [
              51.4249011,
              35.7241457
            ],
            [
              51.4250647,
              35.7234826
            ],
            [
              51.4254107,
              35.722298
            ],
            [
              51.4263199,
              35.7212451
            ],
            [
              51.4267142,
              35.7208118
            ],
            [
              51.4275001,
              35.7189652
            ],
            [
              51.4274652,
              35.7185449
            ],
            [
              51.4270424,
              35.7176543
            ],
            [
              51.4265586,
              35.716635
            ],
            [
              51.4264004,
              35.7160078
            ],
            [
              51.4261734,
              35.715412
            ],
            [
              51.4259954,
              35.7149451
            ],
            [
              51.4258868,
              35.7145095
            ],
            [
              51.4258371,
              35.7142885
            ],
            [
              51.4257701,
              35.7137419
            ],
            [
              51.4257266,
              35.7135863
            ],
            [
              51.4256877,
              35.7132694
            ],
            [
              51.4256166,
              35.7125104
            ],
            [
              51.4255903,
              35.7123175
            ],
            [
              51.4254884,
              35.7111535
            ],
            [
              51.4256051,
              35.7091193
            ],
            [
              51.4257553,
              35.706906
            ],
            [
              51.4257671,
              35.7067353
            ],
            [
              51.4258694,
              35.7052513
            ],
            [
              51.4259967,
              35.7034053
            ],
            [
              51.4260275,
              35.70167
            ],
            [
              51.4190037,
              35.7015183
            ],
            [
              51.4128702,
              35.7013858
            ],
            [
              51.4116832,
              35.7013536
            ],
            [
              51.4099437,
              35.7013253
            ],
            [
              51.4053709,
              35.7012294
            ],
            [
              51.4051852,
              35.7012254
            ],
            [
              51.4020747,
              35.7011617
            ],
            [
              51.392783,
              35.7009692
            ],
            [
              51.3911254,
              35.7009038
            ],
            [
              51.3898244,
              35.7009191
            ],
            [
              51.3883063,
              35.7008842
            ],
            [
              51.3842635,
              35.7007854
            ],
            [
              51.3831264,
              35.7007616
            ],
            [
              51.3781086,
              35.7006576
            ],
            [
              51.3779284,
              35.7023994
            ],
            [
              51.3778927,
              35.7027443
            ],
            [
              51.3776381,
              35.7052632
            ],
            [
              51.377614,
              35.7055993
            ],
            [
              51.3778068,
              35.7065341
            ],
            [
              51.3778283,
              35.7068913
            ],
            [
              51.3778261,
              35.7103469
            ],
            [
              51.3778337,
              35.7104768
            ],
            [
              51.3779215,
              35.7119833
            ],
            [
              51.3779248,
              35.7121619
            ],
            [
              51.3779904,
              35.7140336
            ],
            [
              51.3779999,
              35.7143048
            ],
            [
              51.3780321,
              35.7166568
            ],
            [
              51.3782038,
              35.718216
            ],
            [
              51.3783663,
              35.7192178
            ],
            [
              51.3784548,
              35.7195016
            ],
            [
              51.3786973,
              35.7201846
            ],
            [
              51.3792552,
              35.7214302
            ],
            [
              51.3795985,
              35.7221706
            ],
            [
              51.3800062,
              35.7228587
            ],
            [
              51.3806392,
              35.7238168
            ],
            [
              51.381401,
              35.7249666
            ],
            [
              51.3816613,
              35.7254058
            ],
            [
              51.3819001,
              35.7257794
            ],
            [
              51.3824631,
              35.7265518
            ],
            [
              51.3829781,
              35.7277189
            ],
            [
              51.3832142,
              35.7285985
            ],
            [
              51.3832893,
              35.729034
            ],
            [
              51.3832976,
              35.7291508
            ],
            [
              51.3833322,
              35.729635
            ],
            [
              51.383361,
              35.7305619
            ],
            [
              51.3833644,
              35.7306714
            ],
            [
              51.3833635,
              35.7315203
            ],
            [
              51.3833765,
              35.7328357
            ],
            [
              51.3833324,
              35.7342505
            ],
            [
              51.3833644,
              35.7350054
            ],
            [
              51.3834077,
              35.7359601
            ],
            [
              51.3834476,
              35.7378781
            ],
            [
              51.383454,
              35.7387172
            ],
            [
              51.3834627,
              35.7395005
            ],
            [
              51.3835199,
              35.740532
            ],
            [
              51.3836326,
              35.7411829
            ],
            [
              51.3837555,
              35.7418451
            ],
            [
              51.3837555,
              35.7423783
            ],
            [
              51.3838476,
              35.742695
            ],
            [
              51.3839342,
              35.7429496
            ]
          ]
        ]
      },
      "properties": {
        "id": 6729037,
        "name": "منطقه ۶ شهر تهران"
      }
    }
  ]
}