{
  "type": "FeatureCollection",
  "features": [
    {
      "type": "Feature",
      "geometry": {
        "type": "Polygon",
        "coordinates": [
          [
            [
              51.44679,
              35.681748
            ],
            [
              51.4473239,
              35.6892892
            ],
            [
              51.4473525,
              35.6895984
            ],
            [
              51.4519544,
              35.6899701
            ],
            [
              51.4571828,
              35.6903358
            ],
            [
              51.4573697,
              35.6903464
            ],
            [
              51.4573826,
              35.6903471
            ],
            [
              51.4577662,
              35.6903688
            ],
            [
              51.4578971,
              35.6903763
            ],
            [
              51.461168,
              35.6905615
            ],
            [
              51.4634761,
              35.6907379
            ],
            [
              51.4651158,
              35.6908538
            ],
            [
              51.4668827,
              35.6909954
            ],
            [
              51.4674533,
              35.6910411
            ],
            [
              51.473184,
              35.6915003
            ],
            [
              51.4737475,
              35.6915437
            ],
            [
              51.4763519,
              35.6917442
            ],
            [
              51.4786358,
              35.6919109
            ],
            [
              51.4802897,
              35.6920381
            ],
            [
              51.4829931,
              35.6922278
            ],
            [
              51.487745,
              35.6925862
            ],
            [
              51.4894733,
              35.6927071
            ],
            [
              51.4911852,
              35.6928137
            ],
            [
              51.4933304,
              35.6929613
            ],
            [
              51.4949379,
              35.6929218
            ],
            [
              51.4988325,
              35.6921186
            ],
            [
              51.4993955,
              35.6920314
            ],
            [
              51.5000901,
              35.6920411
            ],
            [
              51.5005375,
              35.6920057
            ],
            [
              51.5041801,
              35.6914236
            ],
            [
              51.5053808,
              35.6911921
            ],
            [
              51.505574,
              35.6911078
            ],
            [
              51.5056647,
              35.691018
            ],
            [
              51.5057261,
              35.6908956
            ],
            [
              51.5057389,
              35.6906065
            ],
            [
              51.5057817,
              35.6901596
            ],
            [
              51.5190586,
              35.6770578
            ],
            [
              51.5142429,
              35.6737014
            ],
            [
              51.5139968,
              35.6730433
            ],
            [
              51.5225372,
              35.6694275
            ],
            [
              51.5232467,
              35.6691262
            ],
            [
              51.5228173,
              35.6679662
            ],
            [
              51.5224603,
              35.6677119
            ],
            [
              51.521301,
              35.6670102
            ],
            [
              51.5203131,
              35.6660251
            ],
            [
              51.5194407,
              35.6650394
            ],
            [
              51.5186252,
              35.6639122
            ],
            [
              51.5180983,
              35.6627838
            ],
            [
              51.5176294,
              35.6617021
            ],
            [
              51.5172755,
              35.6605258
            ],
            [
              51.5169127,
              35.6579832
            ],
            [
              51.516615,
              35.6565711
            ],
            [
              51.516514,
              35.6560725
            ],
            [
              51.5163765,
              35.6553942
            ],
            [
              51.5160797,
              35.6541234
            ],
            [
              51.5154939,
              35.6528067
            ],
            [
              51.5151406,
              35.6517246
            ],
            [
              51.5146139,
              35.6505961
            ],
            [
              51.5136653,
              35.6491159
            ],
            [
              51.5126059,
              35.6484887
            ],
            [
              51.5115402,
              35.6477758
            ],
            [
              51.5104156,
              35.6470623
            ],
            [
              51.5095055,
              35.6462429
            ],
            [
              51.5085762,
              35.645462
            ],
            [
              51.5077964,
              35.6445464
            ],
            [
              51.5075924,
              35.6441634
            ],
            [
              51.5054689,
              35.6443641
            ],
            [
              51.5025556,
              35.6446254
            ],
            [
              51.5024031,
              35.6446374
            ],
            [
              51.5016296,
              35.6445607
            ],
            [
              51.4999593,
              35.6448287
            ],
            [
              51.4992626,
              35.6449405
            ],
            [
              51.498448,
              35.6455779
            ],
            [
              51.4981039,
              35.6458472
            ],
            [
              51.4971203,
              35.6465252
            ],
            [
              51.4973576,
              35.6475736
            ],
            [
              51.497553,
              35.6481655
            ],
            [
              51.4976828,
              35.6485586
            ],
            [
              51.5014909,
              35.6596521
            ],
            [
              51.5018805,
              35.6603188
            ],
            [
              51.4907242,
              35.6628641
            ],
            [
              51.4905531,
              35.6623607
            ],
            [
              51.4902682,
              35.661622
            ],
            [
              51.4901548,
              35.6613279
            ],
            [
              51.4900623,
              35.6610576
            ],
            [
              51.489716,
              35.6600458
            ],
            [
              51.4896683,
              35.659905
            ],
            [
              51.4891937,
              35.6585027
            ],
            [
              51.488835,
              35.6577336
            ],
            [
              51.4882087,
              35.6562937
            ],
            [
              51.4871639,
              35.6564114
            ],
            [
              51.4870158,
              35.656432
            ],
            [
              51.47948,
              35.6574814
            ],
            [
              51.4699881,
              35.6588369
            ],
            [
              51.4692773,
              35.6589384
            ],
            [
              51.4686681,
              35.6590351
            ],
            [
              51.4680221,
              35.659254
            ],
            [
              51.466203,
              35.6597326
            ],
            [
              51.4658289,
              35.6597501
            ],
            [
              51.4654748,
              35.6596956
            ],
            [
              51.4634885,
              35.6590932
            ],
            [
              51.4623725,
              35.65881
            ],
            [
              51.4614408,
              35.6585907
            ],
            [
              51.4609633,
              35.6589372
            ],
            [
              51.460278,
              35.6593534
            ],
            [
              51.4588699,
              35.6597707
            ],
            [
              51.4574657,
              35.6601663
            ],
            [
              51.4568435,
              35.6603482
            ],
            [
              51.4557552,
              35.6611046
            ],
            [
              51.4550592,
              35.6615055
            ],
            [
              51.4543853,
              35.6619456
            ],
            [
              51.4531669,
              35.6627815
            ],
            [
              51.4515227,
              35.66398
            ],
            [
              51.450592,
              35.664588
            ],
            [
              51.4502023,
              35.6648254
            ],
            [
              51.4497732,
              35.6649562
            ],
            [
              51.4471936,
              35.6652755
            ],
            [
              51.4456059,
              35.6654069
            ],
            [
              51.4458795,
              35.6685529
            ],
            [
              51.4460569,
              35.671757
            ],
            [
              51.4461797,
              35.673656
            ],
            [
              51.446259,
              35.6748314
            ],
            [
              51.4464218,
              35.6772434
            ],
            [
              51.4465445,
              35.6788609
            ],
            [
              51.44679,
              35.681748
            ]
          ]
        ]
      },
      "properties": {
        "id": 6729033,
        "name": "منطقه ۱۴ شهر تهران"
      }
    }
  ]
}